<?xml version='1.0' encoding='utf-8'?>
<kml xmlns="http://www.opengis.net/kml/2.2"><Document><name>Norrfällsvikens Golfklubb GPS Data</name><Placemark><name>Hole 1 - Tee Target</name><Point><coordinates>18.530780670621958,62.98160552242159,0</coordinates></Point></Placemark><Placemark><name>Hole 1 - Green Center</name><Point><coordinates>18.532534359036042,62.98171719258006,0</coordinates></Point></Placemark><Placemark><name>Hole 1 - Green Front</name><Point><coordinates>18.532406089290976,62.98170665478138,0</coordinates></Point></Placemark><Placemark><name>Hole 1 - Green Back</name><Point><coordinates>18.5326545822,62.9817265122,0</coordinates></Point></Placemark><Placemark><name>Hole 1 - TheTipsTee Back Reach</name><Point><coordinates>18.52633625028428,62.98120220785502,0</coordinates></Point></Placemark><Placemark><name>Hole 2 - Tee Target</name><Point><coordinates>18.53184637244023,62.9811871577168,0</coordinates></Point></Placemark><Placemark><name>Hole 2 - Green Center</name><Point><coordinates>18.530437736481993,62.97987195283357,0</coordinates></Point></Placemark><Placemark><name>Hole 2 - Green Front</name><Point><coordinates>18.530534772245897,62.97995646487509,0</coordinates></Point></Placemark><Placemark><name>Hole 2 - Green Back</name><Point><coordinates>18.530378251536064,62.97980693743963,0</coordinates></Point></Placemark><Placemark><name>Hole 2 - TheTipsTee Back Reach</name><Point><coordinates>18.53184637244023,62.9811871577168,0</coordinates></Point></Placemark><Placemark><name>Hole 3 - Tee Target</name><Point><coordinates>18.532225428734943,62.97744818248449,0</coordinates></Point></Placemark><Placemark><name>Hole 3 - Green Center</name><Point><coordinates>18.532324194190995,62.97703827636109,0</coordinates></Point></Placemark><Placemark><name>Hole 3 - Green Front</name><Point><coordinates>18.532311259399997,62.977105743187366,0</coordinates></Point></Placemark><Placemark><name>Hole 3 - Green Back</name><Point><coordinates>18.53234249345494,62.9769890894586,0</coordinates></Point></Placemark><Placemark><name>Hole 3 - TheTipsTee Back Reach</name><Point><coordinates>18.53043639532201,62.97908598602571,0</coordinates></Point></Placemark><Placemark><name>Hole 4 - Tee Target</name><Point><coordinates>18.534380107423054,62.97967288979702,0</coordinates></Point></Placemark><Placemark><name>Hole 4 - Green Center</name><Point><coordinates>18.533494502181952,62.980992113942,0</coordinates></Point></Placemark><Placemark><name>Hole 4 - Green Front</name><Point><coordinates>18.53356203372703,62.980892628145874,0</coordinates></Point></Placemark><Placemark><name>Hole 4 - Green Back</name><Point><coordinates>18.53343233513688,62.9810891627841,0</coordinates></Point></Placemark><Placemark><name>Hole 4 - TheTipsTee Back Reach</name><Point><coordinates>18.534616141816365,62.9776232248864,0</coordinates></Point></Placemark><Placemark><name>Hole 5 - Tee Target</name><Point><coordinates>18.538098513973083,62.98051811749517,0</coordinates></Point></Placemark><Placemark><name>Hole 5 - Green Center</name><Point><coordinates>18.539512903,62.9808893301,0</coordinates></Point></Placemark><Placemark><name>Hole 5 - Green Front</name><Point><coordinates>18.539266615988478,62.980822743397276,0</coordinates></Point></Placemark><Placemark><name>Hole 5 - Green Back</name><Point><coordinates>18.53974846111068,62.98093642092274,0</coordinates></Point></Placemark><Placemark><name>Hole 5 - TheTipsTee Back Reach</name><Point><coordinates>18.53387671698364,62.98126383606814,0</coordinates></Point></Placemark><Placemark><name>Hole 6 - Tee Target</name><Point><coordinates>18.53814631752712,62.97831941220869,0</coordinates></Point></Placemark><Placemark><name>Hole 6 - Green Center</name><Point><coordinates>18.538357735700007,62.977186868653625,0</coordinates></Point></Placemark><Placemark><name>Hole 6 - Green Front</name><Point><coordinates>18.538344800972958,62.97727992654502,0</coordinates></Point></Placemark><Placemark><name>Hole 6 - Green Back</name><Point><coordinates>18.538381399345088,62.97711330906955,0</coordinates></Point></Placemark><Placemark><name>Hole 6 - TheTipsTee Back Reach</name><Point><coordinates>18.539385498092,62.98030079130207,0</coordinates></Point></Placemark><Placemark><name>Hole 7 - Tee Target</name><Point><coordinates>18.537262053361626,62.9770381931364,0</coordinates></Point></Placemark><Placemark><name>Hole 7 - Green Center</name><Point><coordinates>18.5347054319,62.9768525153,0</coordinates></Point></Placemark><Placemark><name>Hole 7 - Green Front</name><Point><coordinates>18.535025091028697,62.976873674214445,0</coordinates></Point></Placemark><Placemark><name>Hole 7 - Green Back</name><Point><coordinates>18.534452828034386,62.976826481991935,0</coordinates></Point></Placemark><Placemark><name>Hole 7 - TheTipsTee Back Reach</name><Point><coordinates>18.537262053361626,62.9770381931364,0</coordinates></Point></Placemark><Placemark><name>Hole 8 - Tee Target</name><Point><coordinates>18.534631671222684,62.97908623892319,0</coordinates></Point></Placemark><Placemark><name>Hole 8 - Green Center</name><Point><coordinates>18.5335234426,62.980996463,0</coordinates></Point></Placemark><Placemark><name>Hole 8 - Green Front</name><Point><coordinates>18.533585609709036,62.98089332177221,0</coordinates></Point></Placemark><Placemark><name>Hole 8 - Green Back</name><Point><coordinates>18.533442500054107,62.98110447809285,0</coordinates></Point></Placemark><Placemark><name>Hole 8 - TheTipsTee Back Reach</name><Point><coordinates>18.534068407329556,62.9771315878074,0</coordinates></Point></Placemark><Placemark><name>Hole 9 - Tee Target</name><Point><coordinates>18.528264971813886,62.982475672469526,0</coordinates></Point></Placemark><Placemark><name>Hole 9 - Green Center</name><Point><coordinates>18.5253596632,62.9813640156,0</coordinates></Point></Placemark><Placemark><name>Hole 9 - Green Front</name><Point><coordinates>18.525518389772966,62.98142049450002,0</coordinates></Point></Placemark><Placemark><name>Hole 9 - Green Back</name><Point><coordinates>18.525214347690135,62.981305099800004,0</coordinates></Point></Placemark><Placemark><name>Hole 9 - TheTipsTee Back Reach</name><Point><coordinates>18.532020064434736,62.98230021826583,0</coordinates></Point></Placemark><Placemark><name>Hole 10 - Tee Target</name><Point><coordinates>18.526900592303715,62.98389955130918,0</coordinates></Point></Placemark><Placemark><name>Hole 10 - Green Center</name><Point><coordinates>18.5309073362541,62.98486284562879,0</coordinates></Point></Placemark><Placemark><name>Hole 10 - Green Front</name><Point><coordinates>18.530776384345064,62.98482671539102,0</coordinates></Point></Placemark><Placemark><name>Hole 10 - Green Back</name><Point><coordinates>18.53104097050001,62.984890447744895,0</coordinates></Point></Placemark><Placemark><name>Hole 10 - TheTipsTee Back Reach</name><Point><coordinates>18.52473873183771,62.98209752808759,0</coordinates></Point></Placemark><Placemark><name>Hole 11 - Tee Target</name><Point><coordinates>18.52885678752221,62.98501513629003,0</coordinates></Point></Placemark><Placemark><name>Hole 11 - Green Center</name><Point><coordinates>18.52654424702871,62.984549313266974,0</coordinates></Point></Placemark><Placemark><name>Hole 11 - Green Front</name><Point><coordinates>18.526676151549253,62.98457288197396,0</coordinates></Point></Placemark><Placemark><name>Hole 11 - Green Back</name><Point><coordinates>18.5263855205,62.9845123431,0</coordinates></Point></Placemark><Placemark><name>Hole 11 - TheTipsTee Back Reach</name><Point><coordinates>18.52885678752221,62.98501513629003,0</coordinates></Point></Placemark><Placemark><name>Hole 12 - Tee Target</name><Point><coordinates>18.52812540929223,62.98731725483149,0</coordinates></Point></Placemark><Placemark><name>Hole 12 - Green Center</name><Point><coordinates>18.5303417788,62.9877225095,0</coordinates></Point></Placemark><Placemark><name>Hole 12 - Green Front</name><Point><coordinates>18.530090127399156,62.98767419295816,0</coordinates></Point></Placemark><Placemark><name>Hole 12 - Green Back</name><Point><coordinates>18.53059343019999,62.987767171600005,0</coordinates></Point></Placemark><Placemark><name>Hole 12 - TheTipsTee Back Reach</name><Point><coordinates>18.526054743932733,62.98548863978177,0</coordinates></Point></Placemark><Placemark><name>Hole 13 - Tee Target</name><Point><coordinates>18.53028679348993,62.986114428732265,0</coordinates></Point></Placemark><Placemark><name>Hole 13 - Green Center</name><Point><coordinates>18.53081739461804,62.985190541966254,0</coordinates></Point></Placemark><Placemark><name>Hole 13 - Green Front</name><Point><coordinates>18.530772273318863,62.98526893256478,0</coordinates></Point></Placemark><Placemark><name>Hole 13 - Green Back</name><Point><coordinates>18.530859833672114,62.98513773595599,0</coordinates></Point></Placemark><Placemark><name>Hole 13 - TheTipsTee Back Reach</name><Point><coordinates>18.5328187988,62.988292626,0</coordinates></Point></Placemark><Placemark><name>Hole 14 - Tee Target</name><Point><coordinates>18.531899665972137,62.98554750605803,0</coordinates></Point></Placemark><Placemark><name>Hole 14 - Green Center</name><Point><coordinates>18.5325965641,62.9868408981,0</coordinates></Point></Placemark><Placemark><name>Hole 14 - Green Front</name><Point><coordinates>18.532556807227028,62.98676212614835,0</coordinates></Point></Placemark><Placemark><name>Hole 14 - Green Back</name><Point><coordinates>18.5326443675,62.9869111423,0</coordinates></Point></Placemark><Placemark><name>Hole 14 - TheTipsTee Back Reach</name><Point><coordinates>18.531902348181152,62.9855487243582,0</coordinates></Point></Placemark><Placemark><name>Hole 15 - Tee Target</name><Point><coordinates>18.53717107151601,62.985656738668226,0</coordinates></Point></Placemark><Placemark><name>Hole 15 - Green Center</name><Point><coordinates>18.53791356721637,62.98505569335867,0</coordinates></Point></Placemark><Placemark><name>Hole 15 - Green Front</name><Point><coordinates>18.5378201660893,62.98513043027809,0</coordinates></Point></Placemark><Placemark><name>Hole 15 - Green Back</name><Point><coordinates>18.53799623935327,62.985000449637916,0</coordinates></Point></Placemark><Placemark><name>Hole 15 - TheTipsTee Back Reach</name><Point><coordinates>18.534006064878437,62.98712109332887,0</coordinates></Point></Placemark><Placemark><name>Hole 16 - Tee Target</name><Point><coordinates>18.538842952599985,62.98242156524248,0</coordinates></Point></Placemark><Placemark><name>Hole 16 - Green Center</name><Point><coordinates>18.53784201239099,62.98173880756424,0</coordinates></Point></Placemark><Placemark><name>Hole 16 - Green Front</name><Point><coordinates>18.5379765991287,62.98182574662355,0</coordinates></Point></Placemark><Placemark><name>Hole 16 - Green Back</name><Point><coordinates>18.537726201170454,62.98166283465157,0</coordinates></Point></Placemark><Placemark><name>Hole 16 - TheTipsTee Back Reach</name><Point><coordinates>18.538816130509836,62.984478203649616,0</coordinates></Point></Placemark><Placemark><name>Hole 17 - Tee Target</name><Point><coordinates>18.53483391497639,62.98260268218456,0</coordinates></Point></Placemark><Placemark><name>Hole 17 - Green Center</name><Point><coordinates>18.532690353718856,62.983855989900015,0</coordinates></Point></Placemark><Placemark><name>Hole 17 - Green Front</name><Point><coordinates>18.532776660666443,62.98380524096376,0</coordinates></Point></Placemark><Placemark><name>Hole 17 - Green Back</name><Point><coordinates>18.532585271280304,62.98391404906152,0</coordinates></Point></Placemark><Placemark><name>Hole 17 - TheTipsTee Back Reach</name><Point><coordinates>18.537221080999643,62.98145734210081,0</coordinates></Point></Placemark><Placemark><name>Hole 18 - Tee Target</name><Point><coordinates>18.527477480551447,62.98316638384738,0</coordinates></Point></Placemark><Placemark><name>Hole 18 - Green Center</name><Point><coordinates>18.5252762517,62.9817257719,0</coordinates></Point></Placemark><Placemark><name>Hole 18 - Green Front</name><Point><coordinates>18.525437660590985,62.98182733208474,0</coordinates></Point></Placemark><Placemark><name>Hole 18 - Green Back</name><Point><coordinates>18.525152393827057,62.98164127008021,0</coordinates></Point></Placemark><Placemark><name>Hole 18 - TheTipsTee Back Reach</name><Point><coordinates>18.531189657828058,62.983622061708864,0</coordinates></Point></Placemark></Document></kml>