<?xml version='1.0' encoding='utf-8'?><kml xmlns="http://www.opengis.net/kml/2.2"><Document><name>Örnsköldsviks Golfklubb Puttom GPS Data</name><Placemark><name>Hole 1 - Tee Target</name><Point><coordinates>18.937994754430466,63.303537882877656,0</coordinates></Point></Placemark><Placemark><name>Hole 1 - Green Center</name><Point><coordinates>18.9375141628,63.3041167466,0</coordinates></Point></Placemark><Placemark><name>Hole 1 - Green Front</name><Point><coordinates>18.9376111986,63.3040102466,0</coordinates></Point></Placemark><Placemark><name>Hole 1 - Green Back</name><Point><coordinates>18.9374332203,63.3041943266,0</coordinates></Point></Placemark><Placemark><name>Hole 1 - TheTipsTee Back Reach</name><Point><coordinates>18.939507520314866,63.30177006503156,0</coordinates></Point></Placemark><Placemark><name>Hole 2 - Tee Target</name><Point><coordinates>18.933851606395855,63.30485780917075,0</coordinates></Point></Placemark><Placemark><name>Hole 2 - Green Center</name><Point><coordinates>18.9325314833,63.3046823452,0</coordinates></Point></Placemark><Placemark><name>Hole 2 - Green Front</name><Point><coordinates>18.9328109093,63.3047035734,0</coordinates></Point></Placemark><Placemark><name>Hole 2 - Green Back</name><Point><coordinates>18.9322466929,63.3046611172,0</coordinates></Point></Placemark><Placemark><name>Hole 2 - TheTipsTee Back Reach</name><Point><coordinates>18.937995619323864,63.30434328481936,0</coordinates></Point></Placemark><Placemark><name>Hole 3 - Tee Target</name><Point><coordinates>18.932117082,63.3044389399,0</coordinates></Point></Placemark><Placemark><name>Hole 3 - Green Center</name><Point><coordinates>18.931671359,63.3033476636,0</coordinates></Point></Placemark><Placemark><name>Hole 3 - Green Front</name><Point><coordinates>18.9317308439,63.3034845785,0</coordinates></Point></Placemark><Placemark><name>Hole 3 - Green Back</name><Point><coordinates>18.931622603,63.303232439,0</coordinates></Point></Placemark><Placemark><name>Hole 3 - TheTipsTee Back Reach</name><Point><coordinates>18.932117082,63.3044389399,0</coordinates></Point></Placemark><Placemark><name>Hole 4 - Tee Target</name><Point><coordinates>18.936841316879594,63.30310665714229,0</coordinates></Point></Placemark><Placemark><name>Hole 4 - Green Center</name><Point><coordinates>18.9386593784,63.3014754434,0</coordinates></Point></Placemark><Placemark><name>Hole 4 - Green Front</name><Point><coordinates>18.9385472019,63.3015689882,0</coordinates></Point></Placemark><Placemark><name>Hole 4 - Green Back</name><Point><coordinates>18.9387661905,63.3013794883,0</coordinates></Point></Placemark><Placemark><name>Hole 4 - TheTipsTee Back Reach</name><Point><coordinates>18.933311529815995,63.30403211111094,0</coordinates></Point></Placemark><Placemark><name>Hole 5 - Tee Target</name><Point><coordinates>18.94337872511303,63.302073169668475,0</coordinates></Point></Placemark><Placemark><name>Hole 5 - Green Center</name><Point><coordinates>18.9463072211,63.3021049566,0</coordinates></Point></Placemark><Placemark><name>Hole 5 - Green Front</name><Point><coordinates>18.9459751035,63.3020972713,0</coordinates></Point></Placemark><Placemark><name>Hole 5 - Green Back</name><Point><coordinates>18.9466071523,63.3021005913,0</coordinates></Point></Placemark><Placemark><name>Hole 5 - TheTipsTee Back Reach</name><Point><coordinates>18.94337872511303,63.302073169668475,0</coordinates></Point></Placemark><Placemark><name>Hole 6 - Tee Target</name><Point><coordinates>18.9496854634257,63.30128790116875,0</coordinates></Point></Placemark><Placemark><name>Hole 6 - Green Center</name><Point><coordinates>18.9507900572,63.3009195853,0</coordinates></Point></Placemark><Placemark><name>Hole 6 - Green Front</name><Point><coordinates>18.9505544991,63.3009818007,0</coordinates></Point></Placemark><Placemark><name>Hole 6 - Green Back</name><Point><coordinates>18.9510148865,63.3008621905,0</coordinates></Point></Placemark><Placemark><name>Hole 6 - TheTipsTee Back Reach</name><Point><coordinates>18.946230778214517,63.30257011351686,0</coordinates></Point></Placemark><Placemark><name>Hole 7 - Tee Target</name><Point><coordinates>18.94914720426821,63.29847789045884,0</coordinates></Point></Placemark><Placemark><name>Hole 7 - Green Center</name><Point><coordinates>18.9479544861,63.2977997805,0</coordinates></Point></Placemark><Placemark><name>Hole 7 - Green Front</name><Point><coordinates>18.94820709,63.2979331209,0</coordinates></Point></Placemark><Placemark><name>Hole 7 - Green Back</name><Point><coordinates>18.9477287042,63.2976784924,0</coordinates></Point></Placemark><Placemark><name>Hole 7 - TheTipsTee Back Reach</name><Point><coordinates>18.950976470816368,63.300365220597975,0</coordinates></Point></Placemark><Placemark><name>Hole 8 - Tee Target</name><Point><coordinates>18.94940958443013,63.29995952459127,0</coordinates></Point></Placemark><Placemark><name>Hole 8 - Green Center</name><Point><coordinates>18.9501681733,63.3006131706,0</coordinates></Point></Placemark><Placemark><name>Hole 8 - Green Front</name><Point><coordinates>18.9500935478,63.3005307691,0</coordinates></Point></Placemark><Placemark><name>Hole 8 - Green Back</name><Point><coordinates>18.9502910787,63.3006979824,0</coordinates></Point></Placemark><Placemark><name>Hole 8 - TheTipsTee Back Reach</name><Point><coordinates>18.947384516623885,63.29811917251873,0</coordinates></Point></Placemark><Placemark><name>Hole 9 - Tee Target</name><Point><coordinates>18.94441349390776,63.301439886068664,0</coordinates></Point></Placemark><Placemark><name>Hole 9 - Green Center</name><Point><coordinates>18.9402529115,63.3010064955,0</coordinates></Point></Placemark><Placemark><name>Hole 9 - Green Front</name><Point><coordinates>18.9406396258,63.3010349672,0</coordinates></Point></Placemark><Placemark><name>Hole 9 - Green Back</name><Point><coordinates>18.9398876548,63.3009828446,0</coordinates></Point></Placemark><Placemark><name>Hole 9 - TheTipsTee Back Reach</name><Point><coordinates>18.948544095790695,63.30101086469397,0</coordinates></Point></Placemark><Placemark><name>Hole 10 - Tee Target</name><Point><coordinates>18.94555966200411,63.30026894937836,0</coordinates></Point></Placemark><Placemark><name>Hole 10 - Green Center</name><Point><coordinates>18.9473938167,63.2998017933,0</coordinates></Point></Placemark><Placemark><name>Hole 10 - Green Front</name><Point><coordinates>18.9472011739,63.2998399106,0</coordinates></Point></Placemark><Placemark><name>Hole 10 - Green Back</name><Point><coordinates>18.947554273,63.2997564452,0</coordinates></Point></Placemark><Placemark><name>Hole 10 - TheTipsTee Back Reach</name><Point><coordinates>18.941171568055747,63.30085223908575,0</coordinates></Point></Placemark><Placemark><name>Hole 11 - Tee Target</name><Point><coordinates>18.945911896279178,63.297187648526624,0</coordinates></Point></Placemark><Placemark><name>Hole 11 - Green Center</name><Point><coordinates>18.9457799917,63.2965709756,0</coordinates></Point></Placemark><Placemark><name>Hole 11 - Green Front</name><Point><coordinates>18.9458287478,63.2967416896,0</coordinates></Point></Placemark><Placemark><name>Hole 11 - Green Back</name><Point><coordinates>18.9457312357,63.2964364202,0</coordinates></Point></Placemark><Placemark><name>Hole 11 - TheTipsTee Back Reach</name><Point><coordinates>18.946791660836062,63.299034086125324,0</coordinates></Point></Placemark><Placemark><name>Hole 12 - Tee Target</name><Point><coordinates>18.945089322890976,63.29579836092978,0</coordinates></Point></Placemark><Placemark><name>Hole 12 - Green Center</name><Point><coordinates>18.9448259902,63.2966991767,0</coordinates></Point></Placemark><Placemark><name>Hole 12 - Green Front</name><Point><coordinates>18.9448640174,63.2965902605,0</coordinates></Point></Placemark><Placemark><name>Hole 12 - Green Back</name><Point><coordinates>18.9448147851,63.296812914,0</coordinates></Point></Placemark><Placemark><name>Hole 12 - TheTipsTee Back Reach</name><Point><coordinates>18.945089322890976,63.29579836092978,0</coordinates></Point></Placemark><Placemark><name>Hole 13 - Tee Target</name><Point><coordinates>18.94554616335839,63.29965804991616,0</coordinates></Point></Placemark><Placemark><name>Hole 13 - Green Center</name><Point><coordinates>18.9417449969,63.3004731913,0</coordinates></Point></Placemark><Placemark><name>Hole 13 - Green Front</name><Point><coordinates>18.9419815075,63.3004052529,0</coordinates></Point></Placemark><Placemark><name>Hole 13 - Green Back</name><Point><coordinates>18.9414655709,63.3005363092,0</coordinates></Point></Placemark><Placemark><name>Hole 13 - TheTipsTee Back Reach</name><Point><coordinates>18.944666398801505,63.29780803651914,0</coordinates></Point></Placemark><Placemark><name>Hole 14 - Tee Target</name><Point><coordinates>18.93923847252266,63.29813510992642,0</coordinates></Point></Placemark><Placemark><name>Hole 14 - Green Center</name><Point><coordinates>18.9387605631,63.2962287874,0</coordinates></Point></Placemark><Placemark><name>Hole 14 - Green Front</name><Point><coordinates>18.9387878615,63.2963127212,0</coordinates></Point></Placemark><Placemark><name>Hole 14 - Green Back</name><Point><coordinates>18.9387332647,63.2961400322,0</coordinates></Point></Placemark><Placemark><name>Hole 14 - TheTipsTee Back Reach</name><Point><coordinates>18.9416417318,63.300121286,0</coordinates></Point></Placemark><Placemark><name>Hole 15 - Tee Target</name><Point><coordinates>18.9380618477,63.2955513867,0</coordinates></Point></Placemark><Placemark><name>Hole 15 - Green Center</name><Point><coordinates>18.9394668489,63.2943488507,0</coordinates></Point></Placemark><Placemark><name>Hole 15 - Green Front</name><Point><coordinates>18.9393868589,63.2944231537,0</coordinates></Point></Placemark><Placemark><name>Hole 15 - Green Back</name><Point><coordinates>18.9395522033,63.2942793693,0</coordinates></Point></Placemark><Placemark><name>Hole 15 - TheTipsTee Back Reach</name><Point><coordinates>18.9380618477,63.2955513867,0</coordinates></Point></Placemark><Placemark><name>Hole 16 - Tee Target</name><Point><coordinates>18.9359813182598,63.29362680474999,0</coordinates></Point></Placemark><Placemark><name>Hole 16 - Green Center</name><Point><coordinates>18.9350796198,63.2936947406,0</coordinates></Point></Placemark><Placemark><name>Hole 16 - Green Front</name><Point><coordinates>18.9352571219,63.2936726112,0</coordinates></Point></Placemark><Placemark><name>Hole 16 - Green Back</name><Point><coordinates>18.934918211,63.2937072268,0</coordinates></Point></Placemark><Placemark><name>Hole 16 - TheTipsTee Back Reach</name><Point><coordinates>18.93994025876578,63.29426929391111,0</coordinates></Point></Placemark><Placemark><name>Hole 17 - Tee Target</name><Point><coordinates>18.937422529402983,63.2964152703225,0</coordinates></Point></Placemark><Placemark><name>Hole 17 - Green Center</name><Point><coordinates>18.9371444445,63.2975173513,0</coordinates></Point></Placemark><Placemark><name>Hole 17 - Green Front</name><Point><coordinates>18.9371824717,63.2974228981,0</coordinates></Point></Placemark><Placemark><name>Hole 17 - Green Back</name><Point><coordinates>18.9371010529,63.2976166255,0</coordinates></Point></Placemark><Placemark><name>Hole 17 - TheTipsTee Back Reach</name><Point><coordinates>18.936912909690154,63.294368568733326,0</coordinates></Point></Placemark><Placemark><name>Hole 18 - Tee Target</name><Point><coordinates>18.939036742939784,63.29978437740942,0</coordinates></Point></Placemark><Placemark><name>Hole 18 - Green Center</name><Point><coordinates>18.9394385981,63.3004573079,0</coordinates></Point></Placemark><Placemark><name>Hole 18 - Green Front</name><Point><coordinates>18.9393854302,63.3003580358,0</coordinates></Point></Placemark><Placemark><name>Hole 18 - Green Back</name><Point><coordinates>18.9395078592,63.3005614004,0</coordinates></Point></Placemark><Placemark><name>Hole 18 - TheTipsTee Back Reach</name><Point><coordinates>18.937234298481776,63.29789700922836,0</coordinates></Point></Placemark></Document></kml>