{
    "type": "FeatureCollection",
    "features": [
        {
            "type": "Feature",
            "geometry": {
                "type": "Point",
                "coordinates": [
                    18.937994754430466,
                    63.303537882877656
                ]
            },
            "properties": {
                "hole": "1",
                "type": "tee",
                "name": "Tee Target"
            }
        },
        {
            "type": "Feature",
            "geometry": {
                "type": "Point",
                "coordinates": [
                    18.9375141628,
                    63.3041167466
                ]
            },
            "properties": {
                "hole": "1",
                "type": "green",
                "name": "Green Center"
            }
        },
        {
            "type": "Feature",
            "geometry": {
                "type": "Point",
                "coordinates": [
                    18.9376111986,
                    63.3040102466
                ]
            },
            "properties": {
                "hole": "1",
                "type": "green",
                "name": "Green Front"
            }
        },
        {
            "type": "Feature",
            "geometry": {
                "type": "Point",
                "coordinates": [
                    18.9374332203,
                    63.3041943266
                ]
            },
            "properties": {
                "hole": "1",
                "type": "green",
                "name": "Green Back"
            }
        },
        {
            "type": "Feature",
            "geometry": {
                "type": "Point",
                "coordinates": [
                    18.939507520314866,
                    63.30177006503156
                ]
            },
            "properties": {
                "hole": "1",
                "type": "waypoint",
                "name": "TheTipsTee Back Reach"
            }
        },
        {
            "type": "Feature",
            "geometry": {
                "type": "Point",
                "coordinates": [
                    18.933851606395855,
                    63.30485780917075
                ]
            },
            "properties": {
                "hole": "2",
                "type": "tee",
                "name": "Tee Target"
            }
        },
        {
            "type": "Feature",
            "geometry": {
                "type": "Point",
                "coordinates": [
                    18.9325314833,
                    63.3046823452
                ]
            },
            "properties": {
                "hole": "2",
                "type": "green",
                "name": "Green Center"
            }
        },
        {
            "type": "Feature",
            "geometry": {
                "type": "Point",
                "coordinates": [
                    18.9328109093,
                    63.3047035734
                ]
            },
            "properties": {
                "hole": "2",
                "type": "green",
                "name": "Green Front"
            }
        },
        {
            "type": "Feature",
            "geometry": {
                "type": "Point",
                "coordinates": [
                    18.9322466929,
                    63.3046611172
                ]
            },
            "properties": {
                "hole": "2",
                "type": "green",
                "name": "Green Back"
            }
        },
        {
            "type": "Feature",
            "geometry": {
                "type": "Point",
                "coordinates": [
                    18.937995619323864,
                    63.30434328481936
                ]
            },
            "properties": {
                "hole": "2",
                "type": "waypoint",
                "name": "TheTipsTee Back Reach"
            }
        },
        {
            "type": "Feature",
            "geometry": {
                "type": "Point",
                "coordinates": [
                    18.932117082,
                    63.3044389399
                ]
            },
            "properties": {
                "hole": "3",
                "type": "tee",
                "name": "Tee Target"
            }
        },
        {
            "type": "Feature",
            "geometry": {
                "type": "Point",
                "coordinates": [
                    18.931671359,
                    63.3033476636
                ]
            },
            "properties": {
                "hole": "3",
                "type": "green",
                "name": "Green Center"
            }
        },
        {
            "type": "Feature",
            "geometry": {
                "type": "Point",
                "coordinates": [
                    18.9317308439,
                    63.3034845785
                ]
            },
            "properties": {
                "hole": "3",
                "type": "green",
                "name": "Green Front"
            }
        },
        {
            "type": "Feature",
            "geometry": {
                "type": "Point",
                "coordinates": [
                    18.931622603,
                    63.303232439
                ]
            },
            "properties": {
                "hole": "3",
                "type": "green",
                "name": "Green Back"
            }
        },
        {
            "type": "Feature",
            "geometry": {
                "type": "Point",
                "coordinates": [
                    18.932117082,
                    63.3044389399
                ]
            },
            "properties": {
                "hole": "3",
                "type": "waypoint",
                "name": "TheTipsTee Back Reach"
            }
        },
        {
            "type": "Feature",
            "geometry": {
                "type": "Point",
                "coordinates": [
                    18.936841316879594,
                    63.30310665714229
                ]
            },
            "properties": {
                "hole": "4",
                "type": "tee",
                "name": "Tee Target"
            }
        },
        {
            "type": "Feature",
            "geometry": {
                "type": "Point",
                "coordinates": [
                    18.9386593784,
                    63.3014754434
                ]
            },
            "properties": {
                "hole": "4",
                "type": "green",
                "name": "Green Center"
            }
        },
        {
            "type": "Feature",
            "geometry": {
                "type": "Point",
                "coordinates": [
                    18.9385472019,
                    63.3015689882
                ]
            },
            "properties": {
                "hole": "4",
                "type": "green",
                "name": "Green Front"
            }
        },
        {
            "type": "Feature",
            "geometry": {
                "type": "Point",
                "coordinates": [
                    18.9387661905,
                    63.3013794883
                ]
            },
            "properties": {
                "hole": "4",
                "type": "green",
                "name": "Green Back"
            }
        },
        {
            "type": "Feature",
            "geometry": {
                "type": "Point",
                "coordinates": [
                    18.933311529815995,
                    63.30403211111094
                ]
            },
            "properties": {
                "hole": "4",
                "type": "waypoint",
                "name": "TheTipsTee Back Reach"
            }
        },
        {
            "type": "Feature",
            "geometry": {
                "type": "Point",
                "coordinates": [
                    18.94337872511303,
                    63.302073169668475
                ]
            },
            "properties": {
                "hole": "5",
                "type": "tee",
                "name": "Tee Target"
            }
        },
        {
            "type": "Feature",
            "geometry": {
                "type": "Point",
                "coordinates": [
                    18.9463072211,
                    63.3021049566
                ]
            },
            "properties": {
                "hole": "5",
                "type": "green",
                "name": "Green Center"
            }
        },
        {
            "type": "Feature",
            "geometry": {
                "type": "Point",
                "coordinates": [
                    18.9459751035,
                    63.3020972713
                ]
            },
            "properties": {
                "hole": "5",
                "type": "green",
                "name": "Green Front"
            }
        },
        {
            "type": "Feature",
            "geometry": {
                "type": "Point",
                "coordinates": [
                    18.9466071523,
                    63.3021005913
                ]
            },
            "properties": {
                "hole": "5",
                "type": "green",
                "name": "Green Back"
            }
        },
        {
            "type": "Feature",
            "geometry": {
                "type": "Point",
                "coordinates": [
                    18.94337872511303,
                    63.302073169668475
                ]
            },
            "properties": {
                "hole": "5",
                "type": "waypoint",
                "name": "TheTipsTee Back Reach"
            }
        },
        {
            "type": "Feature",
            "geometry": {
                "type": "Point",
                "coordinates": [
                    18.9496854634257,
                    63.30128790116875
                ]
            },
            "properties": {
                "hole": "6",
                "type": "tee",
                "name": "Tee Target"
            }
        },
        {
            "type": "Feature",
            "geometry": {
                "type": "Point",
                "coordinates": [
                    18.9507900572,
                    63.3009195853
                ]
            },
            "properties": {
                "hole": "6",
                "type": "green",
                "name": "Green Center"
            }
        },
        {
            "type": "Feature",
            "geometry": {
                "type": "Point",
                "coordinates": [
                    18.9505544991,
                    63.3009818007
                ]
            },
            "properties": {
                "hole": "6",
                "type": "green",
                "name": "Green Front"
            }
        },
        {
            "type": "Feature",
            "geometry": {
                "type": "Point",
                "coordinates": [
                    18.9510148865,
                    63.3008621905
                ]
            },
            "properties": {
                "hole": "6",
                "type": "green",
                "name": "Green Back"
            }
        },
        {
            "type": "Feature",
            "geometry": {
                "type": "Point",
                "coordinates": [
                    18.946230778214517,
                    63.30257011351686
                ]
            },
            "properties": {
                "hole": "6",
                "type": "waypoint",
                "name": "TheTipsTee Back Reach"
            }
        },
        {
            "type": "Feature",
            "geometry": {
                "type": "Point",
                "coordinates": [
                    18.94914720426821,
                    63.29847789045884
                ]
            },
            "properties": {
                "hole": "7",
                "type": "tee",
                "name": "Tee Target"
            }
        },
        {
            "type": "Feature",
            "geometry": {
                "type": "Point",
                "coordinates": [
                    18.9479544861,
                    63.2977997805
                ]
            },
            "properties": {
                "hole": "7",
                "type": "green",
                "name": "Green Center"
            }
        },
        {
            "type": "Feature",
            "geometry": {
                "type": "Point",
                "coordinates": [
                    18.94820709,
                    63.2979331209
                ]
            },
            "properties": {
                "hole": "7",
                "type": "green",
                "name": "Green Front"
            }
        },
        {
            "type": "Feature",
            "geometry": {
                "type": "Point",
                "coordinates": [
                    18.9477287042,
                    63.2976784924
                ]
            },
            "properties": {
                "hole": "7",
                "type": "green",
                "name": "Green Back"
            }
        },
        {
            "type": "Feature",
            "geometry": {
                "type": "Point",
                "coordinates": [
                    18.950976470816368,
                    63.300365220597975
                ]
            },
            "properties": {
                "hole": "7",
                "type": "waypoint",
                "name": "TheTipsTee Back Reach"
            }
        },
        {
            "type": "Feature",
            "geometry": {
                "type": "Point",
                "coordinates": [
                    18.94940958443013,
                    63.29995952459127
                ]
            },
            "properties": {
                "hole": "8",
                "type": "tee",
                "name": "Tee Target"
            }
        },
        {
            "type": "Feature",
            "geometry": {
                "type": "Point",
                "coordinates": [
                    18.9501681733,
                    63.3006131706
                ]
            },
            "properties": {
                "hole": "8",
                "type": "green",
                "name": "Green Center"
            }
        },
        {
            "type": "Feature",
            "geometry": {
                "type": "Point",
                "coordinates": [
                    18.9500935478,
                    63.3005307691
                ]
            },
            "properties": {
                "hole": "8",
                "type": "green",
                "name": "Green Front"
            }
        },
        {
            "type": "Feature",
            "geometry": {
                "type": "Point",
                "coordinates": [
                    18.9502910787,
                    63.3006979824
                ]
            },
            "properties": {
                "hole": "8",
                "type": "green",
                "name": "Green Back"
            }
        },
        {
            "type": "Feature",
            "geometry": {
                "type": "Point",
                "coordinates": [
                    18.947384516623885,
                    63.29811917251873
                ]
            },
            "properties": {
                "hole": "8",
                "type": "waypoint",
                "name": "TheTipsTee Back Reach"
            }
        },
        {
            "type": "Feature",
            "geometry": {
                "type": "Point",
                "coordinates": [
                    18.94441349390776,
                    63.301439886068664
                ]
            },
            "properties": {
                "hole": "9",
                "type": "tee",
                "name": "Tee Target"
            }
        },
        {
            "type": "Feature",
            "geometry": {
                "type": "Point",
                "coordinates": [
                    18.9402529115,
                    63.3010064955
                ]
            },
            "properties": {
                "hole": "9",
                "type": "green",
                "name": "Green Center"
            }
        },
        {
            "type": "Feature",
            "geometry": {
                "type": "Point",
                "coordinates": [
                    18.9406396258,
                    63.3010349672
                ]
            },
            "properties": {
                "hole": "9",
                "type": "green",
                "name": "Green Front"
            }
        },
        {
            "type": "Feature",
            "geometry": {
                "type": "Point",
                "coordinates": [
                    18.9398876548,
                    63.3009828446
                ]
            },
            "properties": {
                "hole": "9",
                "type": "green",
                "name": "Green Back"
            }
        },
        {
            "type": "Feature",
            "geometry": {
                "type": "Point",
                "coordinates": [
                    18.948544095790695,
                    63.30101086469397
                ]
            },
            "properties": {
                "hole": "9",
                "type": "waypoint",
                "name": "TheTipsTee Back Reach"
            }
        },
        {
            "type": "Feature",
            "geometry": {
                "type": "Point",
                "coordinates": [
                    18.94555966200411,
                    63.30026894937836
                ]
            },
            "properties": {
                "hole": "10",
                "type": "tee",
                "name": "Tee Target"
            }
        },
        {
            "type": "Feature",
            "geometry": {
                "type": "Point",
                "coordinates": [
                    18.9473938167,
                    63.2998017933
                ]
            },
            "properties": {
                "hole": "10",
                "type": "green",
                "name": "Green Center"
            }
        },
        {
            "type": "Feature",
            "geometry": {
                "type": "Point",
                "coordinates": [
                    18.9472011739,
                    63.2998399106
                ]
            },
            "properties": {
                "hole": "10",
                "type": "green",
                "name": "Green Front"
            }
        },
        {
            "type": "Feature",
            "geometry": {
                "type": "Point",
                "coordinates": [
                    18.947554273,
                    63.2997564452
                ]
            },
            "properties": {
                "hole": "10",
                "type": "green",
                "name": "Green Back"
            }
        },
        {
            "type": "Feature",
            "geometry": {
                "type": "Point",
                "coordinates": [
                    18.941171568055747,
                    63.30085223908575
                ]
            },
            "properties": {
                "hole": "10",
                "type": "waypoint",
                "name": "TheTipsTee Back Reach"
            }
        },
        {
            "type": "Feature",
            "geometry": {
                "type": "Point",
                "coordinates": [
                    18.945911896279178,
                    63.297187648526624
                ]
            },
            "properties": {
                "hole": "11",
                "type": "tee",
                "name": "Tee Target"
            }
        },
        {
            "type": "Feature",
            "geometry": {
                "type": "Point",
                "coordinates": [
                    18.9457799917,
                    63.2965709756
                ]
            },
            "properties": {
                "hole": "11",
                "type": "green",
                "name": "Green Center"
            }
        },
        {
            "type": "Feature",
            "geometry": {
                "type": "Point",
                "coordinates": [
                    18.9458287478,
                    63.2967416896
                ]
            },
            "properties": {
                "hole": "11",
                "type": "green",
                "name": "Green Front"
            }
        },
        {
            "type": "Feature",
            "geometry": {
                "type": "Point",
                "coordinates": [
                    18.9457312357,
                    63.2964364202
                ]
            },
            "properties": {
                "hole": "11",
                "type": "green",
                "name": "Green Back"
            }
        },
        {
            "type": "Feature",
            "geometry": {
                "type": "Point",
                "coordinates": [
                    18.946791660836062,
                    63.299034086125324
                ]
            },
            "properties": {
                "hole": "11",
                "type": "waypoint",
                "name": "TheTipsTee Back Reach"
            }
        },
        {
            "type": "Feature",
            "geometry": {
                "type": "Point",
                "coordinates": [
                    18.945089322890976,
                    63.29579836092978
                ]
            },
            "properties": {
                "hole": "12",
                "type": "tee",
                "name": "Tee Target"
            }
        },
        {
            "type": "Feature",
            "geometry": {
                "type": "Point",
                "coordinates": [
                    18.9448259902,
                    63.2966991767
                ]
            },
            "properties": {
                "hole": "12",
                "type": "green",
                "name": "Green Center"
            }
        },
        {
            "type": "Feature",
            "geometry": {
                "type": "Point",
                "coordinates": [
                    18.9448640174,
                    63.2965902605
                ]
            },
            "properties": {
                "hole": "12",
                "type": "green",
                "name": "Green Front"
            }
        },
        {
            "type": "Feature",
            "geometry": {
                "type": "Point",
                "coordinates": [
                    18.9448147851,
                    63.296812914
                ]
            },
            "properties": {
                "hole": "12",
                "type": "green",
                "name": "Green Back"
            }
        },
        {
            "type": "Feature",
            "geometry": {
                "type": "Point",
                "coordinates": [
                    18.945089322890976,
                    63.29579836092978
                ]
            },
            "properties": {
                "hole": "12",
                "type": "waypoint",
                "name": "TheTipsTee Back Reach"
            }
        },
        {
            "type": "Feature",
            "geometry": {
                "type": "Point",
                "coordinates": [
                    18.94554616335839,
                    63.29965804991616
                ]
            },
            "properties": {
                "hole": "13",
                "type": "tee",
                "name": "Tee Target"
            }
        },
        {
            "type": "Feature",
            "geometry": {
                "type": "Point",
                "coordinates": [
                    18.9417449969,
                    63.3004731913
                ]
            },
            "properties": {
                "hole": "13",
                "type": "green",
                "name": "Green Center"
            }
        },
        {
            "type": "Feature",
            "geometry": {
                "type": "Point",
                "coordinates": [
                    18.9419815075,
                    63.3004052529
                ]
            },
            "properties": {
                "hole": "13",
                "type": "green",
                "name": "Green Front"
            }
        },
        {
            "type": "Feature",
            "geometry": {
                "type": "Point",
                "coordinates": [
                    18.9414655709,
                    63.3005363092
                ]
            },
            "properties": {
                "hole": "13",
                "type": "green",
                "name": "Green Back"
            }
        },
        {
            "type": "Feature",
            "geometry": {
                "type": "Point",
                "coordinates": [
                    18.944666398801505,
                    63.29780803651914
                ]
            },
            "properties": {
                "hole": "13",
                "type": "waypoint",
                "name": "TheTipsTee Back Reach"
            }
        },
        {
            "type": "Feature",
            "geometry": {
                "type": "Point",
                "coordinates": [
                    18.93923847252266,
                    63.29813510992642
                ]
            },
            "properties": {
                "hole": "14",
                "type": "tee",
                "name": "Tee Target"
            }
        },
        {
            "type": "Feature",
            "geometry": {
                "type": "Point",
                "coordinates": [
                    18.9387605631,
                    63.2962287874
                ]
            },
            "properties": {
                "hole": "14",
                "type": "green",
                "name": "Green Center"
            }
        },
        {
            "type": "Feature",
            "geometry": {
                "type": "Point",
                "coordinates": [
                    18.9387878615,
                    63.2963127212
                ]
            },
            "properties": {
                "hole": "14",
                "type": "green",
                "name": "Green Front"
            }
        },
        {
            "type": "Feature",
            "geometry": {
                "type": "Point",
                "coordinates": [
                    18.9387332647,
                    63.2961400322
                ]
            },
            "properties": {
                "hole": "14",
                "type": "green",
                "name": "Green Back"
            }
        },
        {
            "type": "Feature",
            "geometry": {
                "type": "Point",
                "coordinates": [
                    18.9416417318,
                    63.300121286
                ]
            },
            "properties": {
                "hole": "14",
                "type": "waypoint",
                "name": "TheTipsTee Back Reach"
            }
        },
        {
            "type": "Feature",
            "geometry": {
                "type": "Point",
                "coordinates": [
                    18.9380618477,
                    63.2955513867
                ]
            },
            "properties": {
                "hole": "15",
                "type": "tee",
                "name": "Tee Target"
            }
        },
        {
            "type": "Feature",
            "geometry": {
                "type": "Point",
                "coordinates": [
                    18.9394668489,
                    63.2943488507
                ]
            },
            "properties": {
                "hole": "15",
                "type": "green",
                "name": "Green Center"
            }
        },
        {
            "type": "Feature",
            "geometry": {
                "type": "Point",
                "coordinates": [
                    18.9393868589,
                    63.2944231537
                ]
            },
            "properties": {
                "hole": "15",
                "type": "green",
                "name": "Green Front"
            }
        },
        {
            "type": "Feature",
            "geometry": {
                "type": "Point",
                "coordinates": [
                    18.9395522033,
                    63.2942793693
                ]
            },
            "properties": {
                "hole": "15",
                "type": "green",
                "name": "Green Back"
            }
        },
        {
            "type": "Feature",
            "geometry": {
                "type": "Point",
                "coordinates": [
                    18.9380618477,
                    63.2955513867
                ]
            },
            "properties": {
                "hole": "15",
                "type": "waypoint",
                "name": "TheTipsTee Back Reach"
            }
        },
        {
            "type": "Feature",
            "geometry": {
                "type": "Point",
                "coordinates": [
                    18.9359813182598,
                    63.29362680474999
                ]
            },
            "properties": {
                "hole": "16",
                "type": "tee",
                "name": "Tee Target"
            }
        },
        {
            "type": "Feature",
            "geometry": {
                "type": "Point",
                "coordinates": [
                    18.9350796198,
                    63.2936947406
                ]
            },
            "properties": {
                "hole": "16",
                "type": "green",
                "name": "Green Center"
            }
        },
        {
            "type": "Feature",
            "geometry": {
                "type": "Point",
                "coordinates": [
                    18.9352571219,
                    63.2936726112
                ]
            },
            "properties": {
                "hole": "16",
                "type": "green",
                "name": "Green Front"
            }
        },
        {
            "type": "Feature",
            "geometry": {
                "type": "Point",
                "coordinates": [
                    18.934918211,
                    63.2937072268
                ]
            },
            "properties": {
                "hole": "16",
                "type": "green",
                "name": "Green Back"
            }
        },
        {
            "type": "Feature",
            "geometry": {
                "type": "Point",
                "coordinates": [
                    18.93994025876578,
                    63.29426929391111
                ]
            },
            "properties": {
                "hole": "16",
                "type": "waypoint",
                "name": "TheTipsTee Back Reach"
            }
        },
        {
            "type": "Feature",
            "geometry": {
                "type": "Point",
                "coordinates": [
                    18.937422529402983,
                    63.2964152703225
                ]
            },
            "properties": {
                "hole": "17",
                "type": "tee",
                "name": "Tee Target"
            }
        },
        {
            "type": "Feature",
            "geometry": {
                "type": "Point",
                "coordinates": [
                    18.9371444445,
                    63.2975173513
                ]
            },
            "properties": {
                "hole": "17",
                "type": "green",
                "name": "Green Center"
            }
        },
        {
            "type": "Feature",
            "geometry": {
                "type": "Point",
                "coordinates": [
                    18.9371824717,
                    63.2974228981
                ]
            },
            "properties": {
                "hole": "17",
                "type": "green",
                "name": "Green Front"
            }
        },
        {
            "type": "Feature",
            "geometry": {
                "type": "Point",
                "coordinates": [
                    18.9371010529,
                    63.2976166255
                ]
            },
            "properties": {
                "hole": "17",
                "type": "green",
                "name": "Green Back"
            }
        },
        {
            "type": "Feature",
            "geometry": {
                "type": "Point",
                "coordinates": [
                    18.936912909690154,
                    63.294368568733326
                ]
            },
            "properties": {
                "hole": "17",
                "type": "waypoint",
                "name": "TheTipsTee Back Reach"
            }
        },
        {
            "type": "Feature",
            "geometry": {
                "type": "Point",
                "coordinates": [
                    18.939036742939784,
                    63.29978437740942
                ]
            },
            "properties": {
                "hole": "18",
                "type": "tee",
                "name": "Tee Target"
            }
        },
        {
            "type": "Feature",
            "geometry": {
                "type": "Point",
                "coordinates": [
                    18.9394385981,
                    63.3004573079
                ]
            },
            "properties": {
                "hole": "18",
                "type": "green",
                "name": "Green Center"
            }
        },
        {
            "type": "Feature",
            "geometry": {
                "type": "Point",
                "coordinates": [
                    18.9393854302,
                    63.3003580358
                ]
            },
            "properties": {
                "hole": "18",
                "type": "green",
                "name": "Green Front"
            }
        },
        {
            "type": "Feature",
            "geometry": {
                "type": "Point",
                "coordinates": [
                    18.9395078592,
                    63.3005614004
                ]
            },
            "properties": {
                "hole": "18",
                "type": "green",
                "name": "Green Back"
            }
        },
        {
            "type": "Feature",
            "geometry": {
                "type": "Point",
                "coordinates": [
                    18.937234298481776,
                    63.29789700922836
                ]
            },
            "properties": {
                "hole": "18",
                "type": "waypoint",
                "name": "TheTipsTee Back Reach"
            }
        }
    ]
}