<?xml version='1.0' encoding='utf-8'?>
<kml xmlns="http://www.opengis.net/kml/2.2"><Document><name>Veckefjärdens Golfklubb GPS Data</name><Placemark><name>Hole 1 - Tee Target</name><Point><coordinates>18.67487616019815,63.28489602310085,0</coordinates></Point></Placemark><Placemark><name>Hole 1 - Green Center</name><Point><coordinates>18.6760129406,63.2841391757,0</coordinates></Point></Placemark><Placemark><name>Hole 1 - Green Front</name><Point><coordinates>18.6757988401,63.2842569425,0</coordinates></Point></Placemark><Placemark><name>Hole 1 - Green Back</name><Point><coordinates>18.6761948545,63.2840358786,0</coordinates></Point></Placemark><Placemark><name>Hole 1 - TheTipsTee Back Reach</name><Point><coordinates>18.674511379772124,63.28694580871459,0</coordinates></Point></Placemark><Placemark><name>Hole 2 - Tee Target</name><Point><coordinates>18.672425486024114,63.28334211051698,0</coordinates></Point></Placemark><Placemark><name>Hole 2 - Green Center</name><Point><coordinates>18.6683105011,63.2822089752,0</coordinates></Point></Placemark><Placemark><name>Hole 2 - Green Front</name><Point><coordinates>18.6685952916,63.2822736952,0</coordinates></Point></Placemark><Placemark><name>Hole 2 - Green Back</name><Point><coordinates>18.6680310751,63.2821466672,0</coordinates></Point></Placemark><Placemark><name>Hole 2 - TheTipsTee Back Reach</name><Point><coordinates>18.67725346225092,63.28343375604141,0</coordinates></Point></Placemark><Placemark><name>Hole 3 - Tee Target</name><Point><coordinates>18.671414345722706,63.284002462013234,0</coordinates></Point></Placemark><Placemark><name>Hole 3 - Green Center</name><Point><coordinates>18.6728738035,63.2851637136,0</coordinates></Point></Placemark><Placemark><name>Hole 3 - Green Front</name><Point><coordinates>18.6727562626,63.2850511685,0</coordinates></Point></Placemark><Placemark><name>Hole 3 - Green Back</name><Point><coordinates>18.6730074377,63.2852750528,0</coordinates></Point></Placemark><Placemark><name>Hole 3 - TheTipsTee Back Reach</name><Point><coordinates>18.667981118183643,63.28264224639996,0</coordinates></Point></Placemark><Placemark><name>Hole 4 - Tee Target</name><Point><coordinates>18.6715957309,63.2851637136,0</coordinates></Point></Placemark><Placemark><name>Hole 4 - Green Center</name><Point><coordinates>18.66918126655493,63.284084917467,0</coordinates></Point></Placemark><Placemark><name>Hole 4 - Green Front</name><Point><coordinates>18.669350722000004,63.28415445149057,0</coordinates></Point></Placemark><Placemark><name>Hole 4 - Green Back</name><Point><coordinates>18.66901985777295,63.28400694265529,0</coordinates></Point></Placemark><Placemark><name>Hole 4 - TheTipsTee Back Reach</name><Point><coordinates>18.6715957309,63.2851637136,0</coordinates></Point></Placemark><Placemark><name>Hole 5 - Tee Target</name><Point><coordinates>18.66759473989516,63.2852738443223,0</coordinates></Point></Placemark><Placemark><name>Hole 5 - Green Center</name><Point><coordinates>18.6691821314,63.2872926664,0</coordinates></Point></Placemark><Placemark><name>Hole 5 - Green Front</name><Point><coordinates>18.6691021414,63.2871306908,0</coordinates></Point></Placemark><Placemark><name>Hole 5 - Green Back</name><Point><coordinates>18.6692621214,63.2874377616,0</coordinates></Point></Placemark><Placemark><name>Hole 5 - TheTipsTee Back Reach</name><Point><coordinates>18.667755672436055,63.28314676412776,0</coordinates></Point></Placemark><Placemark><name>Hole 6 - Tee Target</name><Point><coordinates>18.666458348140143,63.29019945983409,0</coordinates></Point></Placemark><Placemark><name>Hole 6 - Green Center</name><Point><coordinates>18.663982193,63.2911378069,0</coordinates></Point></Placemark><Placemark><name>Hole 6 - Green Front</name><Point><coordinates>18.6642455257,63.2910216519,0</coordinates></Point></Placemark><Placemark><name>Hole 6 - Green Back</name><Point><coordinates>18.663729589,63.2912419064,0</coordinates></Point></Placemark><Placemark><name>Hole 6 - TheTipsTee Back Reach</name><Point><coordinates>18.66781018148365,63.28823671313573,0</coordinates></Point></Placemark><Placemark><name>Hole 7 - Tee Target</name><Point><coordinates>18.663076947426195,63.291374091415875,0</coordinates></Point></Placemark><Placemark><name>Hole 7 - Green Center</name><Point><coordinates>18.6645597327,63.2924811713,0</coordinates></Point></Placemark><Placemark><name>Hole 7 - Green Front</name><Point><coordinates>18.66441000535408,63.29239153929241,0</coordinates></Point></Placemark><Placemark><name>Hole 7 - Green Back</name><Point><coordinates>18.6646719093,63.2925611595,0</coordinates></Point></Placemark><Placemark><name>Hole 7 - TheTipsTee Back Reach</name><Point><coordinates>18.663076947426195,63.291374091415875,0</coordinates></Point></Placemark><Placemark><name>Hole 8 - Tee Target</name><Point><coordinates>18.666985790859126,63.29255591113649,0</coordinates></Point></Placemark><Placemark><name>Hole 8 - Green Center</name><Point><coordinates>18.6686777884,63.2917607097,0</coordinates></Point></Placemark><Placemark><name>Hole 8 - Green Front</name><Point><coordinates>18.66851465,63.2918265872,0</coordinates></Point></Placemark><Placemark><name>Hole 8 - Green Back</name><Point><coordinates>18.6688221515,63.2916912156,0</coordinates></Point></Placemark><Placemark><name>Hole 8 - TheTipsTee Back Reach</name><Point><coordinates>18.664207022319697,63.29417602909127,0</coordinates></Point></Placemark><Placemark><name>Hole 9 - Tee Target</name><Point><coordinates>18.673853110694836,63.290130811283234,0</coordinates></Point></Placemark><Placemark><name>Hole 9 - Green Center</name><Point><coordinates>18.6759581686,63.2890630656,0</coordinates></Point></Placemark><Placemark><name>Hole 9 - Green Front</name><Point><coordinates>18.6757065172,63.2891856209,0</coordinates></Point></Placemark><Placemark><name>Hole 9 - Green Back</name><Point><coordinates>18.6762205488,63.28894051,0</coordinates></Point></Placemark><Placemark><name>Hole 9 - TheTipsTee Back Reach</name><Point><coordinates>18.670602273368786,63.291572649142445,0</coordinates></Point></Placemark><Placemark><name>Hole 10 - Tee Target</name><Point><coordinates>18.673660856568738,63.29160561633269,0</coordinates></Point></Placemark><Placemark><name>Hole 10 - Green Center</name><Point><coordinates>18.6692400998,63.2927681411,0</coordinates></Point></Placemark><Placemark><name>Hole 10 - Green Front</name><Point><coordinates>18.6695248903,63.2926785078,0</coordinates></Point></Placemark><Placemark><name>Hole 10 - Green Back</name><Point><coordinates>18.6689767671,63.292867418,0</coordinates></Point></Placemark><Placemark><name>Hole 10 - TheTipsTee Back Reach</name><Point><coordinates>18.676407438599988,63.289671899768265,0</coordinates></Point></Placemark><Placemark><name>Hole 11 - Tee Target</name><Point><coordinates>18.664872122496988,63.294828215498725,0</coordinates></Point></Placemark><Placemark><name>Hole 11 - Green Center</name><Point><coordinates>18.6627741587,63.2950239222,0</coordinates></Point></Placemark><Placemark><name>Hole 11 - Green Front</name><Point><coordinates>18.6631662375,63.2949656289,0</coordinates></Point></Placemark><Placemark><name>Hole 11 - Green Back</name><Point><coordinates>18.6623981732,63.2950894477,0</coordinates></Point></Placemark><Placemark><name>Hole 11 - TheTipsTee Back Reach</name><Point><coordinates>18.668181968421365,63.29340582757065,0</coordinates></Point></Placemark><Placemark><name>Hole 12 - Tee Target</name><Point><coordinates>18.6633280349,63.2939173662,0</coordinates></Point></Placemark><Placemark><name>Hole 12 - Green Center</name><Point><coordinates>18.66058902323605,63.29479533422985,0</coordinates></Point></Placemark><Placemark><name>Hole 12 - Green Front</name><Point><coordinates>18.66084162715407,63.29471293359299,0</coordinates></Point></Placemark><Placemark><name>Hole 12 - Green Back</name><Point><coordinates>18.6602988684,63.2948680918,0</coordinates></Point></Placemark><Placemark><name>Hole 12 - TheTipsTee Back Reach</name><Point><coordinates>18.6633280349,63.2939173662,0</coordinates></Point></Placemark><Placemark><name>Hole 13 - Tee Target</name><Point><coordinates>18.662221147443912,63.293710467253014,0</coordinates></Point></Placemark><Placemark><name>Hole 13 - Green Center</name><Point><coordinates>18.6627302909,63.2920232419,0</coordinates></Point></Placemark><Placemark><name>Hole 13 - Green Front</name><Point><coordinates>18.6627146739,63.2921747078,0</coordinates></Point></Placemark><Placemark><name>Hole 13 - Green Back</name><Point><coordinates>18.6627405435,63.2918934745,0</coordinates></Point></Placemark><Placemark><name>Hole 13 - TheTipsTee Back Reach</name><Point><coordinates>18.65878255548682,63.295067750039976,0</coordinates></Point></Placemark><Placemark><name>Hole 14 - Tee Target</name><Point><coordinates>18.6618518674,63.2924620409,0</coordinates></Point></Placemark><Placemark><name>Hole 14 - Green Center</name><Point><coordinates>18.66093675791802,63.29115087110194,0</coordinates></Point></Placemark><Placemark><name>Hole 14 - Green Front</name><Point><coordinates>18.661012336,63.2912637662,0</coordinates></Point></Placemark><Placemark><name>Hole 14 - Green Back</name><Point><coordinates>18.6608397221,63.2910114538,0</coordinates></Point></Placemark><Placemark><name>Hole 14 - TheTipsTee Back Reach</name><Point><coordinates>18.6618518674,63.2924620409,0</coordinates></Point></Placemark><Placemark><name>Hole 15 - Tee Target</name><Point><coordinates>18.664711967083658,63.2895004429922,0</coordinates></Point></Placemark><Placemark><name>Hole 15 - Green Center</name><Point><coordinates>18.6644861853,63.2890981866,0</coordinates></Point></Placemark><Placemark><name>Hole 15 - Green Front</name><Point><coordinates>18.6645671278,63.2892303858,0</coordinates></Point></Placemark><Placemark><name>Hole 15 - Green Back</name><Point><coordinates>18.6643730562,63.2889732207,0</coordinates></Point></Placemark><Placemark><name>Hole 15 - TheTipsTee Back Reach</name><Point><coordinates>18.66189564761802,63.29082899080691,0</coordinates></Point></Placemark><Placemark><name>Hole 16 - Tee Target</name><Point><coordinates>18.672697768155036,63.28859302595742,0</coordinates></Point></Placemark><Placemark><name>Hole 16 - Green Center</name><Point><coordinates>18.6740920406,63.2885934433,0</coordinates></Point></Placemark><Placemark><name>Hole 16 - Green Front</name><Point><coordinates>18.673759923,63.2885833808,0</coordinates></Point></Placemark><Placemark><name>Hole 16 - Green Back</name><Point><coordinates>18.6744187938,63.288603506,0</coordinates></Point></Placemark><Placemark><name>Hole 16 - TheTipsTee Back Reach</name><Point><coordinates>18.66859398836225,63.288380831743794,0</coordinates></Point></Placemark><Placemark><name>Hole 17 - Tee Target</name><Point><coordinates>18.667935029852774,63.29049588750498,0</coordinates></Point></Placemark><Placemark><name>Hole 17 - Green Center</name><Point><coordinates>18.6650940942,63.2914438709,0</coordinates></Point></Placemark><Placemark><name>Hole 17 - Green Front</name><Point><coordinates>18.6654003423,63.2913397707,0</coordinates></Point></Placemark><Placemark><name>Hole 17 - Green Back</name><Point><coordinates>18.6648200326,63.291547971,0</coordinates></Point></Placemark><Placemark><name>Hole 17 - TheTipsTee Back Reach</name><Point><coordinates>18.67150773226061,63.28921313788155,0</coordinates></Point></Placemark><Placemark><name>Hole 18 - Tee Target</name><Point><coordinates>18.67132888904689,63.290157546695916,0</coordinates></Point></Placemark><Placemark><name>Hole 18 - Green Center</name><Point><coordinates>18.6755502098,63.2887136444,0</coordinates></Point></Placemark><Placemark><name>Hole 18 - Green Front</name><Point><coordinates>18.675239549880292,63.288820528518166,0</coordinates></Point></Placemark><Placemark><name>Hole 18 - Green Back</name><Point><coordinates>18.67581259,63.2886224335,0</coordinates></Point></Placemark><Placemark><name>Hole 18 - TheTipsTee Back Reach</name><Point><coordinates>18.66730557552455,63.291729578952676,0</coordinates></Point></Placemark></Document></kml>