{
    "type": "FeatureCollection",
    "features": [
        {
            "type": "Feature",
            "geometry": {
                "type": "Point",
                "coordinates": [
                    18.67487616019815,
                    63.28489602310085
                ]
            },
            "properties": {
                "hole": "1",
                "type": "tee",
                "name": "Tee Target"
            }
        },
        {
            "type": "Feature",
            "geometry": {
                "type": "Point",
                "coordinates": [
                    18.6760129406,
                    63.2841391757
                ]
            },
            "properties": {
                "hole": "1",
                "type": "green",
                "name": "Green Center"
            }
        },
        {
            "type": "Feature",
            "geometry": {
                "type": "Point",
                "coordinates": [
                    18.6757988401,
                    63.2842569425
                ]
            },
            "properties": {
                "hole": "1",
                "type": "green",
                "name": "Green Front"
            }
        },
        {
            "type": "Feature",
            "geometry": {
                "type": "Point",
                "coordinates": [
                    18.6761948545,
                    63.2840358786
                ]
            },
            "properties": {
                "hole": "1",
                "type": "green",
                "name": "Green Back"
            }
        },
        {
            "type": "Feature",
            "geometry": {
                "type": "Point",
                "coordinates": [
                    18.674511379772124,
                    63.28694580871459
                ]
            },
            "properties": {
                "hole": "1",
                "type": "waypoint",
                "name": "TheTipsTee Back Reach"
            }
        },
        {
            "type": "Feature",
            "geometry": {
                "type": "Point",
                "coordinates": [
                    18.672425486024114,
                    63.28334211051698
                ]
            },
            "properties": {
                "hole": "2",
                "type": "tee",
                "name": "Tee Target"
            }
        },
        {
            "type": "Feature",
            "geometry": {
                "type": "Point",
                "coordinates": [
                    18.6683105011,
                    63.2822089752
                ]
            },
            "properties": {
                "hole": "2",
                "type": "green",
                "name": "Green Center"
            }
        },
        {
            "type": "Feature",
            "geometry": {
                "type": "Point",
                "coordinates": [
                    18.6685952916,
                    63.2822736952
                ]
            },
            "properties": {
                "hole": "2",
                "type": "green",
                "name": "Green Front"
            }
        },
        {
            "type": "Feature",
            "geometry": {
                "type": "Point",
                "coordinates": [
                    18.6680310751,
                    63.2821466672
                ]
            },
            "properties": {
                "hole": "2",
                "type": "green",
                "name": "Green Back"
            }
        },
        {
            "type": "Feature",
            "geometry": {
                "type": "Point",
                "coordinates": [
                    18.67725346225092,
                    63.28343375604141
                ]
            },
            "properties": {
                "hole": "2",
                "type": "waypoint",
                "name": "TheTipsTee Back Reach"
            }
        },
        {
            "type": "Feature",
            "geometry": {
                "type": "Point",
                "coordinates": [
                    18.671414345722706,
                    63.284002462013234
                ]
            },
            "properties": {
                "hole": "3",
                "type": "tee",
                "name": "Tee Target"
            }
        },
        {
            "type": "Feature",
            "geometry": {
                "type": "Point",
                "coordinates": [
                    18.6728738035,
                    63.2851637136
                ]
            },
            "properties": {
                "hole": "3",
                "type": "green",
                "name": "Green Center"
            }
        },
        {
            "type": "Feature",
            "geometry": {
                "type": "Point",
                "coordinates": [
                    18.6727562626,
                    63.2850511685
                ]
            },
            "properties": {
                "hole": "3",
                "type": "green",
                "name": "Green Front"
            }
        },
        {
            "type": "Feature",
            "geometry": {
                "type": "Point",
                "coordinates": [
                    18.6730074377,
                    63.2852750528
                ]
            },
            "properties": {
                "hole": "3",
                "type": "green",
                "name": "Green Back"
            }
        },
        {
            "type": "Feature",
            "geometry": {
                "type": "Point",
                "coordinates": [
                    18.667981118183643,
                    63.28264224639996
                ]
            },
            "properties": {
                "hole": "3",
                "type": "waypoint",
                "name": "TheTipsTee Back Reach"
            }
        },
        {
            "type": "Feature",
            "geometry": {
                "type": "Point",
                "coordinates": [
                    18.6715957309,
                    63.2851637136
                ]
            },
            "properties": {
                "hole": "4",
                "type": "tee",
                "name": "Tee Target"
            }
        },
        {
            "type": "Feature",
            "geometry": {
                "type": "Point",
                "coordinates": [
                    18.66918126655493,
                    63.284084917467
                ]
            },
            "properties": {
                "hole": "4",
                "type": "green",
                "name": "Green Center"
            }
        },
        {
            "type": "Feature",
            "geometry": {
                "type": "Point",
                "coordinates": [
                    18.669350722000004,
                    63.28415445149057
                ]
            },
            "properties": {
                "hole": "4",
                "type": "green",
                "name": "Green Front"
            }
        },
        {
            "type": "Feature",
            "geometry": {
                "type": "Point",
                "coordinates": [
                    18.66901985777295,
                    63.28400694265529
                ]
            },
            "properties": {
                "hole": "4",
                "type": "green",
                "name": "Green Back"
            }
        },
        {
            "type": "Feature",
            "geometry": {
                "type": "Point",
                "coordinates": [
                    18.6715957309,
                    63.2851637136
                ]
            },
            "properties": {
                "hole": "4",
                "type": "waypoint",
                "name": "TheTipsTee Back Reach"
            }
        },
        {
            "type": "Feature",
            "geometry": {
                "type": "Point",
                "coordinates": [
                    18.66759473989516,
                    63.2852738443223
                ]
            },
            "properties": {
                "hole": "5",
                "type": "tee",
                "name": "Tee Target"
            }
        },
        {
            "type": "Feature",
            "geometry": {
                "type": "Point",
                "coordinates": [
                    18.6691821314,
                    63.2872926664
                ]
            },
            "properties": {
                "hole": "5",
                "type": "green",
                "name": "Green Center"
            }
        },
        {
            "type": "Feature",
            "geometry": {
                "type": "Point",
                "coordinates": [
                    18.6691021414,
                    63.2871306908
                ]
            },
            "properties": {
                "hole": "5",
                "type": "green",
                "name": "Green Front"
            }
        },
        {
            "type": "Feature",
            "geometry": {
                "type": "Point",
                "coordinates": [
                    18.6692621214,
                    63.2874377616
                ]
            },
            "properties": {
                "hole": "5",
                "type": "green",
                "name": "Green Back"
            }
        },
        {
            "type": "Feature",
            "geometry": {
                "type": "Point",
                "coordinates": [
                    18.667755672436055,
                    63.28314676412776
                ]
            },
            "properties": {
                "hole": "5",
                "type": "waypoint",
                "name": "TheTipsTee Back Reach"
            }
        },
        {
            "type": "Feature",
            "geometry": {
                "type": "Point",
                "coordinates": [
                    18.666458348140143,
                    63.29019945983409
                ]
            },
            "properties": {
                "hole": "6",
                "type": "tee",
                "name": "Tee Target"
            }
        },
        {
            "type": "Feature",
            "geometry": {
                "type": "Point",
                "coordinates": [
                    18.663982193,
                    63.2911378069
                ]
            },
            "properties": {
                "hole": "6",
                "type": "green",
                "name": "Green Center"
            }
        },
        {
            "type": "Feature",
            "geometry": {
                "type": "Point",
                "coordinates": [
                    18.6642455257,
                    63.2910216519
                ]
            },
            "properties": {
                "hole": "6",
                "type": "green",
                "name": "Green Front"
            }
        },
        {
            "type": "Feature",
            "geometry": {
                "type": "Point",
                "coordinates": [
                    18.663729589,
                    63.2912419064
                ]
            },
            "properties": {
                "hole": "6",
                "type": "green",
                "name": "Green Back"
            }
        },
        {
            "type": "Feature",
            "geometry": {
                "type": "Point",
                "coordinates": [
                    18.66781018148365,
                    63.28823671313573
                ]
            },
            "properties": {
                "hole": "6",
                "type": "waypoint",
                "name": "TheTipsTee Back Reach"
            }
        },
        {
            "type": "Feature",
            "geometry": {
                "type": "Point",
                "coordinates": [
                    18.663076947426195,
                    63.291374091415875
                ]
            },
            "properties": {
                "hole": "7",
                "type": "tee",
                "name": "Tee Target"
            }
        },
        {
            "type": "Feature",
            "geometry": {
                "type": "Point",
                "coordinates": [
                    18.6645597327,
                    63.2924811713
                ]
            },
            "properties": {
                "hole": "7",
                "type": "green",
                "name": "Green Center"
            }
        },
        {
            "type": "Feature",
            "geometry": {
                "type": "Point",
                "coordinates": [
                    18.66441000535408,
                    63.29239153929241
                ]
            },
            "properties": {
                "hole": "7",
                "type": "green",
                "name": "Green Front"
            }
        },
        {
            "type": "Feature",
            "geometry": {
                "type": "Point",
                "coordinates": [
                    18.6646719093,
                    63.2925611595
                ]
            },
            "properties": {
                "hole": "7",
                "type": "green",
                "name": "Green Back"
            }
        },
        {
            "type": "Feature",
            "geometry": {
                "type": "Point",
                "coordinates": [
                    18.663076947426195,
                    63.291374091415875
                ]
            },
            "properties": {
                "hole": "7",
                "type": "waypoint",
                "name": "TheTipsTee Back Reach"
            }
        },
        {
            "type": "Feature",
            "geometry": {
                "type": "Point",
                "coordinates": [
                    18.666985790859126,
                    63.29255591113649
                ]
            },
            "properties": {
                "hole": "8",
                "type": "tee",
                "name": "Tee Target"
            }
        },
        {
            "type": "Feature",
            "geometry": {
                "type": "Point",
                "coordinates": [
                    18.6686777884,
                    63.2917607097
                ]
            },
            "properties": {
                "hole": "8",
                "type": "green",
                "name": "Green Center"
            }
        },
        {
            "type": "Feature",
            "geometry": {
                "type": "Point",
                "coordinates": [
                    18.66851465,
                    63.2918265872
                ]
            },
            "properties": {
                "hole": "8",
                "type": "green",
                "name": "Green Front"
            }
        },
        {
            "type": "Feature",
            "geometry": {
                "type": "Point",
                "coordinates": [
                    18.6688221515,
                    63.2916912156
                ]
            },
            "properties": {
                "hole": "8",
                "type": "green",
                "name": "Green Back"
            }
        },
        {
            "type": "Feature",
            "geometry": {
                "type": "Point",
                "coordinates": [
                    18.664207022319697,
                    63.29417602909127
                ]
            },
            "properties": {
                "hole": "8",
                "type": "waypoint",
                "name": "TheTipsTee Back Reach"
            }
        },
        {
            "type": "Feature",
            "geometry": {
                "type": "Point",
                "coordinates": [
                    18.673853110694836,
                    63.290130811283234
                ]
            },
            "properties": {
                "hole": "9",
                "type": "tee",
                "name": "Tee Target"
            }
        },
        {
            "type": "Feature",
            "geometry": {
                "type": "Point",
                "coordinates": [
                    18.6759581686,
                    63.2890630656
                ]
            },
            "properties": {
                "hole": "9",
                "type": "green",
                "name": "Green Center"
            }
        },
        {
            "type": "Feature",
            "geometry": {
                "type": "Point",
                "coordinates": [
                    18.6757065172,
                    63.2891856209
                ]
            },
            "properties": {
                "hole": "9",
                "type": "green",
                "name": "Green Front"
            }
        },
        {
            "type": "Feature",
            "geometry": {
                "type": "Point",
                "coordinates": [
                    18.6762205488,
                    63.28894051
                ]
            },
            "properties": {
                "hole": "9",
                "type": "green",
                "name": "Green Back"
            }
        },
        {
            "type": "Feature",
            "geometry": {
                "type": "Point",
                "coordinates": [
                    18.670602273368786,
                    63.291572649142445
                ]
            },
            "properties": {
                "hole": "9",
                "type": "waypoint",
                "name": "TheTipsTee Back Reach"
            }
        },
        {
            "type": "Feature",
            "geometry": {
                "type": "Point",
                "coordinates": [
                    18.673660856568738,
                    63.29160561633269
                ]
            },
            "properties": {
                "hole": "10",
                "type": "tee",
                "name": "Tee Target"
            }
        },
        {
            "type": "Feature",
            "geometry": {
                "type": "Point",
                "coordinates": [
                    18.6692400998,
                    63.2927681411
                ]
            },
            "properties": {
                "hole": "10",
                "type": "green",
                "name": "Green Center"
            }
        },
        {
            "type": "Feature",
            "geometry": {
                "type": "Point",
                "coordinates": [
                    18.6695248903,
                    63.2926785078
                ]
            },
            "properties": {
                "hole": "10",
                "type": "green",
                "name": "Green Front"
            }
        },
        {
            "type": "Feature",
            "geometry": {
                "type": "Point",
                "coordinates": [
                    18.6689767671,
                    63.292867418
                ]
            },
            "properties": {
                "hole": "10",
                "type": "green",
                "name": "Green Back"
            }
        },
        {
            "type": "Feature",
            "geometry": {
                "type": "Point",
                "coordinates": [
                    18.676407438599988,
                    63.289671899768265
                ]
            },
            "properties": {
                "hole": "10",
                "type": "waypoint",
                "name": "TheTipsTee Back Reach"
            }
        },
        {
            "type": "Feature",
            "geometry": {
                "type": "Point",
                "coordinates": [
                    18.664872122496988,
                    63.294828215498725
                ]
            },
            "properties": {
                "hole": "11",
                "type": "tee",
                "name": "Tee Target"
            }
        },
        {
            "type": "Feature",
            "geometry": {
                "type": "Point",
                "coordinates": [
                    18.6627741587,
                    63.2950239222
                ]
            },
            "properties": {
                "hole": "11",
                "type": "green",
                "name": "Green Center"
            }
        },
        {
            "type": "Feature",
            "geometry": {
                "type": "Point",
                "coordinates": [
                    18.6631662375,
                    63.2949656289
                ]
            },
            "properties": {
                "hole": "11",
                "type": "green",
                "name": "Green Front"
            }
        },
        {
            "type": "Feature",
            "geometry": {
                "type": "Point",
                "coordinates": [
                    18.6623981732,
                    63.2950894477
                ]
            },
            "properties": {
                "hole": "11",
                "type": "green",
                "name": "Green Back"
            }
        },
        {
            "type": "Feature",
            "geometry": {
                "type": "Point",
                "coordinates": [
                    18.668181968421365,
                    63.29340582757065
                ]
            },
            "properties": {
                "hole": "11",
                "type": "waypoint",
                "name": "TheTipsTee Back Reach"
            }
        },
        {
            "type": "Feature",
            "geometry": {
                "type": "Point",
                "coordinates": [
                    18.6633280349,
                    63.2939173662
                ]
            },
            "properties": {
                "hole": "12",
                "type": "tee",
                "name": "Tee Target"
            }
        },
        {
            "type": "Feature",
            "geometry": {
                "type": "Point",
                "coordinates": [
                    18.66058902323605,
                    63.29479533422985
                ]
            },
            "properties": {
                "hole": "12",
                "type": "green",
                "name": "Green Center"
            }
        },
        {
            "type": "Feature",
            "geometry": {
                "type": "Point",
                "coordinates": [
                    18.66084162715407,
                    63.29471293359299
                ]
            },
            "properties": {
                "hole": "12",
                "type": "green",
                "name": "Green Front"
            }
        },
        {
            "type": "Feature",
            "geometry": {
                "type": "Point",
                "coordinates": [
                    18.6602988684,
                    63.2948680918
                ]
            },
            "properties": {
                "hole": "12",
                "type": "green",
                "name": "Green Back"
            }
        },
        {
            "type": "Feature",
            "geometry": {
                "type": "Point",
                "coordinates": [
                    18.6633280349,
                    63.2939173662
                ]
            },
            "properties": {
                "hole": "12",
                "type": "waypoint",
                "name": "TheTipsTee Back Reach"
            }
        },
        {
            "type": "Feature",
            "geometry": {
                "type": "Point",
                "coordinates": [
                    18.662221147443912,
                    63.293710467253014
                ]
            },
            "properties": {
                "hole": "13",
                "type": "tee",
                "name": "Tee Target"
            }
        },
        {
            "type": "Feature",
            "geometry": {
                "type": "Point",
                "coordinates": [
                    18.6627302909,
                    63.2920232419
                ]
            },
            "properties": {
                "hole": "13",
                "type": "green",
                "name": "Green Center"
            }
        },
        {
            "type": "Feature",
            "geometry": {
                "type": "Point",
                "coordinates": [
                    18.6627146739,
                    63.2921747078
                ]
            },
            "properties": {
                "hole": "13",
                "type": "green",
                "name": "Green Front"
            }
        },
        {
            "type": "Feature",
            "geometry": {
                "type": "Point",
                "coordinates": [
                    18.6627405435,
                    63.2918934745
                ]
            },
            "properties": {
                "hole": "13",
                "type": "green",
                "name": "Green Back"
            }
        },
        {
            "type": "Feature",
            "geometry": {
                "type": "Point",
                "coordinates": [
                    18.65878255548682,
                    63.295067750039976
                ]
            },
            "properties": {
                "hole": "13",
                "type": "waypoint",
                "name": "TheTipsTee Back Reach"
            }
        },
        {
            "type": "Feature",
            "geometry": {
                "type": "Point",
                "coordinates": [
                    18.6618518674,
                    63.2924620409
                ]
            },
            "properties": {
                "hole": "14",
                "type": "tee",
                "name": "Tee Target"
            }
        },
        {
            "type": "Feature",
            "geometry": {
                "type": "Point",
                "coordinates": [
                    18.66093675791802,
                    63.29115087110194
                ]
            },
            "properties": {
                "hole": "14",
                "type": "green",
                "name": "Green Center"
            }
        },
        {
            "type": "Feature",
            "geometry": {
                "type": "Point",
                "coordinates": [
                    18.661012336,
                    63.2912637662
                ]
            },
            "properties": {
                "hole": "14",
                "type": "green",
                "name": "Green Front"
            }
        },
        {
            "type": "Feature",
            "geometry": {
                "type": "Point",
                "coordinates": [
                    18.6608397221,
                    63.2910114538
                ]
            },
            "properties": {
                "hole": "14",
                "type": "green",
                "name": "Green Back"
            }
        },
        {
            "type": "Feature",
            "geometry": {
                "type": "Point",
                "coordinates": [
                    18.6618518674,
                    63.2924620409
                ]
            },
            "properties": {
                "hole": "14",
                "type": "waypoint",
                "name": "TheTipsTee Back Reach"
            }
        },
        {
            "type": "Feature",
            "geometry": {
                "type": "Point",
                "coordinates": [
                    18.664711967083658,
                    63.2895004429922
                ]
            },
            "properties": {
                "hole": "15",
                "type": "tee",
                "name": "Tee Target"
            }
        },
        {
            "type": "Feature",
            "geometry": {
                "type": "Point",
                "coordinates": [
                    18.6644861853,
                    63.2890981866
                ]
            },
            "properties": {
                "hole": "15",
                "type": "green",
                "name": "Green Center"
            }
        },
        {
            "type": "Feature",
            "geometry": {
                "type": "Point",
                "coordinates": [
                    18.6645671278,
                    63.2892303858
                ]
            },
            "properties": {
                "hole": "15",
                "type": "green",
                "name": "Green Front"
            }
        },
        {
            "type": "Feature",
            "geometry": {
                "type": "Point",
                "coordinates": [
                    18.6643730562,
                    63.2889732207
                ]
            },
            "properties": {
                "hole": "15",
                "type": "green",
                "name": "Green Back"
            }
        },
        {
            "type": "Feature",
            "geometry": {
                "type": "Point",
                "coordinates": [
                    18.66189564761802,
                    63.29082899080691
                ]
            },
            "properties": {
                "hole": "15",
                "type": "waypoint",
                "name": "TheTipsTee Back Reach"
            }
        },
        {
            "type": "Feature",
            "geometry": {
                "type": "Point",
                "coordinates": [
                    18.672697768155036,
                    63.28859302595742
                ]
            },
            "properties": {
                "hole": "16",
                "type": "tee",
                "name": "Tee Target"
            }
        },
        {
            "type": "Feature",
            "geometry": {
                "type": "Point",
                "coordinates": [
                    18.6740920406,
                    63.2885934433
                ]
            },
            "properties": {
                "hole": "16",
                "type": "green",
                "name": "Green Center"
            }
        },
        {
            "type": "Feature",
            "geometry": {
                "type": "Point",
                "coordinates": [
                    18.673759923,
                    63.2885833808
                ]
            },
            "properties": {
                "hole": "16",
                "type": "green",
                "name": "Green Front"
            }
        },
        {
            "type": "Feature",
            "geometry": {
                "type": "Point",
                "coordinates": [
                    18.6744187938,
                    63.288603506
                ]
            },
            "properties": {
                "hole": "16",
                "type": "green",
                "name": "Green Back"
            }
        },
        {
            "type": "Feature",
            "geometry": {
                "type": "Point",
                "coordinates": [
                    18.66859398836225,
                    63.288380831743794
                ]
            },
            "properties": {
                "hole": "16",
                "type": "waypoint",
                "name": "TheTipsTee Back Reach"
            }
        },
        {
            "type": "Feature",
            "geometry": {
                "type": "Point",
                "coordinates": [
                    18.667935029852774,
                    63.29049588750498
                ]
            },
            "properties": {
                "hole": "17",
                "type": "tee",
                "name": "Tee Target"
            }
        },
        {
            "type": "Feature",
            "geometry": {
                "type": "Point",
                "coordinates": [
                    18.6650940942,
                    63.2914438709
                ]
            },
            "properties": {
                "hole": "17",
                "type": "green",
                "name": "Green Center"
            }
        },
        {
            "type": "Feature",
            "geometry": {
                "type": "Point",
                "coordinates": [
                    18.6654003423,
                    63.2913397707
                ]
            },
            "properties": {
                "hole": "17",
                "type": "green",
                "name": "Green Front"
            }
        },
        {
            "type": "Feature",
            "geometry": {
                "type": "Point",
                "coordinates": [
                    18.6648200326,
                    63.291547971
                ]
            },
            "properties": {
                "hole": "17",
                "type": "green",
                "name": "Green Back"
            }
        },
        {
            "type": "Feature",
            "geometry": {
                "type": "Point",
                "coordinates": [
                    18.67150773226061,
                    63.28921313788155
                ]
            },
            "properties": {
                "hole": "17",
                "type": "waypoint",
                "name": "TheTipsTee Back Reach"
            }
        },
        {
            "type": "Feature",
            "geometry": {
                "type": "Point",
                "coordinates": [
                    18.67132888904689,
                    63.290157546695916
                ]
            },
            "properties": {
                "hole": "18",
                "type": "tee",
                "name": "Tee Target"
            }
        },
        {
            "type": "Feature",
            "geometry": {
                "type": "Point",
                "coordinates": [
                    18.6755502098,
                    63.2887136444
                ]
            },
            "properties": {
                "hole": "18",
                "type": "green",
                "name": "Green Center"
            }
        },
        {
            "type": "Feature",
            "geometry": {
                "type": "Point",
                "coordinates": [
                    18.675239549880292,
                    63.288820528518166
                ]
            },
            "properties": {
                "hole": "18",
                "type": "green",
                "name": "Green Front"
            }
        },
        {
            "type": "Feature",
            "geometry": {
                "type": "Point",
                "coordinates": [
                    18.67581259,
                    63.2886224335
                ]
            },
            "properties": {
                "hole": "18",
                "type": "green",
                "name": "Green Back"
            }
        },
        {
            "type": "Feature",
            "geometry": {
                "type": "Point",
                "coordinates": [
                    18.66730557552455,
                    63.291729578952676
                ]
            },
            "properties": {
                "hole": "18",
                "type": "waypoint",
                "name": "TheTipsTee Back Reach"
            }
        }
    ]
}