{
  "type": "FeatureCollection",
  "name": "Upsala facilities: source building outlines with uncertainty retained",
  "features": [
    {
      "type": "Feature",
      "id": "B01",
      "geometry": {
        "type": "Polygon",
        "coordinates": [
          [
            [
              17.495723562445054,
              59.84170269629332
            ],
            [
              17.49557536857537,
              59.84150687781393
            ],
            [
              17.495593517764853,
              59.84148677813349
            ],
            [
              17.495626059371684,
              59.84149412941501
            ],
            [
              17.495681788520773,
              59.841431633426396
            ],
            [
              17.495665518570522,
              59.84142796183592
            ],
            [
              17.495769456016042,
              59.84131173574466
            ],
            [
              17.495573682765865,
              59.84126741340482
            ],
            [
              17.49546997342067,
              59.84138361687998
            ],
            [
              17.495437417552232,
              59.84137627448079
            ],
            [
              17.495381644817563,
              59.84143891561259
            ],
            [
              17.49539791461949,
              59.841442595316046
            ],
            [
              17.495379812957466,
              59.84146261257231
            ],
            [
              17.495093971431004,
              59.84151715581167
            ],
            [
              17.495169567525288,
              59.8416184335277
            ],
            [
              17.495280350279366,
              59.84159736055625
            ],
            [
              17.495318694532262,
              59.84164840538119
            ],
            [
              17.49543560691527,
              59.84162608296768
            ],
            [
              17.49552230633416,
              59.841741109466646
            ],
            [
              17.495723562445054,
              59.84170269629332
            ]
          ]
        ]
      },
      "properties": {
        "id": "B01",
        "municipalObjectId": 1215269,
        "name": "Clubhouse main complex",
        "function": "Clubhouse",
        "status": "Ingen information",
        "planMethod": "No information",
        "confirmedExistingMeasuredOutline": false,
        "geometryInterpretation": "Municipal 2D building outline; wall-at-ground versus roof-edge reference is not declared by the exposed service.",
        "groundFootprintVerified": false,
        "roofOutlineVerified": false,
        "sourceAbsoluteHorizontalAccuracyMetres": null,
        "heightMetres": null,
        "areaSquareMetres": 869.2189179684628
      }
    },
    {
      "type": "Feature",
      "id": "B02",
      "geometry": {
        "type": "Polygon",
        "coordinates": [
          [
            [
              17.49516381441377,
              59.84161071719138
            ],
            [
              17.49509692758494,
              59.84152111571621
            ],
            [
              17.495006329419034,
              59.841538240184214
            ],
            [
              17.495073214241213,
              59.8416278425956
            ],
            [
              17.49516381441377,
              59.84161071719138
            ]
          ]
        ]
      },
      "properties": {
        "id": "B02",
        "municipalObjectId": 1244320,
        "name": "Clubhouse west attached component",
        "function": "Clubhouse west extension",
        "status": "Ingen information",
        "planMethod": "No information",
        "confirmedExistingMeasuredOutline": false,
        "geometryInterpretation": "Municipal 2D building outline; wall-at-ground versus roof-edge reference is not declared by the exposed service.",
        "groundFootprintVerified": false,
        "roofOutlineVerified": false,
        "sourceAbsoluteHorizontalAccuracyMetres": null,
        "heightMetres": null,
        "areaSquareMetres": 57.8431431814076
      }
    },
    {
      "type": "Feature",
      "id": "B03",
      "geometry": {
        "type": "Polygon",
        "coordinates": [
          [
            [
              17.495792856515397,
              59.84177985507053
            ],
            [
              17.495737110335547,
              59.841775630192295
            ],
            [
              17.495701967756613,
              59.84179718355879
            ],
            [
              17.495721984119,
              59.84182393437483
            ],
            [
              17.495777709199174,
              59.841828852130234
            ],
            [
              17.495812944134645,
              59.841806379948814
            ],
            [
              17.495792856515397,
              59.84177985507053
            ]
          ]
        ]
      },
      "properties": {
        "id": "B03",
        "municipalObjectId": 92448,
        "name": "Small structure north of clubhouse",
        "function": "Unknown",
        "status": "Befintligt",
        "planMethod": "Geod. Totalstation",
        "confirmedExistingMeasuredOutline": true,
        "geometryInterpretation": "Municipal 2D building outline; wall-at-ground versus roof-edge reference is not declared by the exposed service.",
        "groundFootprintVerified": false,
        "roofOutlineVerified": false,
        "sourceAbsoluteHorizontalAccuracyMetres": null,
        "heightMetres": null,
        "areaSquareMetres": 25.973402104517298
      }
    },
    {
      "type": "Feature",
      "id": "B04",
      "geometry": {
        "type": "Polygon",
        "coordinates": [
          [
            [
              17.49637672877185,
              59.84192666874098
            ],
            [
              17.4965718791224,
              59.8418205882355
            ],
            [
              17.496496502716514,
              59.84178501334239
            ],
            [
              17.496498340628328,
              59.84178401774456
            ],
            [
              17.496403472290627,
              59.84174009053947
            ],
            [
              17.4962024983166,
              59.84184829379324
            ],
            [
              17.49629711712493,
              59.841892684249984
            ],
            [
              17.496299933348645,
              59.84189115921945
            ],
            [
              17.49637672877185,
              59.84192666874098
            ]
          ]
        ]
      },
      "properties": {
        "id": "B04",
        "municipalObjectId": 1248912,
        "name": "Red-roof building north of clubhouse",
        "function": "Unknown",
        "status": "Ingen information",
        "planMethod": "No information",
        "confirmedExistingMeasuredOutline": false,
        "geometryInterpretation": "Municipal 2D building outline; wall-at-ground versus roof-edge reference is not declared by the exposed service.",
        "groundFootprintVerified": false,
        "roofOutlineVerified": false,
        "sourceAbsoluteHorizontalAccuracyMetres": null,
        "heightMetres": null,
        "areaSquareMetres": 213.48459658654426
      }
    },
    {
      "type": "Feature",
      "id": "B05",
      "geometry": {
        "type": "Polygon",
        "coordinates": [
          [
            [
              17.496117257906935,
              59.84130153652899
            ],
            [
              17.49601048695498,
              59.841234521936656
            ],
            [
              17.495922435590938,
              59.841268497664935
            ],
            [
              17.496029245153807,
              59.84133625748928
            ],
            [
              17.496117257906935,
              59.84130153652899
            ]
          ]
        ]
      },
      "properties": {
        "id": "B05",
        "municipalObjectId": 92444,
        "name": "Small red-roof building southeast of clubhouse",
        "function": "Unknown",
        "status": "Befintligt",
        "planMethod": "Geod. Totalstation",
        "confirmedExistingMeasuredOutline": true,
        "geometryInterpretation": "Municipal 2D building outline; wall-at-ground versus roof-edge reference is not declared by the exposed service.",
        "groundFootprintVerified": false,
        "roofOutlineVerified": false,
        "sourceAbsoluteHorizontalAccuracyMetres": null,
        "heightMetres": null,
        "areaSquareMetres": 59.94819173968906
      }
    },
    {
      "type": "Feature",
      "id": "B06",
      "geometry": {
        "type": "Polygon",
        "coordinates": [
          [
            [
              17.49575380264941,
              59.84091342145748
            ],
            [
              17.495799321217838,
              59.84097161253622
            ],
            [
              17.49580430159223,
              59.84097063077646
            ],
            [
              17.495826354437888,
              59.84099808771668
            ],
            [
              17.495863355066106,
              59.84099077925815
            ],
            [
              17.49586466929981,
              59.84099244934929
            ],
            [
              17.49607106246063,
              59.84095133018931
            ],
            [
              17.496003550399692,
              59.84086455154195
            ],
            [
              17.4959990174109,
              59.840865436285036
            ],
            [
              17.49575496002788,
              59.84091319700024
            ],
            [
              17.49575380264941,
              59.84091342145748
            ]
          ]
        ]
      },
      "properties": {
        "id": "B06",
        "municipalObjectId": 1212887,
        "name": "Dark-roof building south of clubhouse",
        "function": "Training or practice building candidate",
        "status": "Ingen information",
        "planMethod": "No information",
        "confirmedExistingMeasuredOutline": false,
        "geometryInterpretation": "Municipal 2D building outline; wall-at-ground versus roof-edge reference is not declared by the exposed service.",
        "groundFootprintVerified": false,
        "roofOutlineVerified": false,
        "sourceAbsoluteHorizontalAccuracyMetres": null,
        "heightMetres": null,
        "areaSquareMetres": 154.96570839708278
      }
    },
    {
      "type": "Feature",
      "id": "B07",
      "geometry": {
        "type": "Polygon",
        "coordinates": [
          [
            [
              17.4959990174109,
              59.840865436285036
            ],
            [
              17.495979982578874,
              59.84084079594496
            ],
            [
              17.4957356646991,
              59.840888219024755
            ],
            [
              17.49575496002788,
              59.84091319700024
            ],
            [
              17.4959990174109,
              59.840865436285036
            ]
          ]
        ]
      },
      "properties": {
        "id": "B07",
        "municipalObjectId": 1365585,
        "name": "South building component",
        "function": "Unknown",
        "status": "Ingen information",
        "planMethod": "Geod. N\u00e4tverks-RTK",
        "confirmedExistingMeasuredOutline": false,
        "geometryInterpretation": "Municipal 2D building outline; wall-at-ground versus roof-edge reference is not declared by the exposed service.",
        "groundFootprintVerified": false,
        "roofOutlineVerified": false,
        "sourceAbsoluteHorizontalAccuracyMetres": null,
        "heightMetres": null,
        "areaSquareMetres": 43.525237288417564
      }
    },
    {
      "type": "Feature",
      "id": "B08",
      "geometry": {
        "type": "Polygon",
        "coordinates": [
          [
            [
              17.49299278305513,
              59.840751519286464
            ],
            [
              17.49297164681725,
              59.840650565799415
            ],
            [
              17.492618100598555,
              59.840669310287794
            ],
            [
              17.492639235777467,
              59.84077026382993
            ],
            [
              17.49299278305513,
              59.840751519286464
            ]
          ]
        ]
      },
      "properties": {
        "id": "B08",
        "municipalObjectId": 1226083,
        "name": "Driving-range roof shelter",
        "function": "Driving-range shelter",
        "status": "Ingen information",
        "planMethod": "No information",
        "confirmedExistingMeasuredOutline": false,
        "geometryInterpretation": "Municipal 2D building outline; wall-at-ground versus roof-edge reference is not declared by the exposed service.",
        "groundFootprintVerified": false,
        "roofOutlineVerified": false,
        "sourceAbsoluteHorizontalAccuracyMetres": null,
        "heightMetres": null,
        "areaSquareMetres": 225.35149950671536
      }
    },
    {
      "type": "Feature",
      "id": "B09",
      "geometry": {
        "type": "Polygon",
        "coordinates": [
          [
            [
              17.493794369180453,
              59.84072070262815
            ],
            [
              17.493836476331655,
              59.84070881234327
            ],
            [
              17.49381309172391,
              59.84068790067455
            ],
            [
              17.493771107582646,
              59.84069979591289
            ],
            [
              17.493794369180453,
              59.84072070262815
            ]
          ]
        ]
      },
      "properties": {
        "id": "B09",
        "municipalObjectId": 1390788,
        "name": "Small structure on eastern range tee line",
        "function": "Unknown",
        "status": "Ingen information",
        "planMethod": "Geod. N\u00e4tverks-RTK",
        "confirmedExistingMeasuredOutline": false,
        "geometryInterpretation": "Municipal 2D building outline; wall-at-ground versus roof-edge reference is not declared by the exposed service.",
        "groundFootprintVerified": false,
        "roofOutlineVerified": false,
        "sourceAbsoluteHorizontalAccuracyMetres": null,
        "heightMetres": null,
        "areaSquareMetres": 7.221878327276067
      }
    },
    {
      "type": "Feature",
      "id": "B10",
      "geometry": {
        "type": "Polygon",
        "coordinates": [
          [
            [
              17.49720451632016,
              59.840931873102825
            ],
            [
              17.497034469953576,
              59.84062288970839
            ],
            [
              17.49682916164269,
              59.840652137394976
            ],
            [
              17.496996832187786,
              59.84096136420896
            ],
            [
              17.49720451632016,
              59.840931873102825
            ]
          ]
        ]
      },
      "properties": {
        "id": "B10",
        "municipalObjectId": 92436,
        "name": "Long building in southeast service yard",
        "function": "Service-yard building candidate",
        "status": "Befintligt",
        "planMethod": "Geod. Totalstation",
        "confirmedExistingMeasuredOutline": true,
        "geometryInterpretation": "Municipal 2D building outline; wall-at-ground versus roof-edge reference is not declared by the exposed service.",
        "groundFootprintVerified": false,
        "roofOutlineVerified": false,
        "sourceAbsoluteHorizontalAccuracyMetres": null,
        "heightMetres": null,
        "areaSquareMetres": 429.5486010320561
      }
    },
    {
      "type": "Feature",
      "id": "B11",
      "geometry": {
        "type": "Polygon",
        "coordinates": [
          [
            [
              17.4975891476892,
              59.84065808054181
            ],
            [
              17.497533072129443,
              59.840554610456905
            ],
            [
              17.497120897672772,
              59.84061088223006
            ],
            [
              17.497176677601303,
              59.84071471758689
            ],
            [
              17.4975891476892,
              59.84065808054181
            ]
          ]
        ]
      },
      "properties": {
        "id": "B11",
        "municipalObjectId": 92435,
        "name": "White-roof building at southeast yard",
        "function": "Service-yard building candidate",
        "status": "Befintligt",
        "planMethod": "Geod. Totalstation",
        "confirmedExistingMeasuredOutline": true,
        "geometryInterpretation": "Municipal 2D building outline; wall-at-ground versus roof-edge reference is not declared by the exposed service.",
        "groundFootprintVerified": false,
        "roofOutlineVerified": false,
        "sourceAbsoluteHorizontalAccuracyMetres": null,
        "heightMetres": null,
        "areaSquareMetres": 286.5970601629263
      }
    },
    {
      "type": "Feature",
      "id": "B12",
      "geometry": {
        "type": "Polygon",
        "coordinates": [
          [
            [
              17.497761283698352,
              59.84100702002521
            ],
            [
              17.497724475818387,
              59.84091984864761
            ],
            [
              17.49733074490923,
              59.84096168433152
            ],
            [
              17.49736723512045,
              59.84104915799925
            ],
            [
              17.497761283698352,
              59.84100702002521
            ]
          ]
        ]
      },
      "properties": {
        "id": "B12",
        "municipalObjectId": 92440,
        "name": "Red-roof building at north edge of southeast yard",
        "function": "Service-yard building candidate",
        "status": "Befintligt",
        "planMethod": "Geod. Totalstation",
        "confirmedExistingMeasuredOutline": true,
        "geometryInterpretation": "Municipal 2D building outline; wall-at-ground versus roof-edge reference is not declared by the exposed service.",
        "groundFootprintVerified": false,
        "roofOutlineVerified": false,
        "sourceAbsoluteHorizontalAccuracyMetres": null,
        "heightMetres": null,
        "areaSquareMetres": 224.39002892141175
      }
    },
    {
      "type": "Feature",
      "id": "B13",
      "geometry": {
        "type": "Polygon",
        "coordinates": [
          [
            [
              17.49770688260897,
              59.841064542034886
            ],
            [
              17.49768600164673,
              59.84101506981578
            ],
            [
              17.49743677918374,
              59.84104172019969
            ],
            [
              17.49745765979253,
              59.841091192457675
            ],
            [
              17.49770688260897,
              59.841064542034886
            ]
          ]
        ]
      },
      "properties": {
        "id": "B13",
        "municipalObjectId": 1222358,
        "name": "Northern attached part at southeast yard",
        "function": "Unknown",
        "status": "Ingen information",
        "planMethod": "No information",
        "confirmedExistingMeasuredOutline": false,
        "geometryInterpretation": "Municipal 2D building outline; wall-at-ground versus roof-edge reference is not declared by the exposed service.",
        "groundFootprintVerified": false,
        "roofOutlineVerified": false,
        "sourceAbsoluteHorizontalAccuracyMetres": null,
        "heightMetres": null,
        "areaSquareMetres": 80.46654176808093
      }
    },
    {
      "type": "Feature",
      "id": "B14",
      "geometry": {
        "type": "Polygon",
        "coordinates": [
          [
            [
              17.498331993688353,
              59.84122898075659
            ],
            [
              17.49829772484789,
              59.84117043848605
            ],
            [
              17.498209747061665,
              59.84118333394907
            ],
            [
              17.498231716371862,
              59.84121920970492
            ],
            [
              17.49819738156381,
              59.841224091987606
            ],
            [
              17.49821025295242,
              59.841247029989795
            ],
            [
              17.498331993688353,
              59.84122898075659
            ]
          ]
        ]
      },
      "properties": {
        "id": "B14",
        "municipalObjectId": 1246066,
        "name": "Small eastern woodland-edge building",
        "function": "Unknown",
        "status": "Ingen information",
        "planMethod": "Geod. Totalstation",
        "confirmedExistingMeasuredOutline": false,
        "geometryInterpretation": "Municipal 2D building outline; wall-at-ground versus roof-edge reference is not declared by the exposed service.",
        "groundFootprintVerified": false,
        "roofOutlineVerified": false,
        "sourceAbsoluteHorizontalAccuracyMetres": null,
        "heightMetres": null,
        "areaSquareMetres": 40.04260114975747
      }
    },
    {
      "type": "Feature",
      "id": "B15",
      "geometry": {
        "type": "Polygon",
        "coordinates": [
          [
            [
              17.498209747061665,
              59.84118333394907
            ],
            [
              17.49817717978058,
              59.841188101785555
            ],
            [
              17.49819738156381,
              59.841224091987606
            ],
            [
              17.498231716371862,
              59.84121920970492
            ],
            [
              17.498209747061665,
              59.84118333394907
            ]
          ]
        ]
      },
      "properties": {
        "id": "B15",
        "municipalObjectId": 1520169,
        "name": "Small measured part beside eastern building",
        "function": "Unknown",
        "status": "Befintligt",
        "planMethod": "Geod. Totalstation",
        "confirmedExistingMeasuredOutline": true,
        "geometryInterpretation": "Municipal 2D building outline; wall-at-ground versus roof-edge reference is not declared by the exposed service.",
        "groundFootprintVerified": false,
        "roofOutlineVerified": false,
        "sourceAbsoluteHorizontalAccuracyMetres": null,
        "heightMetres": null,
        "areaSquareMetres": 8.141075411466996
      }
    },
    {
      "type": "Feature",
      "id": "B16",
      "geometry": {
        "type": "Polygon",
        "coordinates": [
          [
            [
              17.497317118645103,
              59.84225066436928
            ],
            [
              17.497220188305132,
              59.84219428099495
            ],
            [
              17.49694541579913,
              59.84231390206205
            ],
            [
              17.497042326387373,
              59.84237028646013
            ],
            [
              17.497317118645103,
              59.84225066436928
            ]
          ]
        ]
      },
      "properties": {
        "id": "B16",
        "municipalObjectId": 592773,
        "name": "Large dark-roof building north of parking",
        "function": "Unknown",
        "status": "Befintligt",
        "planMethod": "Geod. N\u00e4tverks-RTK",
        "confirmedExistingMeasuredOutline": true,
        "geometryInterpretation": "Municipal 2D building outline; wall-at-ground versus roof-edge reference is not declared by the exposed service.",
        "groundFootprintVerified": false,
        "roofOutlineVerified": false,
        "sourceAbsoluteHorizontalAccuracyMetres": null,
        "heightMetres": null,
        "areaSquareMetres": 169.13774658278854
      }
    },
    {
      "type": "Feature",
      "id": "B17",
      "geometry": {
        "type": "Polygon",
        "coordinates": [
          [
            [
              17.497722370022494,
              59.84261957753527
            ],
            [
              17.49778056184372,
              59.84257463107909
            ],
            [
              17.497728046606365,
              59.84255829541079
            ],
            [
              17.497687209660523,
              59.8425915404393
            ],
            [
              17.49764328185963,
              59.842577876457014
            ],
            [
              17.497627652246393,
              59.842589900395474
            ],
            [
              17.497722370022494,
              59.84261957753527
            ]
          ]
        ]
      },
      "properties": {
        "id": "B17",
        "municipalObjectId": 1390787,
        "name": "Northern outbuilding part",
        "function": "Unknown",
        "status": "Befintligt",
        "planMethod": "Geod. N\u00e4tverks-RTK",
        "confirmedExistingMeasuredOutline": true,
        "geometryInterpretation": "Municipal 2D building outline; wall-at-ground versus roof-edge reference is not declared by the exposed service.",
        "groundFootprintVerified": false,
        "roofOutlineVerified": false,
        "sourceAbsoluteHorizontalAccuracyMetres": null,
        "heightMetres": null,
        "areaSquareMetres": 24.910277593999545
      }
    },
    {
      "type": "Feature",
      "id": "B18",
      "geometry": {
        "type": "Polygon",
        "coordinates": [
          [
            [
              17.497635917662652,
              59.84257558549747
            ],
            [
              17.497687209660523,
              59.8425915404393
            ],
            [
              17.497729921064973,
              59.84255676855267
            ],
            [
              17.497679577149416,
              59.84254110806837
            ],
            [
              17.497635917662652,
              59.84257558549747
            ]
          ]
        ]
      },
      "properties": {
        "id": "B18",
        "municipalObjectId": 1232325,
        "name": "Northern outbuilding overlapping source part",
        "function": "Unknown",
        "status": "Ingen information",
        "planMethod": "No information",
        "confirmedExistingMeasuredOutline": false,
        "geometryInterpretation": "Municipal 2D building outline; wall-at-ground versus roof-edge reference is not declared by the exposed service.",
        "groundFootprintVerified": false,
        "roofOutlineVerified": false,
        "sourceAbsoluteHorizontalAccuracyMetres": null,
        "heightMetres": null,
        "areaSquareMetres": 15.24962405532657
      }
    },
    {
      "type": "Feature",
      "id": "B19",
      "geometry": {
        "type": "Polygon",
        "coordinates": [
          [
            [
              17.49748923008536,
              59.84249387593396
            ],
            [
              17.497513652245715,
              59.84247481512492
            ],
            [
              17.497483171088763,
              59.84246486732598
            ],
            [
              17.497458419606417,
              59.84248388378746
            ],
            [
              17.49748923008536,
              59.84249387593396
            ]
          ]
        ]
      },
      "properties": {
        "id": "B19",
        "municipalObjectId": 1390786,
        "name": "Tiny structure near north outbuildings",
        "function": "Unknown",
        "status": "Ingen information",
        "planMethod": "Geod. N\u00e4tverks-RTK",
        "confirmedExistingMeasuredOutline": false,
        "geometryInterpretation": "Municipal 2D building outline; wall-at-ground versus roof-edge reference is not declared by the exposed service.",
        "groundFootprintVerified": false,
        "roofOutlineVerified": false,
        "sourceAbsoluteHorizontalAccuracyMetres": null,
        "heightMetres": null,
        "areaSquareMetres": 5.173836398646218
      }
    }
  ]
}
