{
  "type": "FeatureCollection",
  "name": "Confirmed existing municipal geodetic outlines; ground/roof convention and height unknown",
  "features": [
    {
      "type": "Feature",
      "id": "B03",
      "geometry": {
        "type": "Polygon",
        "coordinates": [
          [
            [
              17.495792856515397,
              59.84177985507053
            ],
            [
              17.495737110335547,
              59.841775630192295
            ],
            [
              17.495701967756613,
              59.84179718355879
            ],
            [
              17.495721984119,
              59.84182393437483
            ],
            [
              17.495777709199174,
              59.841828852130234
            ],
            [
              17.495812944134645,
              59.841806379948814
            ],
            [
              17.495792856515397,
              59.84177985507053
            ]
          ]
        ]
      },
      "properties": {
        "id": "B03",
        "municipalObjectId": 92448,
        "name": "Small structure north of clubhouse",
        "function": "Unknown",
        "status": "Befintligt",
        "planMethod": "Geod. Totalstation",
        "confirmedExistingMeasuredOutline": true,
        "geometryInterpretation": "Municipal 2D building outline; wall-at-ground versus roof-edge reference is not declared by the exposed service.",
        "groundFootprintVerified": false,
        "roofOutlineVerified": false,
        "sourceAbsoluteHorizontalAccuracyMetres": null,
        "heightMetres": null,
        "areaSquareMetres": 25.973402104517298
      }
    },
    {
      "type": "Feature",
      "id": "B05",
      "geometry": {
        "type": "Polygon",
        "coordinates": [
          [
            [
              17.496117257906935,
              59.84130153652899
            ],
            [
              17.49601048695498,
              59.841234521936656
            ],
            [
              17.495922435590938,
              59.841268497664935
            ],
            [
              17.496029245153807,
              59.84133625748928
            ],
            [
              17.496117257906935,
              59.84130153652899
            ]
          ]
        ]
      },
      "properties": {
        "id": "B05",
        "municipalObjectId": 92444,
        "name": "Small red-roof building southeast of clubhouse",
        "function": "Unknown",
        "status": "Befintligt",
        "planMethod": "Geod. Totalstation",
        "confirmedExistingMeasuredOutline": true,
        "geometryInterpretation": "Municipal 2D building outline; wall-at-ground versus roof-edge reference is not declared by the exposed service.",
        "groundFootprintVerified": false,
        "roofOutlineVerified": false,
        "sourceAbsoluteHorizontalAccuracyMetres": null,
        "heightMetres": null,
        "areaSquareMetres": 59.94819173968906
      }
    },
    {
      "type": "Feature",
      "id": "B10",
      "geometry": {
        "type": "Polygon",
        "coordinates": [
          [
            [
              17.49720451632016,
              59.840931873102825
            ],
            [
              17.497034469953576,
              59.84062288970839
            ],
            [
              17.49682916164269,
              59.840652137394976
            ],
            [
              17.496996832187786,
              59.84096136420896
            ],
            [
              17.49720451632016,
              59.840931873102825
            ]
          ]
        ]
      },
      "properties": {
        "id": "B10",
        "municipalObjectId": 92436,
        "name": "Long building in southeast service yard",
        "function": "Service-yard building candidate",
        "status": "Befintligt",
        "planMethod": "Geod. Totalstation",
        "confirmedExistingMeasuredOutline": true,
        "geometryInterpretation": "Municipal 2D building outline; wall-at-ground versus roof-edge reference is not declared by the exposed service.",
        "groundFootprintVerified": false,
        "roofOutlineVerified": false,
        "sourceAbsoluteHorizontalAccuracyMetres": null,
        "heightMetres": null,
        "areaSquareMetres": 429.5486010320561
      }
    },
    {
      "type": "Feature",
      "id": "B11",
      "geometry": {
        "type": "Polygon",
        "coordinates": [
          [
            [
              17.4975891476892,
              59.84065808054181
            ],
            [
              17.497533072129443,
              59.840554610456905
            ],
            [
              17.497120897672772,
              59.84061088223006
            ],
            [
              17.497176677601303,
              59.84071471758689
            ],
            [
              17.4975891476892,
              59.84065808054181
            ]
          ]
        ]
      },
      "properties": {
        "id": "B11",
        "municipalObjectId": 92435,
        "name": "White-roof building at southeast yard",
        "function": "Service-yard building candidate",
        "status": "Befintligt",
        "planMethod": "Geod. Totalstation",
        "confirmedExistingMeasuredOutline": true,
        "geometryInterpretation": "Municipal 2D building outline; wall-at-ground versus roof-edge reference is not declared by the exposed service.",
        "groundFootprintVerified": false,
        "roofOutlineVerified": false,
        "sourceAbsoluteHorizontalAccuracyMetres": null,
        "heightMetres": null,
        "areaSquareMetres": 286.5970601629263
      }
    },
    {
      "type": "Feature",
      "id": "B12",
      "geometry": {
        "type": "Polygon",
        "coordinates": [
          [
            [
              17.497761283698352,
              59.84100702002521
            ],
            [
              17.497724475818387,
              59.84091984864761
            ],
            [
              17.49733074490923,
              59.84096168433152
            ],
            [
              17.49736723512045,
              59.84104915799925
            ],
            [
              17.497761283698352,
              59.84100702002521
            ]
          ]
        ]
      },
      "properties": {
        "id": "B12",
        "municipalObjectId": 92440,
        "name": "Red-roof building at north edge of southeast yard",
        "function": "Service-yard building candidate",
        "status": "Befintligt",
        "planMethod": "Geod. Totalstation",
        "confirmedExistingMeasuredOutline": true,
        "geometryInterpretation": "Municipal 2D building outline; wall-at-ground versus roof-edge reference is not declared by the exposed service.",
        "groundFootprintVerified": false,
        "roofOutlineVerified": false,
        "sourceAbsoluteHorizontalAccuracyMetres": null,
        "heightMetres": null,
        "areaSquareMetres": 224.39002892141175
      }
    },
    {
      "type": "Feature",
      "id": "B15",
      "geometry": {
        "type": "Polygon",
        "coordinates": [
          [
            [
              17.498209747061665,
              59.84118333394907
            ],
            [
              17.49817717978058,
              59.841188101785555
            ],
            [
              17.49819738156381,
              59.841224091987606
            ],
            [
              17.498231716371862,
              59.84121920970492
            ],
            [
              17.498209747061665,
              59.84118333394907
            ]
          ]
        ]
      },
      "properties": {
        "id": "B15",
        "municipalObjectId": 1520169,
        "name": "Small measured part beside eastern building",
        "function": "Unknown",
        "status": "Befintligt",
        "planMethod": "Geod. Totalstation",
        "confirmedExistingMeasuredOutline": true,
        "geometryInterpretation": "Municipal 2D building outline; wall-at-ground versus roof-edge reference is not declared by the exposed service.",
        "groundFootprintVerified": false,
        "roofOutlineVerified": false,
        "sourceAbsoluteHorizontalAccuracyMetres": null,
        "heightMetres": null,
        "areaSquareMetres": 8.141075411466996
      }
    },
    {
      "type": "Feature",
      "id": "B16",
      "geometry": {
        "type": "Polygon",
        "coordinates": [
          [
            [
              17.497317118645103,
              59.84225066436928
            ],
            [
              17.497220188305132,
              59.84219428099495
            ],
            [
              17.49694541579913,
              59.84231390206205
            ],
            [
              17.497042326387373,
              59.84237028646013
            ],
            [
              17.497317118645103,
              59.84225066436928
            ]
          ]
        ]
      },
      "properties": {
        "id": "B16",
        "municipalObjectId": 592773,
        "name": "Large dark-roof building north of parking",
        "function": "Unknown",
        "status": "Befintligt",
        "planMethod": "Geod. N\u00e4tverks-RTK",
        "confirmedExistingMeasuredOutline": true,
        "geometryInterpretation": "Municipal 2D building outline; wall-at-ground versus roof-edge reference is not declared by the exposed service.",
        "groundFootprintVerified": false,
        "roofOutlineVerified": false,
        "sourceAbsoluteHorizontalAccuracyMetres": null,
        "heightMetres": null,
        "areaSquareMetres": 169.13774658278854
      }
    },
    {
      "type": "Feature",
      "id": "B17",
      "geometry": {
        "type": "Polygon",
        "coordinates": [
          [
            [
              17.497722370022494,
              59.84261957753527
            ],
            [
              17.49778056184372,
              59.84257463107909
            ],
            [
              17.497728046606365,
              59.84255829541079
            ],
            [
              17.497687209660523,
              59.8425915404393
            ],
            [
              17.49764328185963,
              59.842577876457014
            ],
            [
              17.497627652246393,
              59.842589900395474
            ],
            [
              17.497722370022494,
              59.84261957753527
            ]
          ]
        ]
      },
      "properties": {
        "id": "B17",
        "municipalObjectId": 1390787,
        "name": "Northern outbuilding part",
        "function": "Unknown",
        "status": "Befintligt",
        "planMethod": "Geod. N\u00e4tverks-RTK",
        "confirmedExistingMeasuredOutline": true,
        "geometryInterpretation": "Municipal 2D building outline; wall-at-ground versus roof-edge reference is not declared by the exposed service.",
        "groundFootprintVerified": false,
        "roofOutlineVerified": false,
        "sourceAbsoluteHorizontalAccuracyMetres": null,
        "heightMetres": null,
        "areaSquareMetres": 24.910277593999545
      }
    }
  ]
}
