{
  "type": "FeatureCollection",
  "name": "Upsala Stora fairway corrections from 2025 orthophoto",
  "crs": {
    "type": "name",
    "properties": {
      "name": "EPSG:3006"
    }
  },
  "features": [
    {
      "type": "Feature",
      "id": "upsala-stora-13-fairway-2025",
      "properties": {
        "id": "upsala-stora-13-fairway-2025",
        "hole": 13,
        "feature": "fairway",
        "decision": "recommended-adoption",
        "prov": "ortho-trace",
        "observedYear": 2025,
        "source": "Lantm\u00e4teriet Ortofoto 0.16, public Uppsala municipality viewing WMS",
        "sourceCrs": "EPSG:3006",
        "sourceNativeResolutionMetres": 0.16,
        "sampleResolutionMetres": 0.25,
        "sourceAbsoluteHorizontalAccuracyMetres": null,
        "exactFlightDate": null,
        "method": "Manual trace of visible fairway mowing boundary; source image georeference, no fitted control points",
        "boundaryInterpretationUncertaintyMetres": 2,
        "confidence": "medium-high",
        "sourceFiles": [
          {
            "file": "lm2025_025m_r0_c0.png",
            "sha256": "3c1bc847b0ac7234534aee4dd0ca43781e1fba6d508aa1addafbcc3003507930",
            "url": "https://kartportal.uppsala.se/proxy/0rt0?service=WMS&request=GetMap&version=1.1.1&srs=EPSG%3A3006&bbox=639119.5%2C6636145.5%2C640143.5%2C6637169.5&width=4096&height=4096&styles=&format=image%2Fpng&transparent=false&layers=Ortofoto_0.16",
            "extent": [
              639119.5,
              6636145.5,
              640143.5,
              6637169.5
            ]
          }
        ],
        "oldAreaM2": 7345.89,
        "areaM2": 4167.59,
        "intersectionOverUnionAgainstInferredOldShape": 0.4873,
        "removedInferredAreaM2": 3573.49,
        "addedObservedAreaM2": 395.19,
        "hausdorffDistanceFromOldM": 40.43,
        "originalFairway": {
          "rings": [
            [
              [
                -339.2,
                -277.7
              ],
              [
                -316.3,
                -293.1
              ],
              [
                -296.3,
                -312.9
              ],
              [
                -272.9,
                -326.9
              ],
              [
                -248.8,
                -339.8
              ],
              [
                -228,
                -357.4
              ],
              [
                -206.5,
                -373.5
              ],
              [
                -190.1,
                -394
              ],
              [
                -173.1,
                -414.3
              ],
              [
                -144.7,
                -390.6
              ],
              [
                -163.3,
                -368.5
              ],
              [
                -185.1,
                -348.2
              ],
              [
                -207.9,
                -330.6
              ],
              [
                -230.7,
                -314
              ],
              [
                -254.2,
                -298.1
              ],
              [
                -278,
                -283.2
              ],
              [
                -302.1,
                -268.7
              ],
              [
                -326.5,
                -255.1
              ]
            ]
          ],
          "prov": "inferred"
        },
        "originalPixelRing": [
          [
            1137,
            251
          ],
          [
            1154,
            255
          ],
          [
            1175,
            249
          ],
          [
            1176,
            267
          ],
          [
            1164,
            290
          ],
          [
            1145,
            315
          ],
          [
            1133,
            339
          ],
          [
            1121,
            370
          ],
          [
            1118,
            397
          ],
          [
            1106,
            421
          ],
          [
            1082,
            450
          ],
          [
            1055,
            479
          ],
          [
            1025,
            510
          ],
          [
            1006,
            530
          ],
          [
            976,
            548
          ],
          [
            945,
            564
          ],
          [
            915,
            583
          ],
          [
            888,
            602
          ],
          [
            865,
            628
          ],
          [
            846,
            650
          ],
          [
            839,
            672
          ],
          [
            842,
            695
          ],
          [
            837,
            716
          ],
          [
            820,
            735
          ],
          [
            795,
            750
          ],
          [
            770,
            764
          ],
          [
            742,
            778
          ],
          [
            714,
            792
          ],
          [
            685,
            806
          ],
          [
            659,
            818
          ],
          [
            630,
            830
          ],
          [
            610,
            837
          ],
          [
            590,
            839
          ],
          [
            570,
            831
          ],
          [
            556,
            816
          ],
          [
            546,
            800
          ],
          [
            540,
            782
          ],
          [
            540,
            764
          ],
          [
            547,
            746
          ],
          [
            559,
            732
          ],
          [
            577,
            720
          ],
          [
            600,
            712
          ],
          [
            629,
            707
          ],
          [
            661,
            701
          ],
          [
            690,
            692
          ],
          [
            716,
            683
          ],
          [
            739,
            671
          ],
          [
            759,
            654
          ],
          [
            780,
            636
          ],
          [
            803,
            614
          ],
          [
            830,
            591
          ],
          [
            857,
            568
          ],
          [
            883,
            545
          ],
          [
            910,
            520
          ],
          [
            938,
            493
          ],
          [
            963,
            466
          ],
          [
            985,
            440
          ],
          [
            1006,
            414
          ],
          [
            1026,
            386
          ],
          [
            1044,
            359
          ],
          [
            1059,
            334
          ],
          [
            1073,
            311
          ],
          [
            1086,
            291
          ],
          [
            1101,
            276
          ],
          [
            1118,
            265
          ]
        ],
        "cropExtent": [
          639377,
          6636293,
          639715,
          6636596
        ],
        "coordinateTransform": "EPSG:4326 to EPSG:3006 via PROJ; legacy local inverse uses repository origin and metres-per-degree",
        "notes": "The rounded southwest fairway start excludes rough and trees included by the inferred corridor; the observed northeast approach extends beyond its arbitrary cutoff. Two metre interpretation bound includes small shadows near the approach.",
        "topology": "Single visible fairway ring. Existing water, greens and bunkers remain separate higher-priority surfaces; no internal water/bunker islands cross the observed mowing boundary."
      },
      "geometry": {
        "type": "Polygon",
        "coordinates": [
          [
            [
              639661.25,
              6636533.25
            ],
            [
              639665.5,
              6636532.25
            ],
            [
              639670.75,
              6636533.75
            ],
            [
              639671.0,
              6636529.25
            ],
            [
              639668.0,
              6636523.5
            ],
            [
              639663.25,
              6636517.25
            ],
            [
              639660.25,
              6636511.25
            ],
            [
              639657.25,
              6636503.5
            ],
            [
              639656.5,
              6636496.75
            ],
            [
              639653.5,
              6636490.75
            ],
            [
              639647.5,
              6636483.5
            ],
            [
              639640.75,
              6636476.25
            ],
            [
              639633.25,
              6636468.5
            ],
            [
              639628.5,
              6636463.5
            ],
            [
              639621.0,
              6636459.0
            ],
            [
              639613.25,
              6636455.0
            ],
            [
              639605.75,
              6636450.25
            ],
            [
              639599.0,
              6636445.5
            ],
            [
              639593.25,
              6636439.0
            ],
            [
              639588.5,
              6636433.5
            ],
            [
              639586.75,
              6636428.0
            ],
            [
              639587.5,
              6636422.25
            ],
            [
              639586.25,
              6636417.0
            ],
            [
              639582.0,
              6636412.25
            ],
            [
              639575.75,
              6636408.5
            ],
            [
              639569.5,
              6636405.0
            ],
            [
              639562.5,
              6636401.5
            ],
            [
              639555.5,
              6636398.0
            ],
            [
              639548.25,
              6636394.5
            ],
            [
              639541.75,
              6636391.5
            ],
            [
              639534.5,
              6636388.5
            ],
            [
              639529.5,
              6636386.75
            ],
            [
              639524.5,
              6636386.25
            ],
            [
              639519.5,
              6636388.25
            ],
            [
              639516.0,
              6636392.0
            ],
            [
              639513.5,
              6636396.0
            ],
            [
              639512.0,
              6636400.5
            ],
            [
              639512.0,
              6636405.0
            ],
            [
              639513.75,
              6636409.5
            ],
            [
              639516.75,
              6636413.0
            ],
            [
              639521.25,
              6636416.0
            ],
            [
              639527.0,
              6636418.0
            ],
            [
              639534.25,
              6636419.25
            ],
            [
              639542.25,
              6636420.75
            ],
            [
              639549.5,
              6636423.0
            ],
            [
              639556.0,
              6636425.25
            ],
            [
              639561.75,
              6636428.25
            ],
            [
              639566.75,
              6636432.5
            ],
            [
              639572.0,
              6636437.0
            ],
            [
              639577.75,
              6636442.5
            ],
            [
              639584.5,
              6636448.25
            ],
            [
              639591.25,
              6636454.0
            ],
            [
              639597.75,
              6636459.75
            ],
            [
              639604.5,
              6636466.0
            ],
            [
              639611.5,
              6636472.75
            ],
            [
              639617.75,
              6636479.5
            ],
            [
              639623.25,
              6636486.0
            ],
            [
              639628.5,
              6636492.5
            ],
            [
              639633.5,
              6636499.5
            ],
            [
              639638.0,
              6636506.25
            ],
            [
              639641.75,
              6636512.5
            ],
            [
              639645.25,
              6636518.25
            ],
            [
              639648.5,
              6636523.25
            ],
            [
              639652.25,
              6636527.0
            ],
            [
              639656.5,
              6636529.75
            ],
            [
              639661.25,
              6636533.25
            ]
          ]
        ]
      }
    },
    {
      "type": "Feature",
      "id": "upsala-stora-15-fairway-2025",
      "properties": {
        "id": "upsala-stora-15-fairway-2025",
        "hole": 15,
        "feature": "fairway",
        "decision": "recommended-adoption",
        "prov": "ortho-trace",
        "observedYear": 2025,
        "source": "Lantm\u00e4teriet Ortofoto 0.16, public Uppsala municipality viewing WMS",
        "sourceCrs": "EPSG:3006",
        "sourceNativeResolutionMetres": 0.16,
        "sampleResolutionMetres": 0.25,
        "sourceAbsoluteHorizontalAccuracyMetres": null,
        "exactFlightDate": null,
        "method": "Manual trace of visible fairway mowing boundary; source image georeference, no fitted control points",
        "boundaryInterpretationUncertaintyMetres": 2.5,
        "confidence": "medium-high",
        "sourceFiles": [
          {
            "file": "lm2025_025m_r0_c0.png",
            "sha256": "3c1bc847b0ac7234534aee4dd0ca43781e1fba6d508aa1addafbcc3003507930",
            "url": "https://kartportal.uppsala.se/proxy/0rt0?service=WMS&request=GetMap&version=1.1.1&srs=EPSG%3A3006&bbox=639119.5%2C6636145.5%2C640143.5%2C6637169.5&width=4096&height=4096&styles=&format=image%2Fpng&transparent=false&layers=Ortofoto_0.16",
            "extent": [
              639119.5,
              6636145.5,
              640143.5,
              6637169.5
            ]
          },
          {
            "file": "lm2025_025m_r1_c0.png",
            "sha256": "c86103ddf9ce87abf2a19717e7526e4c6921d1ace4cdd25005c87886217e373a",
            "url": "https://kartportal.uppsala.se/proxy/0rt0?service=WMS&request=GetMap&version=1.1.1&srs=EPSG%3A3006&bbox=639119.5%2C6635121.5%2C640143.5%2C6636145.5&width=4096&height=4096&styles=&format=image%2Fpng&transparent=false&layers=Ortofoto_0.16",
            "extent": [
              639119.5,
              6635121.5,
              640143.5,
              6636145.5
            ]
          }
        ],
        "oldAreaM2": 7823.56,
        "areaM2": 5537.5,
        "intersectionOverUnionAgainstInferredOldShape": 0.493,
        "removedInferredAreaM2": 3411.86,
        "addedObservedAreaM2": 1125.8,
        "hausdorffDistanceFromOldM": 28.73,
        "originalFairway": {
          "rings": [
            [
              [
                -163.5,
                -185.8
              ],
              [
                -186.4,
                -170.3
              ],
              [
                -209,
                -154.8
              ],
              [
                -230.9,
                -138.8
              ],
              [
                -252.4,
                -122.3
              ],
              [
                -273.4,
                -105.2
              ],
              [
                -293.6,
                -87.5
              ],
              [
                -312.5,
                -69.5
              ],
              [
                -329.7,
                -49.2
              ],
              [
                -358.7,
                -73.8
              ],
              [
                -332.9,
                -88.7
              ],
              [
                -312.5,
                -108.2
              ],
              [
                -297.2,
                -133.3
              ],
              [
                -276,
                -152.1
              ],
              [
                -253.7,
                -169.3
              ],
              [
                -230.9,
                -185.8
              ],
              [
                -207.8,
                -201.7
              ],
              [
                -184.8,
                -217.3
              ]
            ]
          ],
          "prov": "inferred"
        },
        "originalPixelRing": [
          [
            780,
            377
          ],
          [
            805,
            379
          ],
          [
            824,
            386
          ],
          [
            842,
            399
          ],
          [
            855,
            418
          ],
          [
            864,
            438
          ],
          [
            864,
            452
          ],
          [
            858,
            468
          ],
          [
            846,
            482
          ],
          [
            828,
            494
          ],
          [
            803,
            505
          ],
          [
            779,
            514
          ],
          [
            754,
            524
          ],
          [
            730,
            536
          ],
          [
            705,
            552
          ],
          [
            682,
            570
          ],
          [
            657,
            593
          ],
          [
            633,
            616
          ],
          [
            611,
            639
          ],
          [
            590,
            663
          ],
          [
            568,
            688
          ],
          [
            547,
            714
          ],
          [
            527,
            741
          ],
          [
            505,
            769
          ],
          [
            482,
            795
          ],
          [
            458,
            819
          ],
          [
            434,
            842
          ],
          [
            413,
            861
          ],
          [
            393,
            882
          ],
          [
            375,
            904
          ],
          [
            359,
            925
          ],
          [
            346,
            947
          ],
          [
            332,
            963
          ],
          [
            316,
            976
          ],
          [
            297,
            983
          ],
          [
            279,
            984
          ],
          [
            261,
            980
          ],
          [
            244,
            975
          ],
          [
            229,
            976
          ],
          [
            214,
            981
          ],
          [
            198,
            988
          ],
          [
            176,
            996
          ],
          [
            154,
            994
          ],
          [
            155,
            974
          ],
          [
            156,
            954
          ],
          [
            161,
            942
          ],
          [
            174,
            928
          ],
          [
            191,
            920
          ],
          [
            214,
            914
          ],
          [
            252,
            906
          ],
          [
            279,
            891
          ],
          [
            312,
            862
          ],
          [
            349,
            830
          ],
          [
            389,
            791
          ],
          [
            426,
            756
          ],
          [
            450,
            723
          ],
          [
            474,
            681
          ],
          [
            491,
            633
          ],
          [
            504,
            594
          ],
          [
            514,
            560
          ],
          [
            535,
            534
          ],
          [
            565,
            515
          ],
          [
            590,
            499
          ],
          [
            610,
            478
          ],
          [
            625,
            455
          ],
          [
            640,
            426
          ],
          [
            661,
            407
          ],
          [
            696,
            394
          ],
          [
            733,
            385
          ]
        ],
        "cropExtent": [
          639415,
          6636086,
          639754,
          6636400
        ],
        "coordinateTransform": "EPSG:4326 to EPSG:3006 via PROJ; legacy local inverse uses repository origin and metres-per-degree",
        "notes": "Rounded northeast start and narrowing southwest approach replace the constant-width corridor. The tree canopy near the east edge obscures a short mowing-boundary interval; continuity is interpolated there with 2.5 m interpretation uncertainty. Source permits a substantially better footprint, not survey-level precision.",
        "topology": "Single visible fairway ring. Existing water, greens and bunkers remain separate higher-priority surfaces; no internal water/bunker islands cross the observed mowing boundary."
      },
      "geometry": {
        "type": "Polygon",
        "coordinates": [
          [
            [
              639610.0,
              6636305.75
            ],
            [
              639616.25,
              6636305.25
            ],
            [
              639621.0,
              6636303.5
            ],
            [
              639625.5,
              6636300.25
            ],
            [
              639628.75,
              6636295.5
            ],
            [
              639631.0,
              6636290.5
            ],
            [
              639631.0,
              6636287.0
            ],
            [
              639629.5,
              6636283.0
            ],
            [
              639626.5,
              6636279.5
            ],
            [
              639622.0,
              6636276.5
            ],
            [
              639615.75,
              6636273.75
            ],
            [
              639609.75,
              6636271.5
            ],
            [
              639603.5,
              6636269.0
            ],
            [
              639597.5,
              6636266.0
            ],
            [
              639591.25,
              6636262.0
            ],
            [
              639585.5,
              6636257.5
            ],
            [
              639579.25,
              6636251.75
            ],
            [
              639573.25,
              6636246.0
            ],
            [
              639567.75,
              6636240.25
            ],
            [
              639562.5,
              6636234.25
            ],
            [
              639557.0,
              6636228.0
            ],
            [
              639551.75,
              6636221.5
            ],
            [
              639546.75,
              6636214.75
            ],
            [
              639541.25,
              6636207.75
            ],
            [
              639535.5,
              6636201.25
            ],
            [
              639529.5,
              6636195.25
            ],
            [
              639523.5,
              6636189.5
            ],
            [
              639518.25,
              6636184.75
            ],
            [
              639513.25,
              6636179.5
            ],
            [
              639508.75,
              6636174.0
            ],
            [
              639504.75,
              6636168.75
            ],
            [
              639501.5,
              6636163.25
            ],
            [
              639498.0,
              6636159.25
            ],
            [
              639494.0,
              6636156.0
            ],
            [
              639489.25,
              6636154.25
            ],
            [
              639484.75,
              6636154.0
            ],
            [
              639480.25,
              6636155.0
            ],
            [
              639476.0,
              6636156.25
            ],
            [
              639472.25,
              6636156.0
            ],
            [
              639468.5,
              6636154.75
            ],
            [
              639464.5,
              6636153.0
            ],
            [
              639459.0,
              6636151.0
            ],
            [
              639453.5,
              6636151.5
            ],
            [
              639453.75,
              6636156.5
            ],
            [
              639454.0,
              6636161.5
            ],
            [
              639455.25,
              6636164.5
            ],
            [
              639458.5,
              6636168.0
            ],
            [
              639462.75,
              6636170.0
            ],
            [
              639468.5,
              6636171.5
            ],
            [
              639478.0,
              6636173.5
            ],
            [
              639484.75,
              6636177.25
            ],
            [
              639493.0,
              6636184.5
            ],
            [
              639502.25,
              6636192.5
            ],
            [
              639512.25,
              6636202.25
            ],
            [
              639521.5,
              6636211.0
            ],
            [
              639527.5,
              6636219.25
            ],
            [
              639533.5,
              6636229.75
            ],
            [
              639537.75,
              6636241.75
            ],
            [
              639541.0,
              6636251.5
            ],
            [
              639543.5,
              6636260.0
            ],
            [
              639548.75,
              6636266.5
            ],
            [
              639556.25,
              6636271.25
            ],
            [
              639562.5,
              6636275.25
            ],
            [
              639567.5,
              6636280.5
            ],
            [
              639571.25,
              6636286.25
            ],
            [
              639575.0,
              6636293.5
            ],
            [
              639580.25,
              6636298.25
            ],
            [
              639589.0,
              6636301.5
            ],
            [
              639598.25,
              6636303.75
            ],
            [
              639610.0,
              6636305.75
            ]
          ]
        ]
      }
    }
  ]
}