{
  "type": "FeatureCollection",
  "crs": {
    "type": "name",
    "properties": {
      "name": "EPSG:3006"
    }
  },
  "features": [
    {
      "type": "Feature",
      "id": "upsala-mellan-1-fairway-2025",
      "properties": {
        "id": "upsala-mellan-1-fairway-2025",
        "hole": 1,
        "feature": "fairway",
        "decision": "recommended-adoption",
        "prov": "ortho-trace",
        "observedYear": 2025,
        "source": "Lantm\u00e4teriet Ortofoto 0.16 via advertised Uppsala public viewing WMS",
        "sourceCrs": "EPSG:3006",
        "nativeResolutionMetres": 0.16,
        "exportResolutionMetres": 0.25,
        "sourceAbsoluteHorizontalAccuracyMetres": null,
        "exactFlightDate": null,
        "method": "Manual interpretation of visible mowing boundary on georeferenced 2025 image, corroborated against 2024 context",
        "boundaryInterpretationUncertaintyMetres": 2.5,
        "confidence": "medium-high",
        "sourceFiles": [
          {
            "file": "lm2025_025m_r0_c0.png",
            "sha256": "3c1bc847b0ac7234534aee4dd0ca43781e1fba6d508aa1addafbcc3003507930",
            "url": "https://kartportal.uppsala.se/proxy/0rt0?service=WMS&request=GetMap&version=1.1.1&srs=EPSG%3A3006&bbox=639119.5%2C6636145.5%2C640143.5%2C6637169.5&width=4096&height=4096&styles=&format=image%2Fpng&transparent=false&layers=Ortofoto_0.16",
            "extent": [
              639119.5,
              6636145.5,
              640143.5,
              6637169.5
            ]
          },
          {
            "file": "lm2025_025m_r0_c1.png",
            "sha256": "472062ee1fb58cb587cb8ccb217d9f1c4513960bf8f8757048401a891980e3ab",
            "url": "https://kartportal.uppsala.se/proxy/0rt0?service=WMS&request=GetMap&version=1.1.1&srs=EPSG%3A3006&bbox=640143.5%2C6636145.5%2C641167.5%2C6637169.5&width=4096&height=4096&styles=&format=image%2Fpng&transparent=false&layers=Ortofoto_0.16",
            "extent": [
              640143.5,
              6636145.5,
              641167.5,
              6637169.5
            ]
          }
        ],
        "originalFairway": {
          "rings": [
            [
              [
                201.9,
                -276.1
              ],
              [
                313.9,
                -252.8
              ],
              [
                424.2,
                -238.5
              ],
              [
                419.5,
                -265.5
              ],
              [
                307.3,
                -290.3
              ],
              [
                196.7,
                -306.1
              ]
            ]
          ],
          "prov": "synth"
        },
        "originalPixelRings": [
          [
            [
              626,
              280
            ],
            [
              628,
              261
            ],
            [
              637,
              246
            ],
            [
              651,
              236
            ],
            [
              668,
              235
            ],
            [
              684,
              241
            ],
            [
              705,
              253
            ],
            [
              728,
              265
            ],
            [
              751,
              274
            ],
            [
              773,
              275
            ],
            [
              793,
              268
            ],
            [
              812,
              254
            ],
            [
              832,
              240
            ],
            [
              849,
              232
            ],
            [
              870,
              228
            ],
            [
              893,
              230
            ],
            [
              917,
              237
            ],
            [
              941,
              245
            ],
            [
              966,
              249
            ],
            [
              987,
              246
            ],
            [
              1010,
              239
            ],
            [
              1028,
              238
            ],
            [
              1042,
              244
            ],
            [
              1055,
              255
            ],
            [
              1065,
              271
            ],
            [
              1070,
              283
            ],
            [
              1082,
              291
            ],
            [
              1097,
              292
            ],
            [
              1107,
              287
            ],
            [
              1104,
              304
            ],
            [
              1106,
              320
            ],
            [
              1110,
              333
            ],
            [
              1096,
              324
            ],
            [
              1081,
              315
            ],
            [
              1063,
              306
            ],
            [
              1047,
              301
            ],
            [
              1029,
              298
            ],
            [
              1012,
              301
            ],
            [
              994,
              307
            ],
            [
              974,
              318
            ],
            [
              953,
              330
            ],
            [
              937,
              345
            ],
            [
              923,
              356
            ],
            [
              904,
              363
            ],
            [
              882,
              368
            ],
            [
              858,
              371
            ],
            [
              832,
              371
            ],
            [
              806,
              368
            ],
            [
              780,
              363
            ],
            [
              756,
              357
            ],
            [
              732,
              350
            ],
            [
              708,
              346
            ],
            [
              686,
              340
            ],
            [
              663,
              332
            ],
            [
              646,
              321
            ],
            [
              635,
              306
            ],
            [
              629,
              292
            ]
          ]
        ],
        "traceImageDimensions": [
          1300,
          481
        ],
        "cropExtent": [
          639942,
          6636333,
          640291,
          6636462
        ],
        "areaM2": 3038.54,
        "oldAreaM2": 7139.18,
        "oldNewIoU": 0.2681,
        "removedInferredAreaM2": 4987.33,
        "addedObservedAreaM2": 886.7,
        "hausdorffDistanceFromOldMetres": 101.42,
        "overlapM2": {
          "water": 0.0,
          "bunkers": 0.0,
          "greens": 2.743
        },
        "topology": "One polygon; preserve independent green, bunker and water surface priority",
        "notes": "Replace the false fairway over trees and tees with the observed rounded start.",
        "temporalReview": {
          "year": 2024,
          "decision": "overall footprint corroborated; 2025 mowing boundary controls current geometry",
          "sources": [
            {
              "file": "ortho2024_025m_nw.png",
              "sha256": "819f3c18d2d1b1550eadf5234849e14242775f1dbf3883911efe1c6bc4c84ab1",
              "url": "https://kartportal.uppsala.se/cacheimage/rest/services/ortofoto/Ortofoto_2024/MapServer/export?f=pjson&bbox=639119.5%2C6636145.5%2C640143.5%2C6637169.5&bboxSR=3006&imageSR=3006&size=4096%2C4096&format=png32&transparent=false",
              "extent": [
                639119.5,
                6636145.5,
                640143.5,
                6637169.5
              ],
              "nativeResolutionMetres": 0.08
            },
            {
              "file": "ortho2024_025m_ne.png",
              "sha256": "cd215bc90186b564d35c34d4972f71eaa0377c8f51142dccc8d19b793792b7b1",
              "url": "https://kartportal.uppsala.se/cacheimage/rest/services/ortofoto/Ortofoto_2024/MapServer/export?f=pjson&bbox=640143.5%2C6636145.5%2C641167.5%2C6637169.5&bboxSR=3006&imageSR=3006&size=4096%2C4096&format=png32&transparent=false",
              "extent": [
                640143.5,
                6636145.5,
                641167.5,
                6637169.5
              ],
              "nativeResolutionMetres": 0.08
            }
          ]
        }
      },
      "geometry": {
        "type": "Polygon",
        "coordinates": [
          [
            [
              640110.056923077,
              6636386.906444906
            ],
            [
              640110.5938461538,
              6636392.002079002
            ],
            [
              640113.01,
              6636396.024948025
            ],
            [
              640116.7684615385,
              6636398.706860707
            ],
            [
              640121.3323076923,
              6636398.975051975
            ],
            [
              640125.6276923077,
              6636397.365904366
            ],
            [
              640131.2653846154,
              6636394.147609147
            ],
            [
              640137.44,
              6636390.92931393
            ],
            [
              640143.6146153846,
              6636388.5155925155
            ],
            [
              640149.5207692308,
              6636388.247401248
            ],
            [
              640154.89,
              6636390.124740125
            ],
            [
              640159.9907692308,
              6636393.8794178795
            ],
            [
              640165.36,
              6636397.634095634
            ],
            [
              640169.9238461539,
              6636399.77962578
            ],
            [
              640175.5615384616,
              6636400.852390853
            ],
            [
              640181.7361538461,
              6636400.316008316
            ],
            [
              640188.1792307693,
              6636398.4386694385
            ],
            [
              640194.6223076923,
              6636396.293139293
            ],
            [
              640201.3338461538,
              6636395.22037422
            ],
            [
              640206.9715384615,
              6636396.024948025
            ],
            [
              640213.1461538462,
              6636397.902286902
            ],
            [
              640217.9784615384,
              6636398.170478171
            ],
            [
              640221.7369230769,
              6636396.5613305615
            ],
            [
              640225.2269230769,
              6636393.611226611
            ],
            [
              640227.9115384616,
              6636389.320166321
            ],
            [
              640229.2538461538,
              6636386.101871102
            ],
            [
              640232.4753846154,
              6636383.9563409565
            ],
            [
              640236.5023076923,
              6636383.688149688
            ],
            [
              640239.186923077,
              6636385.029106029
            ],
            [
              640238.3815384615,
              6636380.469854469
            ],
            [
              640238.9184615385,
              6636376.178794179
            ],
            [
              640239.9923076923,
              6636372.692307692
            ],
            [
              640236.2338461538,
              6636375.106029106
            ],
            [
              640232.2069230769,
              6636377.51975052
            ],
            [
              640227.3746153846,
              6636379.933471933
            ],
            [
              640223.0792307692,
              6636381.2744282745
            ],
            [
              640218.2469230769,
              6636382.079002079
            ],
            [
              640213.6830769231,
              6636381.2744282745
            ],
            [
              640208.8507692307,
              6636379.665280665
            ],
            [
              640203.4815384615,
              6636376.7151767155
            ],
            [
              640197.8438461538,
              6636373.496881497
            ],
            [
              640193.5484615385,
              6636369.474012474
            ],
            [
              640189.79,
              6636366.523908524
            ],
            [
              640184.6892307692,
              6636364.646569647
            ],
            [
              640178.7830769231,
              6636363.305613305
            ],
            [
              640172.34,
              6636362.501039501
            ],
            [
              640165.36,
              6636362.501039501
            ],
            [
              640158.38,
              6636363.305613305
            ],
            [
              640151.4,
              6636364.646569647
            ],
            [
              640144.9569230769,
              6636366.255717256
            ],
            [
              640138.5138461539,
              6636368.133056133
            ],
            [
              640132.0707692307,
              6636369.205821206
            ],
            [
              640126.1646153847,
              6636370.814968815
            ],
            [
              640119.99,
              6636372.960498961
            ],
            [
              640115.4261538462,
              6636375.91060291
            ],
            [
              640112.473076923,
              6636379.933471933
            ],
            [
              640110.8623076923,
              6636383.688149688
            ],
            [
              640110.056923077,
              6636386.906444906
            ]
          ]
        ]
      }
    },
    {
      "type": "Feature",
      "id": "upsala-mellan-2-fairway-2025",
      "properties": {
        "id": "upsala-mellan-2-fairway-2025",
        "hole": 2,
        "feature": "fairway",
        "decision": "recommended-adoption",
        "prov": "ortho-trace",
        "observedYear": 2025,
        "source": "Lantm\u00e4teriet Ortofoto 0.16 via advertised Uppsala public viewing WMS",
        "sourceCrs": "EPSG:3006",
        "nativeResolutionMetres": 0.16,
        "exportResolutionMetres": 0.25,
        "sourceAbsoluteHorizontalAccuracyMetres": null,
        "exactFlightDate": null,
        "method": "Manual interpretation of visible mowing boundary on georeferenced 2025 image, corroborated against 2024 context",
        "boundaryInterpretationUncertaintyMetres": 2.5,
        "confidence": "medium-high",
        "sourceFiles": [
          {
            "file": "lm2025_025m_r0_c1.png",
            "sha256": "472062ee1fb58cb587cb8ccb217d9f1c4513960bf8f8757048401a891980e3ab",
            "url": "https://kartportal.uppsala.se/proxy/0rt0?service=WMS&request=GetMap&version=1.1.1&srs=EPSG%3A3006&bbox=640143.5%2C6636145.5%2C641167.5%2C6637169.5&width=4096&height=4096&styles=&format=image%2Fpng&transparent=false&layers=Ortofoto_0.16",
            "extent": [
              640143.5,
              6636145.5,
              641167.5,
              6637169.5
            ]
          }
        ],
        "originalFairway": {
          "rings": [
            [
              [
                503.2,
                -272.1
              ],
              [
                629.5,
                -210.7
              ],
              [
                751.9,
                -157.6
              ],
              [
                740.4,
                -182.4
              ],
              [
                613.5,
                -245.2
              ],
              [
                490.4,
                -299.7
              ]
            ]
          ],
          "prov": "synth"
        },
        "originalPixelRings": [
          [
            [
              430,
              326
            ],
            [
              433,
              310
            ],
            [
              443,
              293
            ],
            [
              459,
              282
            ],
            [
              475,
              279
            ],
            [
              494,
              281
            ],
            [
              516,
              291
            ],
            [
              543,
              307
            ],
            [
              574,
              326
            ],
            [
              608,
              347
            ],
            [
              642,
              367
            ],
            [
              675,
              385
            ],
            [
              705,
              398
            ],
            [
              737,
              406
            ],
            [
              764,
              414
            ],
            [
              789,
              425
            ],
            [
              817,
              439
            ],
            [
              845,
              453
            ],
            [
              874,
              469
            ],
            [
              904,
              480
            ],
            [
              934,
              490
            ],
            [
              965,
              499
            ],
            [
              984,
              508
            ],
            [
              1001,
              523
            ],
            [
              1018,
              536
            ],
            [
              1043,
              549
            ],
            [
              1069,
              560
            ],
            [
              1090,
              563
            ],
            [
              1105,
              560
            ],
            [
              1120,
              551
            ],
            [
              1122,
              567
            ],
            [
              1115,
              588
            ],
            [
              1117,
              605
            ],
            [
              1096,
              603
            ],
            [
              1077,
              602
            ],
            [
              1059,
              606
            ],
            [
              1040,
              609
            ],
            [
              1020,
              612
            ],
            [
              999,
              612
            ],
            [
              979,
              608
            ],
            [
              963,
              599
            ],
            [
              946,
              588
            ],
            [
              925,
              578
            ],
            [
              903,
              568
            ],
            [
              882,
              557
            ],
            [
              860,
              547
            ],
            [
              839,
              539
            ],
            [
              814,
              535
            ],
            [
              787,
              532
            ],
            [
              762,
              528
            ],
            [
              741,
              521
            ],
            [
              721,
              511
            ],
            [
              699,
              498
            ],
            [
              681,
              485
            ],
            [
              661,
              468
            ],
            [
              642,
              453
            ],
            [
              623,
              440
            ],
            [
              603,
              431
            ],
            [
              579,
              420
            ],
            [
              557,
              412
            ],
            [
              536,
              406
            ],
            [
              514,
              397
            ],
            [
              493,
              388
            ],
            [
              471,
              376
            ],
            [
              453,
              363
            ],
            [
              440,
              347
            ]
          ]
        ],
        "traceImageDimensions": [
          1300,
          720
        ],
        "cropExtent": [
          640243,
          6636265,
          640613,
          6636470
        ],
        "areaM2": 4923.61,
        "oldAreaM2": 5953.94,
        "oldNewIoU": 0.09,
        "removedInferredAreaM2": 5055.78,
        "addedObservedAreaM2": 4025.45,
        "hausdorffDistanceFromOldMetres": 74.79,
        "overlapM2": {
          "water": 0.0,
          "bunkers": 0.0,
          "greens": 0.0
        },
        "topology": "One polygon; preserve independent green, bunker and water surface priority",
        "notes": "The synthetic corridor crosses the northern woodland; the traced surface follows mowing below it.",
        "temporalReview": {
          "year": 2024,
          "decision": "overall footprint corroborated; 2025 mowing boundary controls current geometry",
          "sources": [
            {
              "file": "ortho2024_025m_ne.png",
              "sha256": "cd215bc90186b564d35c34d4972f71eaa0377c8f51142dccc8d19b793792b7b1",
              "url": "https://kartportal.uppsala.se/cacheimage/rest/services/ortofoto/Ortofoto_2024/MapServer/export?f=pjson&bbox=640143.5%2C6636145.5%2C641167.5%2C6637169.5&bboxSR=3006&imageSR=3006&size=4096%2C4096&format=png32&transparent=false",
              "extent": [
                640143.5,
                6636145.5,
                641167.5,
                6637169.5
              ],
              "nativeResolutionMetres": 0.08
            }
          ]
        }
      },
      "geometry": {
        "type": "Polygon",
        "coordinates": [
          [
            [
              640365.3846153846,
              6636377.180555556
            ],
            [
              640366.2384615385,
              6636381.736111111
            ],
            [
              640369.0846153846,
              6636386.576388889
            ],
            [
              640373.6384615385,
              6636389.708333333
            ],
            [
              640378.1923076923,
              6636390.5625
            ],
            [
              640383.6,
              6636389.993055556
            ],
            [
              640389.8615384615,
              6636387.145833333
            ],
            [
              640397.5461538462,
              6636382.590277778
            ],
            [
              640406.3692307692,
              6636377.180555556
            ],
            [
              640416.0461538462,
              6636371.201388889
            ],
            [
              640425.723076923,
              6636365.506944444
            ],
            [
              640435.1153846154,
              6636360.381944444
            ],
            [
              640443.6538461539,
              6636356.680555556
            ],
            [
              640452.7615384615,
              6636354.402777778
            ],
            [
              640460.4461538461,
              6636352.125
            ],
            [
              640467.5615384616,
              6636348.993055556
            ],
            [
              640475.5307692308,
              6636345.006944444
            ],
            [
              640483.5,
              6636341.020833333
            ],
            [
              640491.7538461538,
              6636336.465277778
            ],
            [
              640500.2923076923,
              6636333.333333333
            ],
            [
              640508.8307692307,
              6636330.486111111
            ],
            [
              640517.6538461539,
              6636327.923611111
            ],
            [
              640523.0615384616,
              6636325.361111111
            ],
            [
              640527.9,
              6636321.090277778
            ],
            [
              640532.7384615385,
              6636317.388888889
            ],
            [
              640539.8538461538,
              6636313.6875
            ],
            [
              640547.2538461538,
              6636310.555555556
            ],
            [
              640553.2307692308,
              6636309.701388889
            ],
            [
              640557.5,
              6636310.555555556
            ],
            [
              640561.7692307692,
              6636313.118055556
            ],
            [
              640562.3384615384,
              6636308.5625
            ],
            [
              640560.3461538461,
              6636302.583333333
            ],
            [
              640560.9153846154,
              6636297.743055556
            ],
            [
              640554.9384615384,
              6636298.3125
            ],
            [
              640549.5307692308,
              6636298.597222222
            ],
            [
              640544.4076923077,
              6636297.458333333
            ],
            [
              640539.0,
              6636296.604166667
            ],
            [
              640533.3076923077,
              6636295.75
            ],
            [
              640527.3307692307,
              6636295.75
            ],
            [
              640521.6384615385,
              6636296.888888889
            ],
            [
              640517.0846153846,
              6636299.451388889
            ],
            [
              640512.2461538462,
              6636302.583333333
            ],
            [
              640506.2692307692,
              6636305.430555556
            ],
            [
              640500.0076923077,
              6636308.277777778
            ],
            [
              640494.0307692308,
              6636311.409722222
            ],
            [
              640487.7692307692,
              6636314.256944444
            ],
            [
              640481.7923076923,
              6636316.534722222
            ],
            [
              640474.676923077,
              6636317.673611111
            ],
            [
              640466.9923076923,
              6636318.527777778
            ],
            [
              640459.8769230769,
              6636319.666666667
            ],
            [
              640453.9,
              6636321.659722222
            ],
            [
              640448.2076923077,
              6636324.506944444
            ],
            [
              640441.9461538461,
              6636328.208333333
            ],
            [
              640436.823076923,
              6636331.909722222
            ],
            [
              640431.1307692308,
              6636336.75
            ],
            [
              640425.723076923,
              6636341.020833333
            ],
            [
              640420.3153846153,
              6636344.722222222
            ],
            [
              640414.6230769231,
              6636347.284722222
            ],
            [
              640407.7923076923,
              6636350.416666667
            ],
            [
              640401.5307692308,
              6636352.694444444
            ],
            [
              640395.5538461539,
              6636354.402777778
            ],
            [
              640389.2923076923,
              6636356.965277778
            ],
            [
              640383.3153846153,
              6636359.527777778
            ],
            [
              640377.0538461539,
              6636362.944444444
            ],
            [
              640371.9307692308,
              6636366.645833333
            ],
            [
              640368.2307692308,
              6636371.201388889
            ],
            [
              640365.3846153846,
              6636377.180555556
            ]
          ]
        ]
      }
    },
    {
      "type": "Feature",
      "id": "upsala-mellan-3-fairway-2025",
      "properties": {
        "id": "upsala-mellan-3-fairway-2025",
        "hole": 3,
        "feature": "fairway",
        "decision": "recommended-adoption",
        "prov": "ortho-trace",
        "observedYear": 2025,
        "source": "Lantm\u00e4teriet Ortofoto 0.16 via advertised Uppsala public viewing WMS",
        "sourceCrs": "EPSG:3006",
        "nativeResolutionMetres": 0.16,
        "exportResolutionMetres": 0.25,
        "sourceAbsoluteHorizontalAccuracyMetres": null,
        "exactFlightDate": null,
        "method": "Manual interpretation of visible mowing boundary on georeferenced 2025 image, corroborated against 2024 context",
        "boundaryInterpretationUncertaintyMetres": 2.5,
        "confidence": "medium-high",
        "sourceFiles": [
          {
            "file": "lm2025_025m_r0_c1.png",
            "sha256": "472062ee1fb58cb587cb8ccb217d9f1c4513960bf8f8757048401a891980e3ab",
            "url": "https://kartportal.uppsala.se/proxy/0rt0?service=WMS&request=GetMap&version=1.1.1&srs=EPSG%3A3006&bbox=640143.5%2C6636145.5%2C641167.5%2C6637169.5&width=4096&height=4096&styles=&format=image%2Fpng&transparent=false&layers=Ortofoto_0.16",
            "extent": [
              640143.5,
              6636145.5,
              641167.5,
              6637169.5
            ]
          }
        ],
        "originalFairway": {
          "rings": [
            [
              [
                812.9,
                -306.9
              ],
              [
                988.2,
                -232.4
              ],
              [
                1159.6,
                -167.2
              ],
              [
                1148.3,
                -195.2
              ],
              [
                972.4,
                -271.3
              ],
              [
                800.2,
                -338
              ]
            ]
          ],
          "prov": "synth"
        },
        "originalPixelRings": [
          [
            [
              405,
              304
            ],
            [
              408,
              289
            ],
            [
              416,
              275
            ],
            [
              429,
              264
            ],
            [
              445,
              261
            ],
            [
              460,
              265
            ],
            [
              477,
              277
            ],
            [
              496,
              293
            ],
            [
              519,
              311
            ],
            [
              545,
              330
            ],
            [
              572,
              348
            ],
            [
              601,
              365
            ],
            [
              630,
              379
            ],
            [
              660,
              391
            ],
            [
              692,
              401
            ],
            [
              724,
              408
            ],
            [
              756,
              413
            ],
            [
              791,
              416
            ],
            [
              827,
              418
            ],
            [
              861,
              421
            ],
            [
              890,
              426
            ],
            [
              916,
              432
            ],
            [
              938,
              437
            ],
            [
              958,
              437
            ],
            [
              974,
              431
            ],
            [
              989,
              419
            ],
            [
              1000,
              400
            ],
            [
              1010,
              383
            ],
            [
              1022,
              373
            ],
            [
              1036,
              367
            ],
            [
              1056,
              365
            ],
            [
              1075,
              369
            ],
            [
              1094,
              380
            ],
            [
              1110,
              394
            ],
            [
              1123,
              409
            ],
            [
              1136,
              420
            ],
            [
              1150,
              431
            ],
            [
              1164,
              441
            ],
            [
              1179,
              452
            ],
            [
              1189,
              463
            ],
            [
              1180,
              472
            ],
            [
              1174,
              484
            ],
            [
              1164,
              478
            ],
            [
              1146,
              470
            ],
            [
              1128,
              463
            ],
            [
              1110,
              455
            ],
            [
              1093,
              449
            ],
            [
              1075,
              447
            ],
            [
              1059,
              449
            ],
            [
              1040,
              455
            ],
            [
              1018,
              465
            ],
            [
              995,
              475
            ],
            [
              972,
              487
            ],
            [
              950,
              496
            ],
            [
              928,
              502
            ],
            [
              904,
              506
            ],
            [
              877,
              507
            ],
            [
              849,
              506
            ],
            [
              821,
              502
            ],
            [
              794,
              497
            ],
            [
              766,
              491
            ],
            [
              736,
              483
            ],
            [
              706,
              475
            ],
            [
              676,
              466
            ],
            [
              646,
              456
            ],
            [
              616,
              445
            ],
            [
              586,
              434
            ],
            [
              558,
              421
            ],
            [
              530,
              408
            ],
            [
              504,
              395
            ],
            [
              481,
              381
            ],
            [
              460,
              368
            ],
            [
              442,
              355
            ],
            [
              425,
              341
            ],
            [
              414,
              326
            ],
            [
              407,
              315
            ]
          ]
        ],
        "traceImageDimensions": [
          1300,
          628
        ],
        "cropExtent": [
          640551,
          6636290,
          641021,
          6636517
        ],
        "areaM2": 7571.93,
        "oldAreaM2": 9955.58,
        "oldNewIoU": 0.0635,
        "removedInferredAreaM2": 8908.52,
        "addedObservedAreaM2": 6524.87,
        "hausdorffDistanceFromOldMetres": 105.01,
        "overlapM2": {
          "water": 0.0,
          "bunkers": 28.466,
          "greens": 20.831
        },
        "topology": "One polygon; preserve independent green, bunker and water surface priority",
        "notes": "The synthetic straight strip crosses woodland and misses the broad southern landing area.",
        "temporalReview": {
          "year": 2024,
          "decision": "overall footprint corroborated; 2025 mowing boundary controls current geometry",
          "sources": [
            {
              "file": "ortho2024_025m_ne.png",
              "sha256": "cd215bc90186b564d35c34d4972f71eaa0377c8f51142dccc8d19b793792b7b1",
              "url": "https://kartportal.uppsala.se/cacheimage/rest/services/ortofoto/Ortofoto_2024/MapServer/export?f=pjson&bbox=640143.5%2C6636145.5%2C641167.5%2C6637169.5&bboxSR=3006&imageSR=3006&size=4096%2C4096&format=png32&transparent=false",
              "extent": [
                640143.5,
                6636145.5,
                641167.5,
                6637169.5
              ],
              "nativeResolutionMetres": 0.08
            }
          ]
        },
        "conflicts": [
          {
            "sourceId": "w438984738",
            "kind": "older OSM exposed-sand polygon on current grass-covered depression",
            "decision": "separate retirement evidence supplied in retired-bunker-w438984738.json; preserve terrain relief"
          }
        ]
      },
      "geometry": {
        "type": "Polygon",
        "coordinates": [
          [
            [
              640697.4230769231,
              6636407.114649681
            ],
            [
              640698.5076923077,
              6636412.536624203
            ],
            [
              640701.4,
              6636417.597133758
            ],
            [
              640706.1,
              6636421.573248408
            ],
            [
              640711.8846153846,
              6636422.657643312
            ],
            [
              640717.3076923077,
              6636421.21178344
            ],
            [
              640723.4538461538,
              6636416.874203822
            ],
            [
              640730.323076923,
              6636411.090764332
            ],
            [
              640738.6384615385,
              6636404.584394905
            ],
            [
              640748.0384615385,
              6636397.71656051
            ],
            [
              640757.8,
              6636391.210191083
            ],
            [
              640768.2846153846,
              6636385.065286624
            ],
            [
              640778.7692307692,
              6636380.00477707
            ],
            [
              640789.6153846154,
              6636375.667197452
            ],
            [
              640801.1846153847,
              6636372.052547771
            ],
            [
              640812.7538461538,
              6636369.522292994
            ],
            [
              640824.323076923,
              6636367.714968153
            ],
            [
              640836.9769230769,
              6636366.6305732485
            ],
            [
              640849.9923076923,
              6636365.907643312
            ],
            [
              640862.2846153846,
              6636364.823248408
            ],
            [
              640872.7692307692,
              6636363.015923567
            ],
            [
              640882.1692307693,
              6636360.847133758
            ],
            [
              640890.1230769231,
              6636359.039808917
            ],
            [
              640897.3538461538,
              6636359.039808917
            ],
            [
              640903.1384615385,
              6636361.208598726
            ],
            [
              640908.5615384616,
              6636365.546178344
            ],
            [
              640912.5384615385,
              6636372.4140127385
            ],
            [
              640916.1538461539,
              6636378.558917197
            ],
            [
              640920.4923076923,
              6636382.173566879
            ],
            [
              640925.5538461539,
              6636384.342356688
            ],
            [
              640932.7846153846,
              6636385.065286624
            ],
            [
              640939.6538461539,
              6636383.6194267515
            ],
            [
              640946.5230769231,
              6636379.643312102
            ],
            [
              640952.3076923077,
              6636374.582802548
            ],
            [
              640957.0076923077,
              6636369.160828025
            ],
            [
              640961.7076923077,
              6636365.184713376
            ],
            [
              640966.7692307692,
              6636361.208598726
            ],
            [
              640971.8307692307,
              6636357.593949044
            ],
            [
              640977.2538461538,
              6636353.617834395
            ],
            [
              640980.8692307692,
              6636349.6417197455
            ],
            [
              640977.6153846154,
              6636346.388535032
            ],
            [
              640975.4461538461,
              6636342.050955414
            ],
            [
              640971.8307692307,
              6636344.2197452225
            ],
            [
              640965.323076923,
              6636347.111464968
            ],
            [
              640958.8153846153,
              6636349.6417197455
            ],
            [
              640952.3076923077,
              6636352.53343949
            ],
            [
              640946.1615384616,
              6636354.7022293
            ],
            [
              640939.6538461539,
              6636355.4251592355
            ],
            [
              640933.8692307692,
              6636354.7022293
            ],
            [
              640927.0,
              6636352.53343949
            ],
            [
              640919.0461538462,
              6636348.918789809
            ],
            [
              640910.7307692308,
              6636345.304140127
            ],
            [
              640902.4153846154,
              6636340.96656051
            ],
            [
              640894.4615384615,
              6636337.713375797
            ],
            [
              640886.5076923077,
              6636335.544585987
            ],
            [
              640877.8307692307,
              6636334.098726114
            ],
            [
              640868.0692307692,
              6636333.737261146
            ],
            [
              640857.9461538461,
              6636334.098726114
            ],
            [
              640847.823076923,
              6636335.544585987
            ],
            [
              640838.0615384616,
              6636337.351910828
            ],
            [
              640827.9384615384,
              6636339.520700637
            ],
            [
              640817.0923076923,
              6636342.412420382
            ],
            [
              640806.2461538462,
              6636345.304140127
            ],
            [
              640795.4,
              6636348.557324841
            ],
            [
              640784.5538461539,
              6636352.171974522
            ],
            [
              640773.7076923077,
              6636356.148089172
            ],
            [
              640762.8615384615,
              6636360.124203822
            ],
            [
              640752.7384615385,
              6636364.823248408
            ],
            [
              640742.6153846154,
              6636369.522292994
            ],
            [
              640733.2153846154,
              6636374.221337579
            ],
            [
              640724.9,
              6636379.281847133
            ],
            [
              640717.3076923077,
              6636383.980891719
            ],
            [
              640710.8,
              6636388.679936306
            ],
            [
              640704.6538461539,
              6636393.74044586
            ],
            [
              640700.676923077,
              6636399.162420382
            ],
            [
              640698.1461538462,
              6636403.138535032
            ],
            [
              640697.4230769231,
              6636407.114649681
            ]
          ]
        ]
      }
    },
    {
      "type": "Feature",
      "id": "upsala-mellan-4-fairway-2025",
      "properties": {
        "id": "upsala-mellan-4-fairway-2025",
        "hole": 4,
        "feature": "fairway",
        "decision": "recommended-adoption",
        "prov": "ortho-trace",
        "observedYear": 2025,
        "source": "Lantm\u00e4teriet Ortofoto 0.16 via advertised Uppsala public viewing WMS",
        "sourceCrs": "EPSG:3006",
        "nativeResolutionMetres": 0.16,
        "exportResolutionMetres": 0.25,
        "sourceAbsoluteHorizontalAccuracyMetres": null,
        "exactFlightDate": null,
        "method": "Manual interpretation of visible mowing boundary on georeferenced 2025 image, corroborated against 2024 context",
        "boundaryInterpretationUncertaintyMetres": 2.5,
        "confidence": "medium-high",
        "sourceFiles": [
          {
            "file": "lm2025_025m_r0_c1.png",
            "sha256": "472062ee1fb58cb587cb8ccb217d9f1c4513960bf8f8757048401a891980e3ab",
            "url": "https://kartportal.uppsala.se/proxy/0rt0?service=WMS&request=GetMap&version=1.1.1&srs=EPSG%3A3006&bbox=640143.5%2C6636145.5%2C641167.5%2C6637169.5&width=4096&height=4096&styles=&format=image%2Fpng&transparent=false&layers=Ortofoto_0.16",
            "extent": [
              640143.5,
              6636145.5,
              641167.5,
              6637169.5
            ]
          }
        ],
        "originalFairway": {
          "rings": [
            [
              [
                1115.5,
                -122.1
              ],
              [
                992.3,
                -139.7
              ],
              [
                870.2,
                -148.1
              ],
              [
                873.2,
                -120.9
              ],
              [
                996.6,
                -101.9
              ],
              [
                1118.9,
                -91.9
              ]
            ]
          ],
          "prov": "synth"
        },
        "originalPixelRings": [
          [
            [
              169,
              220
            ],
            [
              186,
              229
            ],
            [
              203,
              240
            ],
            [
              224,
              246
            ],
            [
              247,
              246
            ],
            [
              269,
              240
            ],
            [
              291,
              230
            ],
            [
              314,
              217
            ],
            [
              337,
              202
            ],
            [
              357,
              185
            ],
            [
              378,
              167
            ],
            [
              397,
              153
            ],
            [
              419,
              145
            ],
            [
              447,
              141
            ],
            [
              475,
              138
            ],
            [
              504,
              135
            ],
            [
              534,
              132
            ],
            [
              564,
              129
            ],
            [
              595,
              126
            ],
            [
              625,
              123
            ],
            [
              655,
              120
            ],
            [
              681,
              120
            ],
            [
              699,
              125
            ],
            [
              713,
              138
            ],
            [
              724,
              155
            ],
            [
              730,
              177
            ],
            [
              731,
              199
            ],
            [
              726,
              219
            ],
            [
              716,
              234
            ],
            [
              702,
              245
            ],
            [
              682,
              251
            ],
            [
              654,
              256
            ],
            [
              624,
              260
            ],
            [
              594,
              263
            ],
            [
              563,
              266
            ],
            [
              533,
              270
            ],
            [
              503,
              274
            ],
            [
              474,
              279
            ],
            [
              445,
              285
            ],
            [
              415,
              290
            ],
            [
              385,
              295
            ],
            [
              355,
              300
            ],
            [
              326,
              304
            ],
            [
              297,
              309
            ],
            [
              269,
              312
            ],
            [
              245,
              313
            ],
            [
              223,
              311
            ],
            [
              202,
              305
            ],
            [
              185,
              296
            ],
            [
              171,
              283
            ],
            [
              159,
              267
            ],
            [
              151,
              251
            ],
            [
              150,
              237
            ],
            [
              153,
              226
            ]
          ]
        ],
        "traceImageDimensions": [
          1300,
          407
        ],
        "cropExtent": [
          640648,
          6636213,
          641022,
          6636330
        ],
        "areaM2": 5368.15,
        "oldAreaM2": 8083.65,
        "oldNewIoU": 0.3405,
        "removedInferredAreaM2": 4666.98,
        "addedObservedAreaM2": 1951.48,
        "hausdorffDistanceFromOldMetres": 92.39,
        "overlapM2": {
          "water": 0.0,
          "bunkers": 0.0,
          "greens": 0.0
        },
        "topology": "One polygon; preserve independent green, bunker and water surface priority",
        "notes": "The synthetic corridor crosses the lake. The real fairway bends around its southern shore, beginning well beyond the tee complex.",
        "temporalReview": {
          "year": 2024,
          "decision": "overall footprint corroborated; 2025 mowing boundary controls current geometry",
          "sources": [
            {
              "file": "ortho2024_025m_ne.png",
              "sha256": "cd215bc90186b564d35c34d4972f71eaa0377c8f51142dccc8d19b793792b7b1",
              "url": "https://kartportal.uppsala.se/cacheimage/rest/services/ortofoto/Ortofoto_2024/MapServer/export?f=pjson&bbox=640143.5%2C6636145.5%2C641167.5%2C6637169.5&bboxSR=3006&imageSR=3006&size=4096%2C4096&format=png32&transparent=false",
              "extent": [
                640143.5,
                6636145.5,
                641167.5,
                6637169.5
              ],
              "nativeResolutionMetres": 0.08
            }
          ]
        }
      },
      "geometry": {
        "type": "Polygon",
        "coordinates": [
          [
            [
              640696.62,
              6636266.756756756
            ],
            [
              640701.5107692308,
              6636264.16953317
            ],
            [
              640706.4015384616,
              6636261.007371007
            ],
            [
              640712.443076923,
              6636259.282555282
            ],
            [
              640719.06,
              6636259.282555282
            ],
            [
              640725.3892307692,
              6636261.007371007
            ],
            [
              640731.7184615384,
              6636263.882063882
            ],
            [
              640738.3353846153,
              6636267.61916462
            ],
            [
              640744.9523076923,
              6636271.931203932
            ],
            [
              640750.7061538461,
              6636276.818181818
            ],
            [
              640756.7476923077,
              6636281.992628993
            ],
            [
              640762.2138461538,
              6636286.017199017
            ],
            [
              640768.5430769231,
              6636288.316953317
            ],
            [
              640776.5984615384,
              6636289.466830467
            ],
            [
              640784.6538461539,
              6636290.329238329
            ],
            [
              640792.9969230769,
              6636291.191646191
            ],
            [
              640801.6276923077,
              6636292.054054054
            ],
            [
              640810.2584615385,
              6636292.916461917
            ],
            [
              640819.176923077,
              6636293.778869779
            ],
            [
              640827.8076923077,
              6636294.641277641
            ],
            [
              640836.4384615384,
              6636295.503685503
            ],
            [
              640843.9184615385,
              6636295.503685503
            ],
            [
              640849.0969230769,
              6636294.066339066
            ],
            [
              640853.1246153846,
              6636290.329238329
            ],
            [
              640856.2892307693,
              6636285.442260442
            ],
            [
              640858.0153846154,
              6636279.117936118
            ],
            [
              640858.3030769231,
              6636272.793611794
            ],
            [
              640856.8646153846,
              6636267.044226044
            ],
            [
              640853.9876923077,
              6636262.732186732
            ],
            [
              640849.96,
              6636259.57002457
            ],
            [
              640844.2061538461,
              6636257.845208845
            ],
            [
              640836.1507692308,
              6636256.407862408
            ],
            [
              640827.52,
              6636255.257985258
            ],
            [
              640818.8892307692,
              6636254.395577395
            ],
            [
              640809.9707692307,
              6636253.533169533
            ],
            [
              640801.34,
              6636252.3832923835
            ],
            [
              640792.7092307692,
              6636251.233415233
            ],
            [
              640784.3661538461,
              6636249.796068796
            ],
            [
              640776.0230769231,
              6636248.071253072
            ],
            [
              640767.3923076923,
              6636246.633906634
            ],
            [
              640758.7615384615,
              6636245.196560197
            ],
            [
              640750.1307692308,
              6636243.75921376
            ],
            [
              640741.7876923077,
              6636242.609336609
            ],
            [
              640733.4446153846,
              6636241.171990172
            ],
            [
              640725.3892307692,
              6636240.30958231
            ],
            [
              640718.4846153846,
              6636240.022113022
            ],
            [
              640712.1553846154,
              6636240.597051597
            ],
            [
              640706.1138461538,
              6636242.321867322
            ],
            [
              640701.223076923,
              6636244.909090909
            ],
            [
              640697.1953846153,
              6636248.646191646
            ],
            [
              640693.7430769231,
              6636253.245700246
            ],
            [
              640691.4415384615,
              6636257.845208845
            ],
            [
              640691.1538461539,
              6636261.86977887
            ],
            [
              640692.0169230769,
              6636265.031941032
            ],
            [
              640696.62,
              6636266.756756756
            ]
          ]
        ]
      }
    },
    {
      "type": "Feature",
      "id": "upsala-mellan-6-fairway-2025",
      "properties": {
        "id": "upsala-mellan-6-fairway-2025",
        "hole": 6,
        "feature": "fairway",
        "decision": "recommended-adoption",
        "prov": "ortho-trace",
        "observedYear": 2025,
        "source": "Lantm\u00e4teriet Ortofoto 0.16 via advertised Uppsala public viewing WMS",
        "sourceCrs": "EPSG:3006",
        "nativeResolutionMetres": 0.16,
        "exportResolutionMetres": 0.25,
        "sourceAbsoluteHorizontalAccuracyMetres": null,
        "exactFlightDate": null,
        "method": "Manual interpretation of visible mowing boundary on georeferenced 2025 image, corroborated against 2024 context",
        "boundaryInterpretationUncertaintyMetres": 2.5,
        "confidence": "medium-high",
        "sourceFiles": [
          {
            "file": "lm2025_025m_r1_c1.png",
            "sha256": "61f45a853f39e6504d1830f40af3bbfa09ad609bbd21c756ac632257b8a365d5",
            "url": "https://kartportal.uppsala.se/proxy/0rt0?service=WMS&request=GetMap&version=1.1.1&srs=EPSG%3A3006&bbox=640143.5%2C6635121.5%2C641167.5%2C6636145.5&width=4096&height=4096&styles=&format=image%2Fpng&transparent=false&layers=Ortofoto_0.16",
            "extent": [
              640143.5,
              6635121.5,
              641167.5,
              6636145.5
            ]
          }
        ],
        "originalFairway": {
          "rings": [
            [
              [
                737.9,
                150.5
              ],
              [
                568.8,
                245.5
              ],
              [
                394.8,
                349.1
              ],
              [
                379.7,
                375.3
              ],
              [
                547.9,
                281.8
              ],
              [
                721.1,
                179.6
              ]
            ]
          ],
          "prov": "synth"
        },
        "originalPixelRings": [
          [
            [
              914,
              414
            ],
            [
              930,
              411
            ],
            [
              944,
              415
            ],
            [
              956,
              426
            ],
            [
              965,
              441
            ],
            [
              969,
              458
            ],
            [
              967,
              477
            ],
            [
              959,
              496
            ],
            [
              947,
              514
            ],
            [
              934,
              532
            ],
            [
              920,
              551
            ],
            [
              907,
              570
            ],
            [
              894,
              589
            ],
            [
              879,
              608
            ],
            [
              862,
              625
            ],
            [
              844,
              640
            ],
            [
              825,
              653
            ],
            [
              804,
              665
            ],
            [
              781,
              677
            ],
            [
              759,
              686
            ],
            [
              735,
              693
            ],
            [
              711,
              698
            ],
            [
              686,
              700
            ],
            [
              661,
              701
            ],
            [
              636,
              700
            ],
            [
              612,
              699
            ],
            [
              590,
              699
            ],
            [
              574,
              691
            ],
            [
              562,
              679
            ],
            [
              548,
              672
            ],
            [
              532,
              670
            ],
            [
              519,
              675
            ],
            [
              510,
              685
            ],
            [
              503,
              700
            ],
            [
              498,
              716
            ],
            [
              492,
              732
            ],
            [
              481,
              749
            ],
            [
              466,
              761
            ],
            [
              447,
              769
            ],
            [
              424,
              777
            ],
            [
              398,
              784
            ],
            [
              373,
              790
            ],
            [
              350,
              794
            ],
            [
              329,
              795
            ],
            [
              312,
              791
            ],
            [
              299,
              782
            ],
            [
              290,
              768
            ],
            [
              287,
              753
            ],
            [
              289,
              739
            ],
            [
              296,
              726
            ],
            [
              306,
              714
            ],
            [
              321,
              704
            ],
            [
              337,
              698
            ],
            [
              356,
              694
            ],
            [
              377,
              689
            ],
            [
              397,
              682
            ],
            [
              417,
              672
            ],
            [
              438,
              658
            ],
            [
              459,
              644
            ],
            [
              480,
              631
            ],
            [
              501,
              620
            ],
            [
              521,
              610
            ],
            [
              538,
              604
            ],
            [
              552,
              604
            ],
            [
              568,
              611
            ],
            [
              586,
              622
            ],
            [
              605,
              632
            ],
            [
              626,
              639
            ],
            [
              648,
              643
            ],
            [
              672,
              645
            ],
            [
              698,
              645
            ],
            [
              722,
              642
            ],
            [
              743,
              636
            ],
            [
              759,
              627
            ],
            [
              768,
              613
            ],
            [
              775,
              596
            ],
            [
              778,
              578
            ],
            [
              778,
              560
            ],
            [
              782,
              543
            ],
            [
              792,
              528
            ],
            [
              808,
              513
            ],
            [
              825,
              500
            ],
            [
              842,
              484
            ],
            [
              858,
              468
            ],
            [
              876,
              451
            ],
            [
              892,
              435
            ],
            [
              905,
              423
            ]
          ]
        ],
        "traceImageDimensions": [
          1300,
          917
        ],
        "cropExtent": [
          640189,
          6635718,
          640637,
          6636034
        ],
        "areaM2": 7716.0,
        "oldAreaM2": 7333.39,
        "oldNewIoU": 0.0,
        "removedInferredAreaM2": 7333.39,
        "addedObservedAreaM2": 7716.0,
        "hausdorffDistanceFromOldMetres": 117.72,
        "overlapM2": {
          "water": 0.0,
          "bunkers": 0.0,
          "greens": 0.0
        },
        "topology": "One polygon; preserve independent green, bunker and water surface priority",
        "notes": "The synthetic endpoint strip cuts directly through woodland, while the observed fairway follows the pronounced dogleg. The fairway ends before the drainage channel/cart path separating it from green 6.",
        "temporalReview": {
          "year": 2024,
          "decision": "overall footprint corroborated; 2025 mowing boundary controls current geometry",
          "sources": [
            {
              "file": "ortho2024_025m_se.png",
              "sha256": "0c5a93d078d592ed8bad3f9237fd53866416172db9e9063feaf6a7332d9301d1",
              "url": "https://kartportal.uppsala.se/cacheimage/rest/services/ortofoto/Ortofoto_2024/MapServer/export?f=pjson&bbox=640143.5%2C6635121.5%2C641167.5%2C6636145.5&bboxSR=3006&imageSR=3006&size=4096%2C4096&format=png32&transparent=false",
              "extent": [
                640143.5,
                6635121.5,
                641167.5,
                6636145.5
              ],
              "nativeResolutionMetres": 0.08
            }
          ],
          "note": "A narrow pale strip inside the northeastern fairway lobe is visible in 2024 but absent from 2025; do not add it as an active bunker."
        }
      },
      "geometry": {
        "type": "Polygon",
        "coordinates": [
          [
            [
              640503.9784615384,
              6635891.33478735
            ],
            [
              640509.4923076923,
              6635892.368593239
            ],
            [
              640514.3169230769,
              6635890.990185387
            ],
            [
              640518.4523076923,
              6635887.199563795
            ],
            [
              640521.5538461539,
              6635882.030534351
            ],
            [
              640522.9323076924,
              6635876.172300981
            ],
            [
              640522.2430769231,
              6635869.624863686
            ],
            [
              640519.4861538461,
              6635863.077426391
            ],
            [
              640515.3507692307,
              6635856.874591058
            ],
            [
              640510.8707692308,
              6635850.6717557255
            ],
            [
              640506.0461538462,
              6635844.124318429
            ],
            [
              640501.5661538461,
              6635837.576881134
            ],
            [
              640497.0861538461,
              6635831.029443839
            ],
            [
              640491.916923077,
              6635824.482006543
            ],
            [
              640486.0584615385,
              6635818.623773173
            ],
            [
              640479.8553846154,
              6635813.45474373
            ],
            [
              640473.3076923077,
              6635808.974918212
            ],
            [
              640466.0707692307,
              6635804.839694656
            ],
            [
              640458.1446153846,
              6635800.704471101
            ],
            [
              640450.563076923,
              6635797.603053435
            ],
            [
              640442.2923076923,
              6635795.190839695
            ],
            [
              640434.0215384616,
              6635793.46782988
            ],
            [
              640425.4061538462,
              6635792.778625954
            ],
            [
              640416.7907692308,
              6635792.434023991
            ],
            [
              640408.1753846154,
              6635792.778625954
            ],
            [
              640399.9046153846,
              6635793.123227917
            ],
            [
              640392.323076923,
              6635793.123227917
            ],
            [
              640386.8092307693,
              6635795.88004362
            ],
            [
              640382.6738461539,
              6635800.015267176
            ],
            [
              640377.8492307692,
              6635802.4274809165
            ],
            [
              640372.3353846153,
              6635803.116684842
            ],
            [
              640367.8553846154,
              6635801.393675027
            ],
            [
              640364.7538461538,
              6635797.947655398
            ],
            [
              640362.3415384615,
              6635792.778625954
            ],
            [
              640360.6184615385,
              6635787.264994548
            ],
            [
              640358.5507692308,
              6635781.7513631405
            ],
            [
              640354.76,
              6635775.893129771
            ],
            [
              640349.5907692307,
              6635771.757906216
            ],
            [
              640343.0430769231,
              6635769.001090513
            ],
            [
              640335.1169230769,
              6635766.244274809
            ],
            [
              640326.156923077,
              6635763.832061069
            ],
            [
              640317.5415384616,
              6635761.764449291
            ],
            [
              640309.6153846154,
              6635760.386041439
            ],
            [
              640302.3784615385,
              6635760.041439476
            ],
            [
              640296.52,
              6635761.419847328
            ],
            [
              640292.04,
              6635764.5212649945
            ],
            [
              640288.9384615384,
              6635769.345692475
            ],
            [
              640287.9046153846,
              6635774.514721919
            ],
            [
              640288.5938461538,
              6635779.339149401
            ],
            [
              640291.0061538462,
              6635783.818974918
            ],
            [
              640294.4523076923,
              6635787.954198473
            ],
            [
              640299.6215384615,
              6635791.400218102
            ],
            [
              640305.1353846154,
              6635793.46782988
            ],
            [
              640311.6830769231,
              6635794.846237732
            ],
            [
              640318.92,
              6635796.569247547
            ],
            [
              640325.8123076924,
              6635798.981461287
            ],
            [
              640332.7046153846,
              6635802.4274809165
            ],
            [
              640339.9415384615,
              6635807.251908397
            ],
            [
              640347.1784615385,
              6635812.076335878
            ],
            [
              640354.4153846154,
              6635816.556161396
            ],
            [
              640361.6523076923,
              6635820.346782988
            ],
            [
              640368.5446153847,
              6635823.792802617
            ],
            [
              640374.4030769231,
              6635825.860414395
            ],
            [
              640379.2276923077,
              6635825.860414395
            ],
            [
              640384.7415384615,
              6635823.448200654
            ],
            [
              640390.9446153846,
              6635819.6575790625
            ],
            [
              640397.4923076923,
              6635816.211559433
            ],
            [
              640404.7292307692,
              6635813.799345693
            ],
            [
              640412.3107692308,
              6635812.420937841
            ],
            [
              640420.5815384615,
              6635811.731733915
            ],
            [
              640429.5415384616,
              6635811.731733915
            ],
            [
              640437.8123076924,
              6635812.765539804
            ],
            [
              640445.0492307693,
              6635814.833151582
            ],
            [
              640450.563076923,
              6635817.934569248
            ],
            [
              640453.6646153847,
              6635822.758996729
            ],
            [
              640456.0769230769,
              6635828.617230098
            ],
            [
              640457.1107692308,
              6635834.82006543
            ],
            [
              640457.1107692308,
              6635841.022900763
            ],
            [
              640458.4892307692,
              6635846.881134133
            ],
            [
              640461.9353846154,
              6635852.050163577
            ],
            [
              640467.4492307692,
              6635857.219193021
            ],
            [
              640473.3076923077,
              6635861.699018539
            ],
            [
              640479.1661538462,
              6635867.212649945
            ],
            [
              640484.68,
              6635872.726281352
            ],
            [
              640490.8830769231,
              6635878.584514722
            ],
            [
              640496.396923077,
              6635884.0981461285
            ],
            [
              640500.8769230769,
              6635888.233369684
            ],
            [
              640503.9784615384,
              6635891.33478735
            ]
          ]
        ]
      }
    },
    {
      "type": "Feature",
      "id": "upsala-mellan-8-fairway-2025",
      "properties": {
        "id": "upsala-mellan-8-fairway-2025",
        "hole": 8,
        "feature": "fairway",
        "decision": "recommended-adoption",
        "prov": "ortho-trace",
        "observedYear": 2025,
        "source": "Lantm\u00e4teriet Ortofoto 0.16 via advertised Uppsala public viewing WMS",
        "sourceCrs": "EPSG:3006",
        "nativeResolutionMetres": 0.16,
        "exportResolutionMetres": 0.25,
        "sourceAbsoluteHorizontalAccuracyMetres": null,
        "exactFlightDate": null,
        "method": "Manual interpretation of visible mowing boundary on georeferenced 2025 image, corroborated against 2024 context",
        "boundaryInterpretationUncertaintyMetres": 2.5,
        "confidence": "medium-high",
        "sourceFiles": [
          {
            "file": "lm2025_025m_r0_c1.png",
            "sha256": "472062ee1fb58cb587cb8ccb217d9f1c4513960bf8f8757048401a891980e3ab",
            "url": "https://kartportal.uppsala.se/proxy/0rt0?service=WMS&request=GetMap&version=1.1.1&srs=EPSG%3A3006&bbox=640143.5%2C6636145.5%2C641167.5%2C6637169.5&width=4096&height=4096&styles=&format=image%2Fpng&transparent=false&layers=Ortofoto_0.16",
            "extent": [
              640143.5,
              6636145.5,
              641167.5,
              6637169.5
            ]
          },
          {
            "file": "lm2025_025m_r1_c1.png",
            "sha256": "61f45a853f39e6504d1830f40af3bbfa09ad609bbd21c756ac632257b8a365d5",
            "url": "https://kartportal.uppsala.se/proxy/0rt0?service=WMS&request=GetMap&version=1.1.1&srs=EPSG%3A3006&bbox=640143.5%2C6635121.5%2C641167.5%2C6636145.5&width=4096&height=4096&styles=&format=image%2Fpng&transparent=false&layers=Ortofoto_0.16",
            "extent": [
              640143.5,
              6635121.5,
              641167.5,
              6636145.5
            ]
          }
        ],
        "originalFairway": {
          "rings": [
            [
              [
                504,
                141.8
              ],
              [
                549.4,
                13
              ],
              [
                603.4,
                -118.9
              ],
              [
                629,
                -128.6
              ],
              [
                585,
                -0.4
              ],
              [
                532.4,
                131
              ]
            ]
          ],
          "prov": "synth"
        },
        "originalPixelRings": [
          [
            [
              146,
              319
            ],
            [
              154,
              329
            ],
            [
              164,
              339
            ],
            [
              175,
              349
            ],
            [
              171,
              368
            ],
            [
              162,
              391
            ],
            [
              153,
              414
            ],
            [
              144,
              439
            ],
            [
              134,
              464
            ],
            [
              123,
              489
            ],
            [
              112,
              514
            ],
            [
              101,
              539
            ],
            [
              95,
              558
            ],
            [
              91,
              578
            ],
            [
              93,
              599
            ],
            [
              98,
              620
            ],
            [
              106,
              643
            ],
            [
              113,
              663
            ],
            [
              118,
              679
            ],
            [
              116,
              693
            ],
            [
              108,
              705
            ],
            [
              98,
              713
            ],
            [
              85,
              716
            ],
            [
              74,
              715
            ],
            [
              62,
              710
            ],
            [
              54,
              701
            ],
            [
              49,
              685
            ],
            [
              46,
              666
            ],
            [
              42,
              646
            ],
            [
              36,
              627
            ],
            [
              27,
              609
            ],
            [
              18,
              591
            ],
            [
              11,
              572
            ],
            [
              9,
              551
            ],
            [
              12,
              529
            ],
            [
              18,
              506
            ],
            [
              26,
              483
            ],
            [
              35,
              460
            ],
            [
              44,
              438
            ],
            [
              54,
              417
            ],
            [
              65,
              396
            ],
            [
              77,
              377
            ],
            [
              90,
              360
            ],
            [
              105,
              344
            ],
            [
              120,
              331
            ],
            [
              135,
              322
            ]
          ],
          [
            [
              151,
              290
            ],
            [
              165,
              274
            ],
            [
              182,
              258
            ],
            [
              200,
              242
            ],
            [
              220,
              226
            ],
            [
              242,
              212
            ],
            [
              266,
              200
            ],
            [
              288,
              192
            ],
            [
              310,
              185
            ],
            [
              329,
              178
            ],
            [
              342,
              177
            ],
            [
              355,
              180
            ],
            [
              364,
              188
            ],
            [
              369,
              201
            ],
            [
              369,
              215
            ],
            [
              364,
              231
            ],
            [
              355,
              243
            ],
            [
              341,
              253
            ],
            [
              324,
              263
            ],
            [
              305,
              271
            ],
            [
              284,
              279
            ],
            [
              262,
              290
            ],
            [
              240,
              301
            ],
            [
              220,
              313
            ],
            [
              201,
              325
            ],
            [
              183,
              337
            ],
            [
              172,
              328
            ],
            [
              162,
              318
            ],
            [
              153,
              307
            ],
            [
              148,
              299
            ]
          ]
        ],
        "traceImageDimensions": [
          488,
          1000
        ],
        "cropExtent": [
          640305,
          6635922,
          640490,
          6636301
        ],
        "areaM2": 6930.9,
        "oldAreaM2": 7004.82,
        "oldNewIoU": 0.0622,
        "removedInferredAreaM2": 6188.79,
        "addedObservedAreaM2": 6114.87,
        "hausdorffDistanceFromOldMetres": 62.27,
        "overlapM2": {
          "water": 0.0,
          "bunkers": 0.0,
          "greens": 0.0
        },
        "topology": "Two disjoint polygons at the cart-path crossing; no fairway added across the ditch before the green",
        "notes": "The synthetic endpoint strip lies on the wooded hill east of the fairway. The actual mowing footprint bends beside the lake and is divided by a cart path. The separate short-grass apron north of the ditch is not classified as fairway.",
        "temporalReview": {
          "year": 2024,
          "decision": "overall footprint corroborated; 2025 mowing boundary controls current geometry",
          "sources": [
            {
              "file": "ortho2024_025m_ne.png",
              "sha256": "cd215bc90186b564d35c34d4972f71eaa0377c8f51142dccc8d19b793792b7b1",
              "url": "https://kartportal.uppsala.se/cacheimage/rest/services/ortofoto/Ortofoto_2024/MapServer/export?f=pjson&bbox=640143.5%2C6636145.5%2C641167.5%2C6637169.5&bboxSR=3006&imageSR=3006&size=4096%2C4096&format=png32&transparent=false",
              "extent": [
                640143.5,
                6636145.5,
                641167.5,
                6637169.5
              ],
              "nativeResolutionMetres": 0.08
            },
            {
              "file": "ortho2024_025m_se.png",
              "sha256": "0c5a93d078d592ed8bad3f9237fd53866416172db9e9063feaf6a7332d9301d1",
              "url": "https://kartportal.uppsala.se/cacheimage/rest/services/ortofoto/Ortofoto_2024/MapServer/export?f=pjson&bbox=640143.5%2C6635121.5%2C641167.5%2C6636145.5&bboxSR=3006&imageSR=3006&size=4096%2C4096&format=png32&transparent=false",
              "extent": [
                640143.5,
                6635121.5,
                641167.5,
                6636145.5
              ],
              "nativeResolutionMetres": 0.08
            }
          ]
        }
      },
      "geometry": {
        "type": "MultiPolygon",
        "coordinates": [
          [
            [
              [
                640360.3483606557,
                6636180.099
              ],
              [
                640363.381147541,
                6636176.309
              ],
              [
                640367.1721311476,
                6636172.519
              ],
              [
                640371.3422131147,
                6636168.729
              ],
              [
                640369.8258196721,
                6636161.528
              ],
              [
                640366.4139344263,
                6636152.811
              ],
              [
                640363.0020491803,
                6636144.094
              ],
              [
                640359.5901639344,
                6636134.619
              ],
              [
                640355.7991803279,
                6636125.144
              ],
              [
                640351.6290983607,
                6636115.669
              ],
              [
                640347.4590163934,
                6636106.194
              ],
              [
                640343.2889344263,
                6636096.719
              ],
              [
                640341.0143442623,
                6636089.518
              ],
              [
                640339.4979508197,
                6636081.938
              ],
              [
                640340.256147541,
                6636073.979
              ],
              [
                640342.1516393443,
                6636066.02
              ],
              [
                640345.1844262296,
                6636057.303
              ],
              [
                640347.8381147541,
                6636049.723
              ],
              [
                640349.7336065574,
                6636043.659
              ],
              [
                640348.975409836,
                6636038.353
              ],
              [
                640345.9426229508,
                6636033.805
              ],
              [
                640342.1516393443,
                6636030.773
              ],
              [
                640337.2233606557,
                6636029.636
              ],
              [
                640333.0532786886,
                6636030.015
              ],
              [
                640328.5040983607,
                6636031.91
              ],
              [
                640325.4713114754,
                6636035.321
              ],
              [
                640323.5758196721,
                6636041.385
              ],
              [
                640322.4385245901,
                6636048.586
              ],
              [
                640320.9221311476,
                6636056.166
              ],
              [
                640318.6475409836,
                6636063.367
              ],
              [
                640315.2356557377,
                6636070.189
              ],
              [
                640311.8237704918,
                6636077.011
              ],
              [
                640309.1700819673,
                6636084.212
              ],
              [
                640308.4118852459,
                6636092.171
              ],
              [
                640309.5491803279,
                6636100.509
              ],
              [
                640311.8237704918,
                6636109.226
              ],
              [
                640314.856557377,
                6636117.943
              ],
              [
                640318.268442623,
                6636126.66
              ],
              [
                640321.6803278689,
                6636134.998
              ],
              [
                640325.4713114754,
                6636142.957
              ],
              [
                640329.6413934426,
                6636150.916
              ],
              [
                640334.1905737704,
                6636158.117
              ],
              [
                640339.118852459,
                6636164.56
              ],
              [
                640344.8053278689,
                6636170.624
              ],
              [
                640350.4918032787,
                6636175.551
              ],
              [
                640356.1782786886,
                6636178.962
              ],
              [
                640360.3483606557,
                6636180.099
              ]
            ]
          ],
          [
            [
              [
                640362.243852459,
                6636191.09
              ],
              [
                640367.5512295082,
                6636197.154
              ],
              [
                640373.9959016393,
                6636203.218
              ],
              [
                640380.8196721311,
                6636209.282
              ],
              [
                640388.4016393443,
                6636215.346
              ],
              [
                640396.7418032787,
                6636220.652
              ],
              [
                640405.8401639344,
                6636225.2
              ],
              [
                640414.1803278689,
                6636228.232
              ],
              [
                640422.5204918033,
                6636230.885
              ],
              [
                640429.7233606557,
                6636233.538
              ],
              [
                640434.6516393443,
                6636233.917
              ],
              [
                640439.5799180327,
                6636232.78
              ],
              [
                640442.9918032787,
                6636229.748
              ],
              [
                640444.887295082,
                6636224.821
              ],
              [
                640444.887295082,
                6636219.515
              ],
              [
                640442.9918032787,
                6636213.451
              ],
              [
                640439.5799180327,
                6636208.903
              ],
              [
                640434.2725409836,
                6636205.113
              ],
              [
                640427.8278688524,
                6636201.323
              ],
              [
                640420.625,
                6636198.291
              ],
              [
                640412.6639344263,
                6636195.259
              ],
              [
                640404.3237704918,
                6636191.09
              ],
              [
                640395.9836065574,
                6636186.921
              ],
              [
                640388.4016393443,
                6636182.373
              ],
              [
                640381.1987704918,
                6636177.825
              ],
              [
                640374.375,
                6636173.277
              ],
              [
                640370.2049180327,
                6636176.688
              ],
              [
                640366.4139344263,
                6636180.478
              ],
              [
                640363.0020491803,
                6636184.647
              ],
              [
                640361.106557377,
                6636187.679
              ],
              [
                640362.243852459,
                6636191.09
              ]
            ]
          ]
        ]
      }
    }
  ]
}