{
  "type": "FeatureCollection",
  "name": "Ribbingsfors Golf & Kultur ? OSM course boundary reference",
  "bbox": [
    14.1076902,
    58.9569687,
    14.1258203,
    58.9650786
  ],
  "coordinateReferenceSystem": {
    "geometry": "OGC:CRS84 (longitude, latitude), per RFC 7946",
    "projectedProperty": "EPSG:3006 (easting, northing)"
  },
  "provenance": {
    "sourceId": "osm-way-779352687-v1",
    "provider": "OpenStreetMap contributors",
    "sourceUri": "https://api.openstreetmap.org/api/0.6/way/779352687/full.json",
    "sourceElement": {
      "type": "way",
      "id": 779352687,
      "version": 1,
      "changeset": 81929101,
      "timestamp": "2020-03-08T17:29:55Z"
    },
    "fetchedAt": "2026-09-04T10:53:32.818Z",
    "rawSnapshot": {
      "mediaType": "application/json",
      "bytes": 10134,
      "sha256": "3bf3bf86f3644860fdd496bbf1a1edc7dbfca765c0a10d50666d211064cc9563"
    },
    "licence": {
      "id": "ODbL-1.0",
      "name": "Open Data Commons Open Database License 1.0",
      "url": "https://opendatacommons.org/licenses/odbl/1-0/",
      "attribution": "? OpenStreetMap contributors",
      "attributionUrl": "https://www.openstreetmap.org/copyright"
    },
    "authorityTier": "D",
    "intendedUse": "supplemental context and coarse course-extent evidence only",
    "limitations": [
      "The way has only leisure=golf_course and does not encode tees, greens, fairways, bunkers or routing.",
      "The geometry is community-contributed, has no stated survey accuracy and is not canonical control."
    ]
  },
  "selection": {
    "lod0EnvelopeEpsg3006": [
      447951.5,
      6535000.5,
      449999.5,
      6537048.5
    ],
    "relationshipToEnvelope": "the complete source way is contained by the provisional LOD0 envelope"
  },
  "features": [
    {
      "type": "Feature",
      "id": "osm-way-779352687",
      "properties": {
        "groundId": "ribbingsfors",
        "sourceId": "osm-way-779352687-v1",
        "osmType": "way",
        "osmId": 779352687,
        "osmVersion": 1,
        "osmChangeset": 81929101,
        "osmTimestamp": "2020-03-08T17:29:55Z",
        "tags": {
          "leisure": "golf_course"
        },
        "distinctNodeCount": 56,
        "areaMetresSquaredEpsg3006": 341924.624,
        "centroidEpsg3006": [
          449322.45,
          6536055.937
        ],
        "bboxEpsg3006": [
          448675.018,
          6535593.857,
          449718.139,
          6536497.055
        ],
        "geometryEpsg3006": {
          "type": "Polygon",
          "crs": "EPSG:3006",
          "axisOrder": [
            "easting",
            "northing"
          ],
          "coordinates": [
            [
              [
                448766.249,
                6535919.733
              ],
              [
                448811.038,
                6535864.836
              ],
              [
                448798.718,
                6535820.02
              ],
              [
                448839.372,
                6535813.933
              ],
              [
                448991.93,
                6535829.101
              ],
              [
                449058.947,
                6535902.76
              ],
              [
                449145.943,
                6535900.985
              ],
              [
                449175.152,
                6535916
              ],
              [
                449219.388,
                6535900.638
              ],
              [
                449279.006,
                6535928.806
              ],
              [
                449275.363,
                6536026.809
              ],
              [
                449388.184,
                6536064.745
              ],
              [
                449527.926,
                6536084.468
              ],
              [
                449467.998,
                6535891.818
              ],
              [
                449429.134,
                6535940.382
              ],
              [
                449352.645,
                6535943.237
              ],
              [
                449356.543,
                6535911.146
              ],
              [
                449325.352,
                6535886.3
              ],
              [
                449354.891,
                6535832.924
              ],
              [
                449353.246,
                6535754.702
              ],
              [
                449372.489,
                6535716.252
              ],
              [
                449373.441,
                6535647.851
              ],
              [
                449356.064,
                6535593.857
              ],
              [
                449463.549,
                6535600.45
              ],
              [
                449483.06,
                6535675.977
              ],
              [
                449502.279,
                6535729.334
              ],
              [
                449551.924,
                6535702.802
              ],
              [
                449626.326,
                6535775.761
              ],
              [
                449675.331,
                6535747.39
              ],
              [
                449718.139,
                6535858.349
              ],
              [
                449659.461,
                6535902.236
              ],
              [
                449629.937,
                6535862.588
              ],
              [
                449586.218,
                6535870.544
              ],
              [
                449616.127,
                6535986.593
              ],
              [
                449637.54,
                6536113.222
              ],
              [
                449585.566,
                6536103.435
              ],
              [
                449594.249,
                6536200.652
              ],
              [
                449665.763,
                6536242.222
              ],
              [
                449691.753,
                6536341.675
              ],
              [
                449650.735,
                6536461.103
              ],
              [
                449530.812,
                6536445.425
              ],
              [
                449351.915,
                6536497.055
              ],
              [
                449309.08,
                6536431.091
              ],
              [
                449283.433,
                6536404.947
              ],
              [
                449248.077,
                6536344.431
              ],
              [
                449241.232,
                6536293.383
              ],
              [
                449327.323,
                6536176.442
              ],
              [
                449290.512,
                6536146.124
              ],
              [
                449349.449,
                6536075.734
              ],
              [
                449265.878,
                6536056.501
              ],
              [
                449057.922,
                6536058.637
              ],
              [
                448788.646,
                6536044.351
              ],
              [
                448742.608,
                6536062.827
              ],
              [
                448721.87,
                6535988.557
              ],
              [
                448675.018,
                6535846.926
              ],
              [
                448721.565,
                6535827.151
              ],
              [
                448766.249,
                6535919.733
              ]
            ]
          ]
        },
        "authorityTier": "D",
        "use": "reference-only"
      },
      "geometry": {
        "type": "Polygon",
        "coordinates": [
          [
            [
              14.1092592,
              58.9598248
            ],
            [
              14.1100505,
              58.9593372
            ],
            [
              14.1098467,
              58.9589333
            ],
            [
              14.1105548,
              58.9588835
            ],
            [
              14.1132032,
              58.9590379
            ],
            [
              14.1143512,
              58.9597073
            ],
            [
              14.1158639,
              58.9597017
            ],
            [
              14.1163682,
              58.95984
            ],
            [
              14.1171407,
              58.9597073
            ],
            [
              14.1181706,
              58.9599673
            ],
            [
              14.1180848,
              58.9608469
            ],
            [
              14.1200374,
              58.9612009
            ],
            [
              14.1224622,
              58.9613945
            ],
            [
              14.1214644,
              58.9596575
            ],
            [
              14.1207777,
              58.960089
            ],
            [
              14.1194474,
              58.9601056
            ],
            [
              14.1195225,
              58.9598179
            ],
            [
              14.118986,
              58.9595911
            ],
            [
              14.1195117,
              58.9591153
            ],
            [
              14.119501,
              58.9584127
            ],
            [
              14.1198443,
              58.9580697
            ],
            [
              14.1198765,
              58.9574556
            ],
            [
              14.1195868,
              58.9569687
            ],
            [
              14.1214536,
              58.9570406
            ],
            [
              14.1217755,
              58.9577211
            ],
            [
              14.1220974,
              58.9582025
            ],
            [
              14.1229664,
              58.9579701
            ],
            [
              14.1242431,
              58.958634
            ],
            [
              14.1251014,
              58.958385
            ],
            [
              14.1258203,
              58.9593864
            ],
            [
              14.1247903,
              58.9597736
            ],
            [
              14.1242861,
              58.9594141
            ],
            [
              14.1235243,
              58.9594804
            ],
            [
              14.1240178,
              58.960526
            ],
            [
              14.1243612,
              58.9616656
            ],
            [
              14.1234599,
              58.9615716
            ],
            [
              14.1235887,
              58.9624456
            ],
            [
              14.1248225,
              58.9628273
            ],
            [
              14.1252517,
              58.9637234
            ],
            [
              14.1245114,
              58.964791
            ],
            [
              14.12243,
              58.9646361
            ],
            [
              14.1193079,
              58.9650786
            ],
            [
              14.1185783,
              58.9644812
            ],
            [
              14.1181384,
              58.9642434
            ],
            [
              14.1175376,
              58.9636958
            ],
            [
              14.1174303,
              58.9632366
            ],
            [
              14.1189538,
              58.9621967
            ],
            [
              14.1183208,
              58.9619201
            ],
            [
              14.1193615,
              58.961295
            ],
            [
              14.1179131,
              58.9611124
            ],
            [
              14.1142975,
              58.9611069
            ],
            [
              14.1096197,
              58.9609465
            ],
            [
              14.1088151,
              58.9611069
            ],
            [
              14.1084718,
              58.9604375
            ],
            [
              14.1076902,
              58.9591601
            ],
            [
              14.1085039,
              58.9589881
            ],
            [
              14.1092592,
              58.9598248
            ]
          ]
        ]
      }
    }
  ]
}


