{
  "type": "FeatureCollection",
  "crs": {
    "type": "name",
    "properties": {
      "name": "EPSG:3006"
    }
  },
  "features": [
    {
      "type": "Feature",
      "geometry": {
        "type": "Polygon",
        "coordinates": [
          [
            [
              683354.1952504661,
              7023731.690895086
            ],
            [
              683357.0034066369,
              7023732.81042508
            ],
            [
              683359.909976507,
              7023733.641653134
            ],
            [
              683362.8854451881,
              7023734.176138507
            ],
            [
              683365.8995981567,
              7023734.408453745
            ],
            [
              683368.9218280672,
              7023734.3362397915
            ],
            [
              683371.9214455568,
              7023733.960229948
            ],
            [
              683372.4988132416,
              7023733.827771998
            ],
            [
              683375.8128838913,
              7023733.825827081
            ],
            [
              683379.2308837308,
              7023733.487157995
            ],
            [
              683382.5992295915,
              7023732.815097122
            ],
            [
              683383.4456792653,
              7023732.5577868605
            ],
            [
              683405.773,
              7023733.35
            ],
            [
              683538.878,
              7023770.545
            ],
            [
              683580.188,
              7023752.146
            ],
            [
              683595.8742216637,
              7023746.932476968
            ],
            [
              683596.2144888525,
              7023746.95356299
            ],
            [
              683599.0674201488,
              7023746.994414633
            ],
            [
              683601.9113293521,
              7023746.764053437
            ],
            [
              683604.7204920846,
              7023746.264563117
            ],
            [
              683607.4694982653,
              7023745.500461778
            ],
            [
              683609.7214982654,
              7023744.757461778
            ],
            [
              683612.7002775423,
              7023743.595243642
            ],
            [
              683615.5384412787,
              7023742.122591755
            ],
            [
              683617.6674412787,
              7023740.869591755
            ],
            [
              683619.6785963706,
              7023739.575332312
            ],
            [
              683620.7887660499,
              7023738.728635923
            ],
            [
              683628.66018907,
              7023738.731997265
            ],
            [
              683632.2115707984,
              7023738.52257765
            ],
            [
              683635.7131916942,
              7023737.894230725
            ],
            [
              683644.4781916942,
              7023735.778230726
            ],
            [
              683647.2267591596,
              7023734.974071058
            ],
            [
              683649.8861260581,
              7023733.911497022
            ],
            [
              683652.432058773,
              7023732.600191377
            ],
            [
              683660.2910587731,
              7023728.065191377
            ],
            [
              683662.685270535,
              7023726.527841264
            ],
            [
              683664.9230710295,
              7023724.770586509
            ],
            [
              683666.1947892966,
              7023723.560507166
            ],
            [
              683675.48300014,
              7023720.473447567
            ],
            [
              683688.7293037154,
              7023717.313980064
            ],
            [
              683692.3875409033,
              7023716.227549334
            ],
            [
              683695.9057525753,
              7023714.749301153
            ],
            [
              683699.2421135674,
              7023712.896809214
            ],
            [
              683700.0944815645,
              7023712.293496523
            ],
            [
              683837.888,
              7023666.496
            ],
            [
              683849.8955175865,
              7023602.714698783
            ],
            [
              683851.2633800299,
              7023601.822529712
            ],
            [
              683868.1503800299,
              7023589.569529711
            ],
            [
              683870.4657092686,
              7023587.7077956
            ],
            [
              683872.5855374715,
              7023585.626178015
            ],
            [
              683874.4890742975,
              7023583.3450925425
            ],
            [
              683876.1576506963,
              7023580.886911063
            ],
            [
              683877.5749020061,
              7023578.27574234
            ],
            [
              683878.7269284505,
              7023575.537195562
            ],
            [
              683879.6024314617,
              7023572.698129191
            ],
            [
              683880.1928244921,
              7023569.786387539
            ],
            [
              683880.20687214,
              7023569.647743512
            ],
            [
              683892.6179605908,
              7023559.80509629
            ],
            [
              683895.2011716935,
              7023557.541373681
            ],
            [
              683897.5500603121,
              7023555.0353525495
            ],
            [
              683899.6420053651,
              7023552.31116725
            ],
            [
              683901.456860278,
              7023549.395053175
            ],
            [
              683902.9771470061,
              7023546.3150940975
            ],
            [
              683904.1882243569,
              7023543.100951708
            ],
            [
              683905.0784289935,
              7023539.783579953
            ],
            [
              683905.6391877587,
              7023536.394926937
            ],
            [
              683905.8651002389,
              7023532.967627242
            ],
            [
              683905.8562480432,
              7023532.694121714
            ],
            [
              683905.9973834343,
              7023531.377228857
            ],
            [
              683906.0543834344,
              7023530.377228857
            ],
            [
              683906.0774563015,
              7023527.432272474
            ],
            [
              683905.8116653182,
              7023524.499244072
            ],
            [
              683905.2806670709,
              7023521.716942734
            ],
            [
              683907.6224099355,
              7023521.896128001
            ],
            [
              683910.5872193377,
              7023521.829339559
            ],
            [
              683913.5309489786,
              7023521.470158145
            ],
            [
              683916.424833532,
              7023520.822093581
            ],
            [
              683921.831833532,
              7023519.327093581
            ],
            [
              683924.7120905303,
              7023518.371477927
            ],
            [
              683927.481070199,
              7023517.129772144
            ],
            [
              683930.1104394717,
              7023515.614681757
            ],
            [
              683935.5324394716,
              7023512.113681758
            ],
            [
              683938.2787786407,
              7023510.111172854
            ],
            [
              683940.7809794929,
              7023507.810865997
            ],
            [
              683940.8753294018,
              7023507.701993053
            ],
            [
              683943.430157326,
              7023508.147485433
            ],
            [
              683946.3038245885,
              7023508.3678372735
            ],
            [
              683949.1853754331,
              7023508.311417421
            ],
            [
              683952.0482146872,
              7023507.9787466
            ],
            [
              683954.865919876,
              7023507.372895185
            ],
            [
              683957.6124850886,
              7023506.499454859
            ],
            [
              683998.7514850886,
              7023491.204454859
            ],
            [
              684001.5157166811,
              7023490.015754339
            ],
            [
              684004.1469682012,
              7023488.556130875
            ],
            [
              684006.6187693012,
              7023486.840268251
            ],
            [
              684008.906253703,
              7023484.885428019
            ],
            [
              684010.986409351,
              7023482.711275839
            ],
            [
              684012.8383099135,
              7023480.339683646
            ],
            [
              684016.12918713,
              7023475.659074062
            ],
            [
              684034.074,
              7023470.222
            ],
            [
              684076.393,
              7023464.123
            ],
            [
              684125.193059755,
              7023393.200346492
            ],
            [
              684126.1455597847,
              7023393.035247878
            ],
            [
              684129.1152121476,
              7023392.363712217
            ],
            [
              684132.0015062662,
              7023391.39463969
            ],
            [
              684134.7747139673,
              7023390.138011524
            ],
            [
              684137.4062718427,
              7023388.606770704
            ],
            [
              684139.8690754448,
              7023386.816688661
            ],
            [
              684151.5533382198,
              7023377.381912111
            ],
            [
              684152.8569322295,
              7023376.815195836
            ],
            [
              684183.21,
              7023396.129
            ],
            [
              684275.6402344145,
              7023218.300045291
            ],
            [
              684333.8518647274,
              7023147.967001561
            ],
            [
              684335.9093818207,
              7023145.216721018
            ],
            [
              684337.6874167729,
              7023142.278011886
            ],
            [
              684339.1688461355,
              7023139.179175541
            ],
            [
              684340.3394029337,
              7023135.95005547
            ],
            [
              684341.187814066,
              7023132.621749864
            ],
            [
              684341.705908869,
              7023129.226312126
            ],
            [
              684341.8886978069,
              7023125.796442179
            ],
            [
              684341.734420522,
              7023122.365171543
            ],
            [
              684341.2610683441,
              7023119.080094244
            ],
            [
              684341.3055990459,
              7023117.963077111
            ],
            [
              684341.1299976752,
              7023114.998954876
            ],
            [
              684340.6622350934,
              7023112.066710917
            ],
            [
              684339.9068937402,
              7023109.195070984
            ],
            [
              684338.8713733223,
              7023106.412167117
            ],
            [
              684337.5658183232,
              7023103.745262055
            ],
            [
              684336.0030186216,
              7023101.220482152
            ],
            [
              684334.1982841962,
              7023098.862561432
            ],
            [
              684332.1692951407,
              7023096.694599283
            ],
            [
              684329.9359284609,
              7023094.737834161
            ],
            [
              684328.2691708271,
              7023093.546754377
            ],
            [
              684336.1658787825,
              7023056.474365438
            ],
            [
              684337.2585768934,
              7023056.366818845
            ],
            [
              684341.7332614834,
              7023055.700493949
            ],
            [
              684341.6217620391,
              7023057.2837860575
            ],
            [
              684341.5704229489,
              7023059.761830178
            ],
            [
              684341.7647149427,
              7023062.2327791825
            ],
            [
              684342.2027282579,
              7023064.672345271
            ],
            [
              684342.8801575121,
              7023067.056549115
            ],
            [
              684343.7903440221,
              7023069.361955562
            ],
            [
              684344.9243412538,
              7023071.565903982
            ],
            [
              684346.2710027616,
              7023073.646731017
            ],
            [
              684347.8170917493,
              7023075.583983506
            ],
            [
              684349.5474111808,
              7023077.3586195335
            ],
            [
              684351.4449531556,
              7023078.953195595
            ],
            [
              684351.8876690334,
              7023079.255862061
            ],
            [
              684351.7361747196,
              7023080.369226984
            ],
            [
              684351.6406563488,
              7023082.741154664
            ],
            [
              684351.8006563488,
              7023104.821154664
            ],
            [
              684351.9464012868,
              7023107.341597861
            ],
            [
              684352.3456082147,
              7023109.83448962
            ],
            [
              684352.9942059405,
              7023112.274406931
            ],
            [
              684353.885579934,
              7023114.6364670275
            ],
            [
              684355.0106397844,
              7023116.896581146
            ],
            [
              684356.3579119054,
              7023119.031700189
            ],
            [
              684357.9136565453,
              7023121.020049783
            ],
            [
              684359.6620079081,
              7023122.841352341
            ],
            [
              684361.5851359554,
              7023124.4770338535
            ],
            [
              684363.6634282412,
              7023125.910413311
            ],
            [
              684365.8756899235,
              7023127.126872823
            ],
            [
              684368.1993599135,
              7023128.11400669
            ],
            [
              684370.610740958,
              7023128.861747924
            ],
            [
              684373.085241309,
              7023129.362470909
            ],
            [
              684375.597625515,
              7023129.611069172
            ],
            [
              684378.1222717775,
              7023129.605007457
            ],
            [
              684380.6334332468,
              7023129.344347583
            ],
            [
              684389.9134332468,
              7023127.904347583
            ],
            [
              684392.5215662629,
              7023127.35587349
            ],
            [
              684401.5142017162,
              7023124.957837369
            ],
            [
              684415.1394650823,
              7023122.04907328
            ],
            [
              684417.4740824912,
              7023121.4314044425
            ],
            [
              684419.7382118108,
              7023120.591361787
            ],
            [
              684421.9107261669,
              7023119.536783856
            ],
            [
              684423.9713535561,
              7023118.27751105
            ],
            [
              684425.9008660064,
              7023116.825293799
            ],
            [
              684427.6812589954,
              7023115.193682926
            ],
            [
              684429.2959194533,
              7023113.397903194
            ],
            [
              684430.7297807813,
              7023111.45471125
            ],
            [
              684431.9694634398,
              7023109.382239261
            ],
            [
              684433.0033997947,
              7023107.199825723
            ],
            [
              684433.8219420565,
              7023104.927835009
            ],
            [
              684434.417452305,
              7023102.587467349
            ],
            [
              684434.7843737593,
              7023100.2005610075
            ],
            [
              684434.9192826295,
              7023097.789388505
            ],
            [
              684435.0792826295,
              7023076.669388506
            ],
            [
              684434.9969953492,
              7023074.444479731
            ],
            [
              684434.7170867838,
              7023072.235715043
            ],
            [
              684434.2417769402,
              7023070.060612561
            ],
            [
              684433.5748355881,
              7023067.936423426
            ],
            [
              684431.6548355883,
              7023062.656423424
            ],
            [
              684430.7029953987,
              7023060.391977125
            ],
            [
              684429.5335263293,
              7023058.231870903
            ],
            [
              684428.1577183724,
              7023056.196958311
            ],
            [
              684426.5888535047,
              7023054.306884286
            ],
            [
              684423.2231636842,
              7023050.635222664
            ],
            [
              684423.4702685158,
              7023046.453448593
            ],
            [
              684424.5974746938,
              7023046.534933377
            ],
            [
              684427.0573862866,
              7023046.59135537
            ],
            [
              684429.5109298063,
              7023046.4056871645
            ],
            [
              684431.9343378809,
              7023045.97972732
            ],
            [
              684434.3041350592,
              7023045.317602091
            ],
            [
              684436.5973652167,
              7023044.425725456
            ],
            [
              684438.7918139298,
              7023043.312736988
            ],
            [
              684440.866223667,
              7023041.989418157
            ],
            [
              684442.8004997093,
              7023040.468587898
            ],
            [
              684444.5759048067,
              7023038.764978428
            ],
            [
              684446.1752406853,
              7023036.89509254
            ],
            [
              684447.5830146463,
              7023034.87704374
            ],
            [
              684448.785589643,
              7023032.73038078
            ],
            [
              684449.7713163827,
              7023030.475898295
            ],
            [
              684450.5306461719,
              7023028.135435358
            ],
            [
              684451.0562234154,
              7023025.731663937
            ],
            [
              684451.3429568686,
              7023023.287869262
            ],
            [
              684452.352157191,
              7023008.3741311645
            ],
            [
              684453.0081675273,
              7023006.858251137
            ],
            [
              684453.7630547616,
              7023004.4945759475
            ],
            [
              684454.2799140578,
              7023002.067711386
            ],
            [
              684454.5536538847,
              7022999.601564261
            ],
            [
              684455.3536538847,
              7022986.48156426
            ],
            [
              684455.3848186686,
              7022984.088888011
            ],
            [
              684455.1870876995,
              7022981.704192361
            ],
            [
              684454.7622724685,
              7022979.349324445
            ],
            [
              684454.1142648753,
              7022977.045858136
            ],
            [
              684453.2490015721,
              7022974.814896394
            ],
            [
              684452.1744095766,
              7022972.676877937
            ],
            [
              684450.9003336488,
              7022970.651389994
            ],
            [
              684449.4384460994,
              7022968.756988855
            ],
            [
              684447.8021398556,
              7022967.011029877
            ],
            [
              684446.0064057623,
              7022965.429508475
            ],
            [
              684445.6136862056,
              7022965.145388469
            ],
            [
              684444.6771420451,
              7022963.481766615
            ],
            [
              684443.2698494726,
              7022961.472134988
            ],
            [
              684441.6723550532,
              7022959.61011908
            ],
            [
              684439.9000435316,
              7022957.913651123
            ],
            [
              684437.9699832364,
              7022956.399069029
            ],
            [
              684435.9007617036,
              7022955.080959053
            ],
            [
              684433.7123066675,
              7022953.972015315
            ],
            [
              684431.4256941465,
              7022953.082917547
            ],
            [
              684429.5056941465,
              7022952.442917547
            ],
            [
              684427.258477416,
              7022951.808785793
            ],
            [
              684424.9618996946,
              7022951.387078686
            ],
            [
              684424.6939205691,
              7022951.363390049
            ],
            [
              684424.5845541621,
              7022950.195306562
            ],
            [
              684424.1084414315,
              7022947.756438517
            ],
            [
              684423.3925657929,
              7022945.3768833615
            ],
            [
              684416.672565793,
              7022926.496883362
            ],
            [
              684415.7508933918,
              7022924.257257215
            ],
            [
              684414.6168380117,
              7022922.117321773
            ],
            [
              684413.2810423635,
              7022920.097159582
            ],
            [
              684411.7560424199,
              7022918.215729151
            ],
            [
              684410.0561497695,
              7022916.490687044
            ],
            [
              684408.1973173068,
              7022914.9382221745
            ],
            [
              684406.1969895214,
              7022913.57290388
            ],
            [
              684404.0739387863,
              7022912.407545192
            ],
            [
              684401.8480891862,
              7022911.453082594
            ],
            [
              684399.5403295374,
              7022910.7184733795
            ],
            [
              684397.1723173527,
              7022910.210611599
            ],
            [
              684394.7662755942,
              7022909.934263357
            ],
            [
              684392.344784118,
              7022909.8920220835
            ],
            [
              684389.9305677704,
              7022910.084284199
            ],
            [
              684389.1365180018,
              7022910.225811066
            ],
            [
              684388.8936953662,
              7022910.020973275
            ],
            [
              684386.8082128626,
              7022908.59526926
            ],
            [
              684384.5894951782,
              7022907.387311873
            ],
            [
              684382.2601976187,
              7022906.409435555
            ],
            [
              684379.8441046203,
              7022905.671625394
            ],
            [
              684377.3658868858,
              7022905.181415161
            ],
            [
              684374.8508494736,
              7022904.943810389
            ],
            [
              684372.3246734077,
              7022904.961237257
            ],
            [
              684369.8131534483,
              7022905.233517822
            ],
            [
              684367.3419347025,
              7022905.757871826
            ],
            [
              684357.1019347025,
              7022908.477871827
            ],
            [
              684354.765766072,
              7022909.222839874
            ],
            [
              684354.410730546,
              7022909.3758060215
            ],
            [
              684363.79,
              7022891.664
            ],
            [
              684360.795,
              7022865.114
            ],
            [
              684345.807,
              7022846.3
            ],
            [
              684358.4121785618,
              7022829.862884047
            ],
            [
              684359.4593394333,
              7022829.142270875
            ],
            [
              684361.7625429443,
              7022827.188692569
            ],
            [
              684363.8576556434,
              7022825.01344146
            ],
            [
              684403.8546556433,
              7022779.0664414605
            ],
            [
              684405.2338792832,
              7022777.359823969
            ],
            [
              684446.0208792832,
              7022722.933823969
            ],
            [
              684448.2259870125,
              7022719.535180675
            ],
            [
              684465.9189870126,
              7022687.753180675
            ],
            [
              684467.1413698851,
              7022685.300001154
            ],
            [
              684468.134757778,
              7022682.74549726
            ],
            [
              684481.934757778,
              7022641.81449726
            ],
            [
              684482.7515068735,
              7022638.920203116
            ],
            [
              684483.2743805945,
              7022635.958679732
            ],
            [
              684487.5403805946,
              7022601.901679732
            ],
            [
              684487.763631407,
              7022598.922685142
            ],
            [
              684487.689500127,
              7022595.936256798
            ],
            [
              684487.3187218278,
              7022592.972007627
            ],
            [
              684486.6549730854,
              7022590.059330627
            ],
            [
              684485.704835521,
              7022587.227107418
            ],
            [
              684484.4777305406,
              7022584.503421851
            ],
            [
              684482.9858259117,
              7022581.91528154
            ],
            [
              684481.340206792,
              7022579.622509221
            ],
            [
              684488.061,
              7022549.964
            ],
            [
              684480.614,
              7022401.597
            ],
            [
              684322.56,
              7022390.417
            ],
            [
              684115.8467839869,
              7022334.464433781
            ],
            [
              684114.7571318602,
              7022332.453148782
            ],
            [
              684113.2293230486,
              7022330.16292534
            ],
            [
              684111.497998268,
              7022328.022402582
            ],
            [
              684095.174998268,
              7022309.635402582
            ],
            [
              684093.3728846103,
              7022307.7739359755
            ],
            [
              684091.4168800886,
              7022306.074901582
            ],
            [
              684089.3215736095,
              7022304.550971689
            ],
            [
              684087.1025930663,
              7022303.213512564
            ],
            [
              684059.1495930663,
              7022287.970512564
            ],
            [
              684055.7795525991,
              7022286.395494536
            ],
            [
              684029.553552599,
              7022276.067494535
            ],
            [
              684026.2915402587,
              7022274.994128018
            ],
            [
              683998.9865402587,
              7022267.712128018
            ],
            [
              683996.5728169341,
              7022267.1739012245
            ],
            [
              683994.122964371,
              7022266.836305626
            ],
            [
              683991.6536299939,
              7022266.701635276
            ],
            [
              683968.8706299938,
              7022266.399635276
            ],
            [
              683967.1275269559,
              7022266.4598304955
            ],
            [
              683956.1611357018,
              7022259.045341579
            ],
            [
              683953.6954962389,
              7022257.545842563
            ],
            [
              683951.0971891312,
              7022256.290185191
            ],
            [
              683948.3902570205,
              7022255.289988305
            ],
            [
              683945.5997476766,
              7022254.554506923
            ],
            [
              683939.1497476767,
              7022253.182506923
            ],
            [
              683936.3822652957,
              7022252.727854408
            ],
            [
              683933.5844191192,
              7022252.533626683
            ],
            [
              683930.7806612892,
              7022252.601521224
            ],
            [
              683927.9954956141,
              7022252.930944658
            ],
            [
              683925.2532634131,
              7022253.519017947
            ],
            [
              683922.577930783,
              7022254.360601547
            ],
            [
              683914.062930783,
              7022257.483601548
            ],
            [
              683911.3831534924,
              7022258.6167249605
            ],
            [
              683908.8257435653,
              7022260.004107193
            ],
            [
              683906.4147553605,
              7022261.632698876
            ],
            [
              683904.1728660299,
              7022263.487181883
            ],
            [
              683902.1211622244,
              7022265.550113412
            ],
            [
              683900.278941757,
              7022267.802090042
            ],
            [
              683898.427941757,
              7022270.303090042
            ],
            [
              683896.7953558167,
              7022272.751613289
            ],
            [
              683895.6672916395,
              7022274.866852826
            ],
            [
              683856.71,
              7022264.322
            ],
            [
              683816.362,
              7022553.374
            ],
            [
              683833.976,
              7022736.922
            ],
            [
              683893.465,
              7022902.909
            ],
            [
              683872.1940176511,
              7022922.78533972
            ],
            [
              683871.8346690553,
              7022922.780211145
            ],
            [
              683868.412014796,
              7022923.06806089
            ],
            [
              683865.0340557614,
              7022923.690003341
            ],
            [
              683861.7333235434,
              7022924.640048855
            ],
            [
              683858.5416059976,
              7022925.909047972
            ],
            [
              683856.4574237665,
              7022926.985112689
            ],
            [
              683855.8253945792,
              7022927.152886868
            ],
            [
              683853.0731173141,
              7022928.180817705
            ],
            [
              683850.4345851787,
              7022929.473032903
            ],
            [
              683847.9351036662,
              7022931.0171391545
            ],
            [
              683845.5986446701,
              7022932.798327327
            ],
            [
              683843.4476165769,
              7022934.799514498
            ],
            [
              683841.5026493518,
              7022937.001507785
            ],
            [
              683839.7823966829,
              7022939.383188432
            ],
            [
              683838.3033570773,
              7022941.921714341
            ],
            [
              683837.0797156293,
              7022944.5927391555
            ],
            [
              683836.123207974,
              7022947.37064575
            ],
            [
              683835.4430077338,
              7022950.22879193
            ],
            [
              683833.8821688776,
              7022958.585252908
            ],
            [
              683745.4072026493,
              7023041.259313588
            ],
            [
              683744.5365548336,
              7023040.283569494
            ],
            [
              683742.2104541345,
              7023038.170461115
            ],
            [
              683740.8384541344,
              7023037.049461116
            ],
            [
              683740.2710603263,
              7023036.630087224
            ],
            [
              683739.8656315465,
              7023035.604486266
            ],
            [
              683737.8726315466,
              7023031.478486266
            ],
            [
              683736.5699234917,
              7023029.069043692
            ],
            [
              683735.0528874132,
              7023026.788459703
            ],
            [
              683733.3341694281,
              7023024.655745405
            ],
            [
              683730.457169428,
              7023021.401745405
            ],
            [
              683728.6495578724,
              7023019.527838433
            ],
            [
              683726.6862739797,
              7023017.817720532
            ],
            [
              683723.5562739797,
              7023015.321720532
            ],
            [
              683721.3916307138,
              7023013.748204267
            ],
            [
              683719.0953754701,
              7023012.373851415
            ],
            [
              683715.8513754702,
              7023010.623851415
            ],
            [
              683713.0351539899,
              7023009.288576257
            ],
            [
              683710.0955946255,
              7023008.252693102
            ],
            [
              683707.0644252273,
              7023007.52738265
            ],
            [
              683703.6854252274,
              7023006.90238265
            ],
            [
              683700.5763913079,
              7023006.493978432
            ],
            [
              683697.4417111318,
              7023006.412332175
            ],
            [
              683694.3156324243,
              7023006.658335898
            ],
            [
              683691.4426324243,
              7023007.036335899
            ],
            [
              683688.8190661824,
              7023007.500852194
            ],
            [
              683686.2470609155,
              7023008.196311842
            ],
            [
              683683.7469036729,
              7023009.117229306
            ],
            [
              683681.3383147927,
              7023010.2563407235
            ],
            [
              683679.2153147927,
              7023011.378340723
            ],
            [
              683676.6586337758,
              7023012.896192989
            ],
            [
              683674.2647589522,
              7023014.659671554
            ],
            [
              683672.0572048045,
              7023016.651454175
            ],
            [
              683670.0576556302,
              7023018.851976028
            ],
            [
              683668.2857525416,
              7023021.239621891
            ],
            [
              683666.758900536,
              7023023.790938468
            ],
            [
              683665.757900536,
              7023025.668938468
            ],
            [
              683664.5322727502,
              7023028.25936155
            ],
            [
              683663.5594035974,
              7023030.954909885
            ],
            [
              683662.8481704599,
              7023033.730986728
            ],
            [
              683662.4050633047,
              7023036.562260517
            ],
            [
              683662.1490633048,
              7023038.935260517
            ],
            [
              683661.9786877452,
              7023041.751431217
            ],
            [
              683662.0736165893,
              7023044.571153501
            ],
            [
              683662.4330102605,
              7023047.369488977
            ],
            [
              683662.9410102605,
              7023050.246488977
            ],
            [
              683663.5235256022,
              7023052.858851938
            ],
            [
              683664.3365587378,
              7023055.408899286
            ],
            [
              683665.5795587377,
              7023058.779899285
            ],
            [
              683667.3196535454,
              7023062.636591074
            ],
            [
              683667.8869979505,
              7023063.689027899
            ],
            [
              683661.884025346,
              7023108.270477552
            ],
            [
              683657.4608597386,
              7023114.677027738
            ],
            [
              683650.9180425511,
              7023118.895683389
            ],
            [
              683648.5879043924,
              7023120.560754272
            ],
            [
              683646.4271567322,
              7023122.440428295
            ],
            [
              683635.0601567321,
              7023133.324428295
            ],
            [
              683632.9355304939,
              7023135.5803716695
            ],
            [
              683631.0549615654,
              7023138.043454629
            ],
            [
              683629.4385162803,
              7023140.687395211
            ],
            [
              683628.1034426789,
              7023143.483981638
            ],
            [
              683627.2328493032,
              7023145.5796776675
            ],
            [
              683581.9403461561,
              7023178.2809983855
            ],
            [
              683579.5449514671,
              7023178.206542588
            ],
            [
              683576.6438739249,
              7023178.397936386
            ],
            [
              683573.7749466964,
              7023178.869252682
            ],
            [
              683570.9651150093,
              7023179.616064828
            ],
            [
              683568.2407690603,
              7023180.631358698
            ],
            [
              683565.6274961564,
              7023181.9055985585
            ],
            [
              683563.1498403959,
              7023183.426816631
            ],
            [
              683560.8310721491,
              7023185.180725497
            ],
            [
              683558.6929695,
              7023187.150852283
            ],
            [
              683537.8949694999,
              7023208.267852284
            ],
            [
              683535.9771330827,
              7023210.411622194
            ],
            [
              683534.3244209468,
              7023212.659836679
            ],
            [
              683528.33492015,
              7023216.984273901
            ],
            [
              683525.6521703103,
              7023219.129098591
            ],
            [
              683523.1925682271,
              7023221.526550832
            ],
            [
              683521.7493360254,
              7023223.239952199
            ],
            [
              683518.7349541605,
              7023222.458883536
            ],
            [
              683515.3535091785,
              7023221.9835587675
            ],
            [
              683511.9399534473,
              7023221.895575408
            ],
            [
              683508.1879534473,
              7023222.0125754075
            ],
            [
              683505.6527587097,
              7023222.199385512
            ],
            [
              683503.1424807301,
              7023222.600153322
            ],
            [
              683500.6751436122,
              7023223.212001277
            ],
            [
              683497.6731436122,
              7023224.093001277
            ],
            [
              683494.9553256668,
              7023225.034292842
            ],
            [
              683492.3401396744,
              7023226.2315256605
            ],
            [
              683489.8516237393,
              7023227.67369508
            ],
            [
              683487.5126516485,
              7023229.347545059
            ],
            [
              683485.1466516485,
              7023231.21854506
            ],
            [
              683482.9651791691,
              7023233.121700256
            ],
            [
              683480.9773020069,
              7023235.226258705
            ],
            [
              683479.2015313222,
              7023237.512622708
            ],
            [
              683477.4415313222,
              7023240.019622709
            ],
            [
              683475.8601264164,
              7023242.5271533355
            ],
            [
              683474.5339300414,
              7023245.178521754
            ],
            [
              683473.4758925803,
              7023247.947837203
            ],
            [
              683472.6963458296,
              7023250.808057156
            ],
            [
              683472.2029021074,
              7023253.731251405
            ],
            [
              683471.8339021074,
              7023256.849251404
            ],
            [
              683471.6271374697,
              7023260.113758947
            ],
            [
              683471.7770180127,
              7023263.381372286
            ],
            [
              683472.1550180126,
              7023267.134372286
            ],
            [
              683472.6495486312,
              7023270.318006853
            ],
            [
              683473.3745206876,
              7023273.755992865
            ],
            [
              683473.8332408824,
              7023276.575195584
            ],
            [
              683474.3993210758,
              7023280.701984416
            ],
            [
              683474.5328087147,
              7023281.578679083
            ],
            [
              683475.1618087146,
              7023285.335679083
            ],
            [
              683475.7838865664,
              7023288.189962125
            ],
            [
              683476.6806247279,
              7023290.970209095
            ],
            [
              683477.8435202156,
              7023293.650057342
            ],
            [
              683479.2615463093,
              7023296.204096209
            ],
            [
              683480.8885463093,
              7023298.825096209
            ],
            [
              683482.6645047549,
              7023301.3800936015
            ],
            [
              683484.6955580111,
              7023303.737393487
            ],
            [
              683486.7963420482,
              7023305.717513968
            ],
            [
              683517.4593768148,
              7023433.415937293
            ],
            [
              683518.424243122,
              7023436.712367585
            ],
            [
              683519.7075700045,
              7023439.898351226
            ],
            [
              683521.2969983232,
              7023442.943205455
            ],
            [
              683523.1772210142,
              7023445.81760666
            ],
            [
              683525.3301305051,
              7023448.493872785
            ],
            [
              683526.8857324088,
              7023450.080196862
            ],
            [
              683527.4081471746,
              7023450.752807579
            ],
            [
              683529.4836688231,
              7023452.933227905
            ],
            [
              683531.7672578522,
              7023454.894667186
            ],
            [
              683532.169075384,
              7023455.1750677535
            ],
            [
              683531.4454686653,
              7023457.83442526
            ],
            [
              683530.8694753584,
              7023460.385449068
            ],
            [
              683530.5178441334,
              7023462.976944049
            ],
            [
              683529.663557343,
              7023472.3117753295
            ],
            [
              683526.2379250424,
              7023483.878845436
            ],
            [
              683522.0003761296,
              7023496.056701933
            ],
            [
              683520.8722740075,
              7023500.2585534435
            ],
            [
              683518.494583056,
              7023512.640619912
            ],
            [
              683514.7423761298,
              7023523.423701933
            ],
            [
              683514.6115379515,
              7023523.808064628
            ],
            [
              683513.200046544,
              7023528.048446439
            ],
            [
              683511.1791959346,
              7023529.865494148
            ],
            [
              683509.1278333002,
              7023532.127413523
            ],
            [
              683507.3170307246,
              7023534.5861452995
            ],
            [
              683505.8122935215,
              7023537.136974507
            ],
            [
              683498.201568316,
              7023540.620089363
            ],
            [
              683496.7528394533,
              7023541.330841668
            ],
            [
              683485.0258394533,
              7023547.480841667
            ],
            [
              683483.3623650707,
              7023548.421963907
            ],
            [
              683470.5263650707,
              7023556.233963907
            ],
            [
              683468.3276929966,
              7023557.708835528
            ],
            [
              683466.2676148304,
              7023559.371809713
            ],
            [
              683456.7726148304,
              7023567.754809713
            ],
            [
              683454.7891282958,
              7023569.675488078
            ],
            [
              683452.9906224452,
              7023571.770386863
            ],
            [
              683451.3923310713,
              7023574.021761754
            ],
            [
              683446.3673310713,
              7023581.838761753
            ],
            [
              683444.9402515556,
              7023584.309714773
            ],
            [
              683443.7543859188,
              7023586.905073604
            ],
            [
              683442.8204625092,
              7023589.601358424
            ],
            [
              683442.1469303914,
              7023592.374176351
            ],
            [
              683441.7398829095,
              7023595.198442116
            ],
            [
              683441.6030025606,
              7023598.048605014
            ],
            [
              683441.600075417,
              7023605.133268132
            ],
            [
              683391.2781401188,
              7023642.50035522
            ],
            [
              683389.6456046745,
              7023643.546889864
            ],
            [
              683387.5274085806,
              7023645.037573847
            ],
            [
              683385.5456906962,
              7023646.705413065
            ],
            [
              683385.3460133047,
              7023646.905318939
            ],
            [
              683375.9609548827,
              7023653.874293668
            ],
            [
              683374.0666827116,
              7023654.2962422045
            ],
            [
              683371.3025430883,
              7023655.200459621
            ],
            [
              683368.638946101,
              7023656.368076031
            ],
            [
              683366.1009238696,
              7023657.788118336
            ],
            [
              683344.9139238696,
              7023671.030118336
            ],
            [
              683342.5246417717,
              7023672.689769227
            ],
            [
              683340.3073428414,
              7023674.573036462
            ],
            [
              683338.2828773507,
              7023676.66221082
            ],
            [
              683336.4702822712,
              7023678.937646845
            ],
            [
              683334.8866022599,
              7023681.377947574
            ],
            [
              683333.5467293818,
              7023683.960165747
            ],
            [
              683332.4632630717,
              7023686.6600195905
            ],
            [
              683331.6463916571,
              7023689.45212115
            ],
            [
              683331.1037965518,
              7023692.3102150215
            ],
            [
              683330.8405800251,
              7023695.207425245
            ],
            [
              683330.8592172218,
              7023698.116508035
            ],
            [
              683331.1595328879,
              7023701.010107961
            ],
            [
              683331.7387030182,
              7023703.861015181
            ],
            [
              683332.5912814122,
              7023706.64242132
            ],
            [
              683333.7092508868,
              7023709.328171546
            ],
            [
              683335.0820986658,
              7023711.893010527
            ],
            [
              683336.696915236,
              7023714.312819914
            ],
            [
              683342.5779152359,
              7023722.261819914
            ],
            [
              683344.4960970395,
              7023724.598412958
            ],
            [
              683346.6396985525,
              7023726.730093291
            ],
            [
              683348.9869524817,
              7023728.635214672
            ],
            [
              683350.1657171868,
              7023729.409164495
            ],
            [
              683350.167,
              7023731.377
            ],
            [
              683353.8429970804,
              7023731.50743093
            ],
            [
              683354.1952504661,
              7023731.690895086
            ]
          ]
        ]
      },
      "properties": {
        "role": "original-facility-review-scope",
        "areaMetres2": 856868.2573761677
      }
    }
  ]
}
