{
  "type": "FeatureCollection",
  "crs": {
    "type": "name",
    "properties": {
      "name": "EPSG:3006"
    }
  },
  "features": [
    {
      "type": "Feature",
      "geometry": {
        "type": "LineString",
        "coordinates": [
          [
            684218.35,
            7022843.098
          ],
          [
            684250.245,
            7022612.739
          ],
          [
            684312.04,
            7022531.734
          ]
        ]
      },
      "properties": {
        "slug": "veckefjarden",
        "hole": 1
      }
    },
    {
      "type": "Feature",
      "geometry": {
        "type": "LineString",
        "coordinates": [
          [
            684402.478,
            7022453.654
          ],
          [
            684137.333,
            7022432.749
          ],
          [
            683938.428,
            7022294.877
          ]
        ]
      },
      "properties": {
        "slug": "veckefjarden",
        "hole": 2
      }
    },
    {
      "type": "Feature",
      "geometry": {
        "type": "LineString",
        "coordinates": [
          [
            683918.093,
            7022339.14
          ],
          [
            684082.467,
            7022503.322
          ],
          [
            684148.233,
            7022636.777
          ]
        ]
      },
      "properties": {
        "slug": "veckefjarden",
        "hole": 3
      }
    },
    {
      "type": "Feature",
      "geometry": {
        "type": "LineString",
        "coordinates": [
          [
            684088.603,
            7022638.072
          ],
          [
            683970.021,
            7022506.107
          ]
        ]
      },
      "properties": {
        "slug": "veckefjarden",
        "hole": 4
      }
    },
    {
      "type": "Feature",
      "geometry": {
        "type": "LineString",
        "coordinates": [
          [
            683906.515,
            7022390.966
          ],
          [
            683883.064,
            7022633.819
          ],
          [
            683949.672,
            7022863.101
          ]
        ]
      },
      "properties": {
        "slug": "veckefjarden",
        "hole": 5
      }
    },
    {
      "type": "Feature",
      "geometry": {
        "type": "LineString",
        "coordinates": [
          [
            683873.053,
            7022957.759
          ],
          [
            683800.25,
            7023152.426
          ],
          [
            683667.061,
            7023279.503
          ]
        ]
      },
      "properties": {
        "slug": "veckefjarden",
        "hole": 6
      }
    },
    {
      "type": "Feature",
      "geometry": {
        "type": "LineString",
        "coordinates": [
          [
            683611.293,
            7023287.246
          ],
          [
            683685.115,
            7023427.27
          ]
        ]
      },
      "properties": {
        "slug": "veckefjarden",
        "hole": 7
      }
    },
    {
      "type": "Feature",
      "geometry": {
        "type": "LineString",
        "coordinates": [
          [
            683640.014,
            7023621.301
          ],
          [
            683823.552,
            7023420.65
          ],
          [
            683895.453,
            7023360.878
          ]
        ]
      },
      "properties": {
        "slug": "veckefjarden",
        "hole": 8
      }
    },
    {
      "type": "Feature",
      "geometry": {
        "type": "LineString",
        "coordinates": [
          [
            683975.129,
            7023347.929
          ],
          [
            684278.538,
            7023082.251
          ]
        ]
      },
      "properties": {
        "slug": "veckefjarden",
        "hole": 9
      }
    },
    {
      "type": "Feature",
      "geometry": {
        "type": "LineString",
        "coordinates": [
          [
            684306.889,
            7023125.651
          ],
          [
            684126.478,
            7023343.629
          ],
          [
            683917.853,
            7023476.4
          ]
        ]
      },
      "properties": {
        "slug": "veckefjarden",
        "hole": 10
      }
    },
    {
      "type": "Feature",
      "geometry": {
        "type": "LineString",
        "coordinates": [
          [
            683870.87,
            7023532.382
          ],
          [
            683680.609,
            7023683.269
          ],
          [
            683581.572,
            7023706.891
          ]
        ]
      },
      "properties": {
        "slug": "veckefjarden",
        "hole": 11
      }
    },
    {
      "type": "Feature",
      "geometry": {
        "type": "LineString",
        "coordinates": [
          [
            683617.147,
            7023581.649
          ],
          [
            683470.405,
            7023675.762
          ]
        ]
      },
      "properties": {
        "slug": "veckefjarden",
        "hole": 12
      }
    },
    {
      "type": "Feature",
      "geometry": {
        "type": "LineString",
        "coordinates": [
          [
            683374.075,
            7023698.869
          ],
          [
            683562.733,
            7023558.779
          ],
          [
            683598.153,
            7023373.05
          ]
        ]
      },
      "properties": {
        "slug": "veckefjarden",
        "hole": 13
      }
    },
    {
      "type": "Feature",
      "geometry": {
        "type": "LineString",
        "coordinates": [
          [
            683551.492,
            7023425.244
          ],
          [
            683513.375,
            7023266.503
          ]
        ]
      },
      "properties": {
        "slug": "veckefjarden",
        "hole": 14
      }
    },
    {
      "type": "Feature",
      "geometry": {
        "type": "LineString",
        "coordinates": [
          [
            683548.823,
            7023245.361
          ],
          [
            683692.731,
            7023141.459
          ],
          [
            683704.605,
            7023053.276
          ]
        ]
      },
      "properties": {
        "slug": "veckefjarden",
        "hole": 15
      }
    },
    {
      "type": "Feature",
      "geometry": {
        "type": "LineString",
        "coordinates": [
          [
            683884.706,
            7022959.731
          ],
          [
            684189.587,
            7023025.895
          ]
        ]
      },
      "properties": {
        "slug": "veckefjarden",
        "hole": 16
      }
    },
    {
      "type": "Feature",
      "geometry": {
        "type": "LineString",
        "coordinates": [
          [
            684065.498,
            7023079.853
          ],
          [
            683876.982,
            7023201.251
          ],
          [
            683807.065,
            7023291.226
          ],
          [
            683718.618,
            7023315.551
          ]
        ]
      },
      "properties": {
        "slug": "veckefjarden",
        "hole": 17
      }
    },
    {
      "type": "Feature",
      "geometry": {
        "type": "LineString",
        "coordinates": [
          [
            683798.955,
            7023350.487
          ],
          [
            684023.412,
            7023206.029
          ],
          [
            684258.844,
            7023042.205
          ]
        ]
      },
      "properties": {
        "slug": "veckefjarden",
        "hole": 18
      }
    },
    {
      "type": "Feature",
      "geometry": {
        "type": "LineString",
        "coordinates": [
          [
            684183.952,
            7022837.013
          ],
          [
            684172.525,
            7022784.102
          ],
          [
            684160.368,
            7022728.141
          ],
          [
            684157.664,
            7022715.75
          ],
          [
            684155.132,
            7022703.87
          ]
        ]
      },
      "properties": {
        "slug": "veckefjarden-korthalsbanan",
        "hole": 1
      }
    },
    {
      "type": "Feature",
      "geometry": {
        "type": "LineString",
        "coordinates": [
          [
            684141.295,
            7022684.221
          ],
          [
            684110.015,
            7022681.525
          ],
          [
            684075.408,
            7022679.039
          ],
          [
            684061.346,
            7022677.331
          ],
          [
            684045.369,
            7022675.713
          ]
        ]
      },
      "properties": {
        "slug": "veckefjarden-korthalsbanan",
        "hole": 2
      }
    },
    {
      "type": "Feature",
      "geometry": {
        "type": "LineString",
        "coordinates": [
          [
            684044.663,
            7022638.964
          ],
          [
            684020.657,
            7022626.756
          ],
          [
            683991.422,
            7022611.14
          ],
          [
            683981.629,
            7022606.768
          ],
          [
            683971.599,
            7022601.278
          ]
        ]
      },
      "properties": {
        "slug": "veckefjarden-korthalsbanan",
        "hole": 3
      }
    },
    {
      "type": "Feature",
      "geometry": {
        "type": "LineString",
        "coordinates": [
          [
            683955.931,
            7022611.815
          ],
          [
            683972.082,
            7022655.968
          ],
          [
            683989.245,
            7022703.489
          ],
          [
            683994.217,
            7022716.612
          ],
          [
            683998.601,
            7022729.5
          ]
        ]
      },
      "properties": {
        "slug": "veckefjarden-korthalsbanan",
        "hole": 4
      }
    },
    {
      "type": "Feature",
      "geometry": {
        "type": "LineString",
        "coordinates": [
          [
            683988.551,
            7022766.436
          ],
          [
            684003.011,
            7022799.76
          ],
          [
            684017.019,
            7022833.962
          ],
          [
            684023.936,
            7022848.199
          ],
          [
            684028.173,
            7022858.372
          ]
        ]
      },
      "properties": {
        "slug": "veckefjarden-korthalsbanan",
        "hole": 5
      }
    },
    {
      "type": "Feature",
      "geometry": {
        "type": "LineString",
        "coordinates": [
          [
            684055.117,
            7022852.594
          ],
          [
            684075.347,
            7022860.574
          ],
          [
            684097.922,
            7022869.691
          ],
          [
            684108.837,
            7022873.727
          ],
          [
            684120.448,
            7022877.903
          ]
        ]
      },
      "properties": {
        "slug": "veckefjarden-korthalsbanan",
        "hole": 6
      }
    },
    {
      "type": "Feature",
      "geometry": {
        "type": "LineString",
        "coordinates": [
          [
            684085.499,
            7022835.881
          ],
          [
            684058.33,
            7022807.043
          ],
          [
            684028.595,
            7022775.651
          ],
          [
            684019.902,
            7022766.126
          ],
          [
            684009.192,
            7022754.981
          ]
        ]
      },
      "properties": {
        "slug": "veckefjarden-korthalsbanan",
        "hole": 7
      }
    },
    {
      "type": "Feature",
      "geometry": {
        "type": "LineString",
        "coordinates": [
          [
            684036.123,
            7022703.868
          ],
          [
            684067.728,
            7022718.417
          ],
          [
            684098.294,
            7022731.804
          ],
          [
            684111.658,
            7022738.688
          ],
          [
            684123.613,
            7022743.887
          ]
        ]
      },
      "properties": {
        "slug": "veckefjarden-korthalsbanan",
        "hole": 8
      }
    },
    {
      "type": "Feature",
      "geometry": {
        "type": "LineString",
        "coordinates": [
          [
            684067.667,
            7022784.309
          ],
          [
            684099.813,
            7022810.424
          ],
          [
            684134.44,
            7022838.787
          ],
          [
            684145.204,
            7022847.227
          ],
          [
            684157.643,
            7022857.971
          ]
        ]
      },
      "properties": {
        "slug": "veckefjarden-korthalsbanan",
        "hole": 9
      }
    }
  ]
}
