{
  "type": "FeatureCollection",
  "crs": {
    "type": "name",
    "properties": {
      "name": "EPSG:3006"
    }
  },
  "features": [
    {
      "type": "Feature",
      "geometry": {
        "type": "MultiPolygon",
        "coordinates": [
          [
            [
              [
                687380.5,
                6370785.5
              ],
              [
                687380.5,
                6370784.5
              ],
              [
                687378.5,
                6370784.5
              ],
              [
                687378.5,
                6370785.5
              ],
              [
                687377.5,
                6370785.5
              ],
              [
                687377.5,
                6370786.5
              ],
              [
                687376.5,
                6370786.5
              ],
              [
                687376.5,
                6370787.5
              ],
              [
                687375.5,
                6370787.5
              ],
              [
                687375.5,
                6370790.5
              ],
              [
                687377.9772452974,
                6370790.5
              ],
              [
                687377.8471837956,
                6370790.774991941
              ],
              [
                687377.6551335898,
                6370791.31173631
              ],
              [
                687377.5166183062,
                6370791.864720319
              ],
              [
                687377.4329719228,
                6370792.428618431
              ],
              [
                687377.405,
                6370792.998
              ],
              [
                687377.4329719228,
                6370793.567381568
              ],
              [
                687377.5166183062,
                6370794.13127968
              ],
              [
                687377.6551335898,
                6370794.684263689
              ],
              [
                687377.8471837956,
                6370795.221008059
              ],
              [
                687378.0909193754,
                6370795.736343644
              ],
              [
                687378.3839930221,
                6370796.225307483
              ],
              [
                687378.7235822765,
                6370796.683190587
              ],
              [
                687379.1064167081,
                6370797.1055832915
              ],
              [
                687379.5288094124,
                6370797.488417723
              ],
              [
                687379.9866925165,
                6370797.828006977
              ],
              [
                687380.4756563558,
                6370798.121080624
              ],
              [
                687380.9909919414,
                6370798.364816204
              ],
              [
                687381.5277363099,
                6370798.55686641
              ],
              [
                687382.0807203194,
                6370798.695381694
              ],
              [
                687382.6446184318,
                6370798.779028077
              ],
              [
                687383.214,
                6370798.807
              ],
              [
                687383.7833815683,
                6370798.779028077
              ],
              [
                687384.3472796807,
                6370798.695381694
              ],
              [
                687384.9002636902,
                6370798.55686641
              ],
              [
                687385.4370080587,
                6370798.364816204
              ],
              [
                687385.9523436442,
                6370798.121080624
              ],
              [
                687386.4413074836,
                6370797.828006977
              ],
              [
                687386.8991905877,
                6370797.488417723
              ],
              [
                687387.321583292,
                6370797.1055832915
              ],
              [
                687387.7044177236,
                6370796.683190587
              ],
              [
                687388.0440069779,
                6370796.225307483
              ],
              [
                687388.3370806247,
                6370795.736343644
              ],
              [
                687388.5808162044,
                6370795.221008059
              ],
              [
                687388.7728664103,
                6370794.684263689
              ],
              [
                687388.9113816939,
                6370794.13127968
              ],
              [
                687388.9950280773,
                6370793.567381568
              ],
              [
                687389.023,
                6370792.998
              ],
              [
                687388.9985348289,
                6370792.5
              ],
              [
                687389.5,
                6370792.5
              ],
              [
                687389.5,
                6370791.5
              ],
              [
                687391.5,
                6370791.5
              ],
              [
                687391.5,
                6370788.5
              ],
              [
                687390.5,
                6370788.5
              ],
              [
                687390.5,
                6370786.5
              ],
              [
                687384.5,
                6370786.5
              ],
              [
                687384.5,
                6370785.5
              ],
              [
                687383.5,
                6370785.5
              ],
              [
                687383.5,
                6370786.5
              ],
              [
                687381.5,
                6370786.5
              ],
              [
                687381.5,
                6370785.5
              ],
              [
                687380.5,
                6370785.5
              ]
            ],
            [
              [
                687380.5,
                6370785.5
              ],
              [
                687380.5,
                6370786.5
              ],
              [
                687379.5,
                6370786.5
              ],
              [
                687379.5,
                6370785.5
              ],
              [
                687380.5,
                6370785.5
              ]
            ],
            [
              [
                687390.5,
                6370790.5
              ],
              [
                687389.5,
                6370790.5
              ],
              [
                687389.5,
                6370789.5
              ],
              [
                687390.5,
                6370789.5
              ],
              [
                687390.5,
                6370790.5
              ]
            ],
            [
              [
                687388.3370806247,
                6370790.259656356
              ],
              [
                687388.0440069779,
                6370789.770692516
              ],
              [
                687387.8432477253,
                6370789.5
              ],
              [
                687388.5,
                6370789.5
              ],
              [
                687388.5,
                6370790.604120433
              ],
              [
                687388.3370806247,
                6370790.259656356
              ]
            ],
            [
              [
                687387.321583292,
                6370788.890416708
              ],
              [
                687386.8991905877,
                6370788.507582276
              ],
              [
                687386.8889670718,
                6370788.5
              ],
              [
                687387.5,
                6370788.5
              ],
              [
                687387.5,
                6370789.08726921
              ],
              [
                687387.321583292,
                6370788.890416708
              ]
            ],
            [
              [
                687386.4413074836,
                6370788.167993022
              ],
              [
                687385.9523436442,
                6370787.874919375
              ],
              [
                687385.4370080587,
                6370787.631183796
              ],
              [
                687385.0703739121,
                6370787.5
              ],
              [
                687386.5,
                6370787.5
              ],
              [
                687386.5,
                6370788.211522359
              ],
              [
                687386.4413074836,
                6370788.167993022
              ]
            ],
            [
              [
                687380.9909919414,
                6370787.631183796
              ],
              [
                687380.5,
                6370787.86340569
              ],
              [
                687380.5,
                6370787.5
              ],
              [
                687381.357626088,
                6370787.5
              ],
              [
                687380.9909919414,
                6370787.631183796
              ]
            ],
            [
              [
                687379.5288094124,
                6370788.507582276
              ],
              [
                687379.5,
                6370788.533693605
              ],
              [
                687379.5,
                6370788.5
              ],
              [
                687379.5390329283,
                6370788.5
              ],
              [
                687379.5288094124,
                6370788.507582276
              ]
            ],
            [
              [
                687378.5,
                6370789.614275213
              ],
              [
                687378.5,
                6370789.5
              ],
              [
                687378.5847522748,
                6370789.5
              ],
              [
                687378.5,
                6370789.614275213
              ]
            ]
          ],
          [
            [
              [
                687384.5,
                6370785.5
              ],
              [
                687385.5,
                6370785.5
              ],
              [
                687385.5,
                6370784.5
              ],
              [
                687384.5,
                6370784.5
              ],
              [
                687384.5,
                6370785.5
              ]
            ]
          ]
        ]
      },
      "properties": {
        "id": "tree-visby-000033",
        "action": "resize-crown",
        "scene": "gap-039",
        "reason": "Southern lobe continues the height-supported crown of tree-visby-000033. Enlarge its crown estimate while retaining its base and ID.",
        "radiusBeforeMetres": 5.809,
        "radiusAfterMetres": 6.917,
        "sourceDates": {
          "rgbi": "2026-04-10",
          "lidar": [
            "2024-02-03",
            "2024-04-28"
          ],
          "seasonal": "2022; exact date unknown"
        },
        "sourcePositionUnchanged": true,
        "uncertaintyKind": "Interpreted crown extent; equivalent circular rendering radius, not measured stem accuracy.",
        "priorIssueIds": [
          "r3-r3-10/dalponte-d9-m5/14",
          "r5-canopy-cell-687300-6370700"
        ]
      }
    },
    {
      "type": "Feature",
      "geometry": {
        "type": "Polygon",
        "coordinates": [
          [
            [
              687691.5,
              6371477.5
            ],
            [
              687690.5,
              6371477.5
            ],
            [
              687690.5,
              6371479.5
            ],
            [
              687690.9501403949,
              6371479.5
            ],
            [
              687690.9364716775,
              6371479.528900075
            ],
            [
              687690.7499426258,
              6371480.050213851
            ],
            [
              687690.6154094479,
              6371480.587300403
            ],
            [
              687690.534167772,
              6371481.134987295
            ],
            [
              687690.507,
              6371481.688
            ],
            [
              687690.534167772,
              6371482.2410127055
            ],
            [
              687690.6154094479,
              6371482.788699597
            ],
            [
              687690.7499426258,
              6371483.325786149
            ],
            [
              687690.9364716775,
              6371483.847099925
            ],
            [
              687691.1732002265,
              6371484.347620389
            ],
            [
              687691.4578484474,
              6371484.822527255
            ],
            [
              687691.7876750221,
              6371485.267246909
            ],
            [
              687692.1595035405,
              6371485.677496459
            ],
            [
              687692.5697530907,
              6371486.049324978
            ],
            [
              687693.0144727452,
              6371486.379151553
            ],
            [
              687693.4893796107,
              6371486.663799774
            ],
            [
              687693.9899000745,
              6371486.900528323
            ],
            [
              687694.5112138509,
              6371487.087057374
            ],
            [
              687695.0483004032,
              6371487.2215905525
            ],
            [
              687695.5959872942,
              6371487.302832228
            ],
            [
              687696.149,
              6371487.33
            ],
            [
              687696.7020127057,
              6371487.302832228
            ],
            [
              687697.2496995968,
              6371487.2215905525
            ],
            [
              687697.786786149,
              6371487.087057374
            ],
            [
              687698.3080999254,
              6371486.900528323
            ],
            [
              687698.8086203892,
              6371486.663799774
            ],
            [
              687699.2835272547,
              6371486.379151553
            ],
            [
              687699.7282469092,
              6371486.049324978
            ],
            [
              687700.1384964595,
              6371485.677496459
            ],
            [
              687700.5103249778,
              6371485.267246909
            ],
            [
              687700.8401515526,
              6371484.822527255
            ],
            [
              687701.1247997734,
              6371484.347620389
            ],
            [
              687701.3615283224,
              6371483.847099925
            ],
            [
              687701.5,
              6371483.460097512
            ],
            [
              687701.5,
              6371483.5
            ],
            [
              687702.5,
              6371483.5
            ],
            [
              687702.5,
              6371482.5
            ],
            [
              687703.5,
              6371482.5
            ],
            [
              687703.5,
              6371481.5
            ],
            [
              687704.5,
              6371481.5
            ],
            [
              687704.5,
              6371480.5
            ],
            [
              687702.5,
              6371480.5
            ],
            [
              687702.5,
              6371478.5
            ],
            [
              687701.5,
              6371478.5
            ],
            [
              687701.5,
              6371476.5
            ],
            [
              687700.5,
              6371476.5
            ],
            [
              687700.5,
              6371474.5
            ],
            [
              687700.0,
              6371474.5
            ],
            [
              687698.5,
              6371474.5
            ],
            [
              687698.5,
              6371475.5
            ],
            [
              687697.5,
              6371475.5
            ],
            [
              687697.5,
              6371474.5
            ],
            [
              687696.5,
              6371474.5
            ],
            [
              687696.5,
              6371473.5
            ],
            [
              687697.5,
              6371473.5
            ],
            [
              687697.5,
              6371472.5
            ],
            [
              687696.5,
              6371472.5
            ],
            [
              687694.5,
              6371472.5
            ],
            [
              687694.5,
              6371473.5
            ],
            [
              687693.5,
              6371473.5
            ],
            [
              687693.5,
              6371474.5
            ],
            [
              687692.5,
              6371474.5
            ],
            [
              687692.5,
              6371475.5
            ],
            [
              687693.5,
              6371475.5
            ],
            [
              687693.5,
              6371476.5
            ],
            [
              687691.5,
              6371476.5
            ],
            [
              687691.5,
              6371477.5
            ]
          ],
          [
            [
              687691.5,
              6371477.5
            ],
            [
              687692.3785184472,
              6371477.5
            ],
            [
              687692.1595035405,
              6371477.698503541
            ],
            [
              687691.7876750221,
              6371478.108753091
            ],
            [
              687691.5,
              6371478.496637956
            ],
            [
              687691.5,
              6371477.5
            ]
          ],
          [
            [
              687701.5,
              6371478.5
            ],
            [
              687701.5,
              6371479.915902488
            ],
            [
              687701.3615283224,
              6371479.528900075
            ],
            [
              687701.1247997734,
              6371479.028379611
            ],
            [
              687700.8401515526,
              6371478.553472745
            ],
            [
              687700.8004934619,
              6371478.5
            ],
            [
              687701.5,
              6371478.5
            ]
          ],
          [
            [
              687693.5,
              6371476.5
            ],
            [
              687693.9380392934,
              6371476.5
            ],
            [
              687693.5,
              6371476.707177157
            ],
            [
              687693.5,
              6371476.5
            ]
          ],
          [
            [
              687700.1384964595,
              6371477.698503541
            ],
            [
              687699.9194815528,
              6371477.5
            ],
            [
              687700.0,
              6371477.5
            ],
            [
              687700.5,
              6371477.5
            ],
            [
              687700.5,
              6371478.097361233
            ],
            [
              687700.1384964595,
              6371477.698503541
            ]
          ],
          [
            [
              687699.2835272547,
              6371476.996848447
            ],
            [
              687698.8086203892,
              6371476.712200226
            ],
            [
              687698.3599607066,
              6371476.5
            ],
            [
              687699.5,
              6371476.5
            ],
            [
              687699.5,
              6371477.157395577
            ],
            [
              687699.2835272547,
              6371476.996848447
            ]
          ]
        ]
      },
      "properties": {
        "id": "tree-visby-000115",
        "action": "resize-crown",
        "scene": "gap-047",
        "reason": "Road-side lobe adjoining tree-visby-000115 has continuous height support. Use only the portion nearest that crown; retain neighbouring tree identity.",
        "radiusBeforeMetres": 5.642,
        "radiusAfterMetres": 6.48,
        "sourceDates": {
          "rgbi": "2026-04-10",
          "lidar": [
            "2024-02-03",
            "2024-04-28"
          ],
          "seasonal": "2022; exact date unknown"
        },
        "sourcePositionUnchanged": true,
        "uncertaintyKind": "Interpreted crown extent; equivalent circular rendering radius, not measured stem accuracy.",
        "priorIssueIds": [
          "r5-canopy-cell-687600-6371400",
          "r5-canopy-cell-687700-6371400"
        ]
      }
    },
    {
      "type": "Feature",
      "geometry": {
        "type": "Polygon",
        "coordinates": [
          [
            [
              687307.5,
              6370782.5
            ],
            [
              687307.5,
              6370783.235804345
            ],
            [
              687307.3463627525,
              6370783.290776632
            ],
            [
              687306.9305634946,
              6370783.4874350345
            ],
            [
              687306.5360423179,
              6370783.7239019275
            ],
            [
              687306.1665986772,
              6370783.997900005
            ],
            [
              687305.8257905166,
              6370784.306790517
            ],
            [
              687305.516900005,
              6370784.647598677
            ],
            [
              687305.2429019272,
              6370785.017042318
            ],
            [
              687305.006435034,
              6370785.411563495
            ],
            [
              687304.8097766312,
              6370785.8273627525
            ],
            [
              687304.6548206464,
              6370786.260435718
            ],
            [
              687304.5430593907,
              6370786.706611661
            ],
            [
              687304.4755691862,
              6370787.1615936635
            ],
            [
              687304.453,
              6370787.621
            ],
            [
              687304.4755691862,
              6370788.080406337
            ],
            [
              687304.5430593907,
              6370788.535388339
            ],
            [
              687304.6548206464,
              6370788.981564282
            ],
            [
              687304.8097766312,
              6370789.414637248
            ],
            [
              687305.006435034,
              6370789.830436505
            ],
            [
              687305.2429019272,
              6370790.224957682
            ],
            [
              687305.516900005,
              6370790.594401323
            ],
            [
              687305.8257905166,
              6370790.935209484
            ],
            [
              687306.1665986772,
              6370791.244099995
            ],
            [
              687306.5360423179,
              6370791.518098073
            ],
            [
              687306.9305634946,
              6370791.754564966
            ],
            [
              687307.3463627525,
              6370791.951223369
            ],
            [
              687307.7794357177,
              6370792.106179354
            ],
            [
              687308.2256116607,
              6370792.21794061
            ],
            [
              687308.6805936632,
              6370792.285430814
            ],
            [
              687309.14,
              6370792.308
            ],
            [
              687309.5994063368,
              6370792.285430814
            ],
            [
              687310.0543883393,
              6370792.21794061
            ],
            [
              687310.5005642823,
              6370792.106179354
            ],
            [
              687310.9336372475,
              6370791.951223369
            ],
            [
              687311.3494365055,
              6370791.754564966
            ],
            [
              687311.7439576822,
              6370791.518098073
            ],
            [
              687312.1134013229,
              6370791.244099995
            ],
            [
              687312.4542094835,
              6370790.935209484
            ],
            [
              687312.763099995,
              6370790.594401323
            ],
            [
              687313.0370980728,
              6370790.224957682
            ],
            [
              687313.273564966,
              6370789.830436505
            ],
            [
              687313.4702233688,
              6370789.414637248
            ],
            [
              687313.6251793536,
              6370788.981564282
            ],
            [
              687313.7369406093,
              6370788.535388339
            ],
            [
              687313.7421899736,
              6370788.5
            ],
            [
              687314.5,
              6370788.5
            ],
            [
              687314.5,
              6370787.5
            ],
            [
              687315.5,
              6370787.5
            ],
            [
              687315.5,
              6370786.5
            ],
            [
              687314.5,
              6370786.5
            ],
            [
              687314.5,
              6370785.5
            ],
            [
              687315.5,
              6370785.5
            ],
            [
              687315.5,
              6370783.5
            ],
            [
              687315.5,
              6370782.5
            ],
            [
              687314.5,
              6370782.5
            ],
            [
              687314.5,
              6370781.5
            ],
            [
              687312.5,
              6370781.5
            ],
            [
              687312.5,
              6370780.5
            ],
            [
              687311.5,
              6370780.5
            ],
            [
              687309.5,
              6370780.5
            ],
            [
              687309.5,
              6370781.5
            ],
            [
              687308.5,
              6370781.5
            ],
            [
              687308.5,
              6370782.5
            ],
            [
              687307.5,
              6370782.5
            ]
          ],
          [
            [
              687308.5,
              6370782.5
            ],
            [
              687309.5,
              6370782.5
            ],
            [
              687309.5,
              6370782.951685666
            ],
            [
              687309.14,
              6370782.934
            ],
            [
              687308.6805936632,
              6370782.956569186
            ],
            [
              687308.5,
              6370782.983357726
            ],
            [
              687308.5,
              6370782.5
            ]
          ],
          [
            [
              687313.4702233688,
              6370785.8273627525
            ],
            [
              687313.273564966,
              6370785.411563495
            ],
            [
              687313.0370980728,
              6370785.017042318
            ],
            [
              687312.763099995,
              6370784.647598677
            ],
            [
              687312.6293243517,
              6370784.5
            ],
            [
              687313.5,
              6370784.5
            ],
            [
              687313.5,
              6370785.910582862
            ],
            [
              687313.4702233688,
              6370785.8273627525
            ]
          ],
          [
            [
              687312.4542094835,
              6370784.306790517
            ],
            [
              687312.1134013229,
              6370783.997900005
            ],
            [
              687311.7439576822,
              6370783.7239019275
            ],
            [
              687311.370399884,
              6370783.5
            ],
            [
              687312.5,
              6370783.5
            ],
            [
              687312.5,
              6370784.357312567
            ],
            [
              687312.4542094835,
              6370784.306790517
            ]
          ]
        ]
      },
      "properties": {
        "id": "tree-visby-000008",
        "action": "resize-crown",
        "scene": "gap-059",
        "reason": "Southern/eastern lobe continues tree-visby-000008 near the building. Keep only its nearest-crown portion and preserve the existing base.",
        "radiusBeforeMetres": 4.687,
        "radiusAfterMetres": 5.418,
        "sourceDates": {
          "rgbi": "2026-04-10",
          "lidar": [
            "2024-02-03",
            "2024-04-28"
          ],
          "seasonal": "2022; exact date unknown"
        },
        "sourcePositionUnchanged": true,
        "uncertaintyKind": "Interpreted crown extent; equivalent circular rendering radius, not measured stem accuracy.",
        "priorIssueIds": [
          "r5-canopy-cell-687300-6370700"
        ]
      }
    },
    {
      "type": "Feature",
      "geometry": {
        "type": "MultiPolygon",
        "coordinates": [
          [
            [
              [
                687332.5,
                6370828.5
              ],
              [
                687331.5,
                6370828.5
              ],
              [
                687331.5,
                6370829.5
              ],
              [
                687331.5880748078,
                6370829.5
              ],
              [
                687331.1795912168,
                6370829.95069219
              ],
              [
                687330.794929951,
                6370830.469347867
              ],
              [
                687330.4629580806,
                6370831.023209471
              ],
              [
                687330.186872676,
                6370831.606943015
              ],
              [
                687329.9693325908,
                6370832.214926824
              ],
              [
                687329.8124328549,
                6370832.8413056815
              ],
              [
                687329.7176844984,
                6370833.480047217
              ],
              [
                687329.686,
                6370834.125
              ],
              [
                687329.7176844984,
                6370834.769952783
              ],
              [
                687329.8124328549,
                6370835.4086943185
              ],
              [
                687329.9693325908,
                6370836.035073176
              ],
              [
                687330.186872676,
                6370836.643056985
              ],
              [
                687330.4629580806,
                6370837.226790529
              ],
              [
                687330.794929951,
                6370837.780652133
              ],
              [
                687331.1795912168,
                6370838.29930781
              ],
              [
                687331.6132373797,
                6370838.77776262
              ],
              [
                687332.0916921902,
                6370839.211408783
              ],
              [
                687332.6103478667,
                6370839.596070049
              ],
              [
                687333.1642094717,
                6370839.928041919
              ],
              [
                687333.747943015,
                6370840.204127324
              ],
              [
                687334.3559268236,
                6370840.421667409
              ],
              [
                687334.9823056811,
                6370840.578567145
              ],
              [
                687335.6210472166,
                6370840.673315502
              ],
              [
                687336.266,
                6370840.705
              ],
              [
                687336.9109527833,
                6370840.673315502
              ],
              [
                687337.5496943188,
                6370840.578567145
              ],
              [
                687338.1760731763,
                6370840.421667409
              ],
              [
                687338.7840569849,
                6370840.204127324
              ],
              [
                687339.3677905282,
                6370839.928041919
              ],
              [
                687339.9216521332,
                6370839.596070049
              ],
              [
                687340.4403078097,
                6370839.211408783
              ],
              [
                687340.9187626202,
                6370838.77776262
              ],
              [
                687341.352408783,
                6370838.29930781
              ],
              [
                687341.7370700489,
                6370837.780652133
              ],
              [
                687342.0690419193,
                6370837.226790529
              ],
              [
                687342.3451273239,
                6370836.643056985
              ],
              [
                687342.5626674091,
                6370836.035073176
              ],
              [
                687342.719567145,
                6370835.4086943185
              ],
              [
                687342.8143155015,
                6370834.769952783
              ],
              [
                687342.8459999999,
                6370834.125
              ],
              [
                687342.8143155015,
                6370833.480047217
              ],
              [
                687342.719567145,
                6370832.8413056815
              ],
              [
                687342.5626674091,
                6370832.214926824
              ],
              [
                687342.3451273239,
                6370831.606943015
              ],
              [
                687342.0690419193,
                6370831.023209471
              ],
              [
                687341.7554422304,
                6370830.5
              ],
              [
                687342.5,
                6370830.5
              ],
              [
                687342.5,
                6370828.5
              ],
              [
                687343.5,
                6370828.5
              ],
              [
                687343.5,
                6370826.5
              ],
              [
                687342.5,
                6370826.5
              ],
              [
                687342.5,
                6370825.5
              ],
              [
                687340.5,
                6370825.5
              ],
              [
                687340.5,
                6370826.5
              ],
              [
                687338.5,
                6370826.5
              ],
              [
                687338.5,
                6370824.5
              ],
              [
                687337.5,
                6370824.5
              ],
              [
                687337.5,
                6370825.5
              ],
              [
                687335.5,
                6370825.5
              ],
              [
                687335.5,
                6370826.5
              ],
              [
                687336.5,
                6370826.5
              ],
              [
                687336.5,
                6370827.5
              ],
              [
                687338.5,
                6370827.5
              ],
              [
                687338.5,
                6370827.944235462
              ],
              [
                687338.1760731763,
                6370827.828332591
              ],
              [
                687337.5496943188,
                6370827.671432855
              ],
              [
                687336.9109527833,
                6370827.576684498
              ],
              [
                687336.266,
                6370827.545
              ],
              [
                687335.6210472166,
                6370827.576684498
              ],
              [
                687334.9823056811,
                6370827.671432855
              ],
              [
                687334.3559268236,
                6370827.828332591
              ],
              [
                687333.747943015,
                6370828.045872676
              ],
              [
                687333.5,
                6370828.163140989
              ],
              [
                687333.5,
                6370827.5
              ],
              [
                687332.5,
                6370827.5
              ],
              [
                687332.5,
                6370828.5
              ]
            ],
            [
              [
                687332.5,
                6370828.5
              ],
              [
                687332.8671644746,
                6370828.5
              ],
              [
                687332.6103478667,
                6370828.653929951
              ],
              [
                687332.5,
                6370828.735769507
              ],
              [
                687332.5,
                6370828.5
              ]
            ],
            [
              [
                687341.352408783,
                6370829.95069219
              ],
              [
                687340.9439251921,
                6370829.5
              ],
              [
                687341.5,
                6370829.5
              ],
              [
                687341.5,
                6370830.14969591
              ],
              [
                687341.352408783,
                6370829.95069219
              ]
            ],
            [
              [
                687340.4403078097,
                6370829.038591217
              ],
              [
                687339.9216521332,
                6370828.653929951
              ],
              [
                687339.6648355253,
                6370828.5
              ],
              [
                687340.5,
                6370828.5
              ],
              [
                687340.5,
                6370829.092693065
              ],
              [
                687340.4403078097,
                6370829.038591217
              ]
            ]
          ],
          [
            [
              [
                687333.5,
                6370827.5
              ],
              [
                687335.5,
                6370827.5
              ],
              [
                687335.5,
                6370826.5
              ],
              [
                687334.5,
                6370826.5
              ],
              [
                687334.5,
                6370825.5
              ],
              [
                687333.5,
                6370825.5
              ],
              [
                687333.5,
                6370827.5
              ]
            ]
          ],
          [
            [
              [
                687343.5,
                6370828.5
              ],
              [
                687343.5,
                6370829.5
              ],
              [
                687344.5,
                6370829.5
              ],
              [
                687344.5,
                6370828.5
              ],
              [
                687343.5,
                6370828.5
              ]
            ]
          ]
        ]
      },
      "properties": {
        "id": "tree-visby-000017",
        "action": "resize-crown",
        "scene": "gap-073",
        "reason": "Southern lip is continuous with tree-visby-000017 above the entrance road. Enlarge crown estimate without moving its base into the road.",
        "radiusBeforeMetres": 6.58,
        "radiusAfterMetres": 7.177,
        "sourceDates": {
          "rgbi": "2026-04-10",
          "lidar": [
            "2024-02-03",
            "2024-04-28"
          ],
          "seasonal": "2022; exact date unknown"
        },
        "sourcePositionUnchanged": true,
        "uncertaintyKind": "Interpreted crown extent; equivalent circular rendering radius, not measured stem accuracy.",
        "priorIssueIds": [
          "r5-canopy-cell-687300-6370800"
        ]
      }
    },
    {
      "type": "Feature",
      "geometry": {
        "type": "Polygon",
        "coordinates": [
          [
            [
              687940.7211083602,
              6370908.509914298
            ],
            [
              687940.6347116819,
              6370908.024548389
            ],
            [
              687940.4916420141,
              6370907.548576612
            ],
            [
              687940.2932771947,
              6370907.086582836
            ],
            [
              687940.041527586,
              6370906.643016316
            ],
            [
              687939.7388176741,
              6370906.222148836
            ],
            [
              687939.3880627202,
              6370905.828033581
            ],
            [
              687938.9926406872,
              6370905.464466095
            ],
            [
              687938.5563597055,
              6370905.134947732
            ],
            [
              687938.083421398,
              6370904.842651941
            ],
            [
              687937.5783804208,
              6370904.590393677
            ],
            [
              687937.0461005941,
              6370904.380602337
            ],
            [
              687936.4917080635,
              6370904.215298317
            ],
            [
              687935.9205419323,
              6370904.096073598
            ],
            [
              687935.3381028417,
              6370904.024076365
            ],
            [
              687934.75,
              6370904.0
            ],
            [
              687934.1618971583,
              6370904.024076365
            ],
            [
              687933.5794580677,
              6370904.096073598
            ],
            [
              687933.5,
              6370904.112659605
            ],
            [
              687933.5,
              6370902.5
            ],
            [
              687932.5,
              6370902.5
            ],
            [
              687932.5,
              6370901.5
            ],
            [
              687929.5,
              6370901.5
            ],
            [
              687929.5,
              6370903.5
            ],
            [
              687928.5,
              6370903.5
            ],
            [
              687928.5,
              6370904.5
            ],
            [
              687926.5,
              6370904.5
            ],
            [
              687926.5,
              6370905.5
            ],
            [
              687928.5,
              6370905.5
            ],
            [
              687928.5,
              6370906.5
            ],
            [
              687926.5,
              6370906.5
            ],
            [
              687926.5,
              6370907.5
            ],
            [
              687926.5,
              6370908.5
            ],
            [
              687927.5,
              6370908.5
            ],
            [
              687927.5,
              6370909.5
            ],
            [
              687928.5,
              6370909.5
            ],
            [
              687928.5,
              6370907.5
            ],
            [
              687929.0292151734,
              6370907.5
            ],
            [
              687929.0083579859,
              6370907.548576612
            ],
            [
              687928.8652883181,
              6370908.024548389
            ],
            [
              687928.7788916398,
              6370908.509914298
            ],
            [
              687928.75,
              6370909.0
            ],
            [
              687928.7788916398,
              6370909.490085702
            ],
            [
              687928.8652883181,
              6370909.975451611
            ],
            [
              687929.0083579859,
              6370910.451423388
            ],
            [
              687929.2067228053,
              6370910.913417164
            ],
            [
              687929.458472414,
              6370911.356983684
            ],
            [
              687929.7611823259,
              6370911.777851164
            ],
            [
              687930.1119372798,
              6370912.171966419
            ],
            [
              687930.5073593128,
              6370912.535533905
            ],
            [
              687930.9436402945,
              6370912.865052268
            ],
            [
              687931.416578602,
              6370913.157348059
            ],
            [
              687931.9216195792,
              6370913.409606323
            ],
            [
              687932.4538994059,
              6370913.619397663
            ],
            [
              687933.0082919365,
              6370913.784701683
            ],
            [
              687933.5794580677,
              6370913.903926402
            ],
            [
              687934.1618971583,
              6370913.975923635
            ],
            [
              687934.75,
              6370914.0
            ],
            [
              687935.3381028417,
              6370913.975923635
            ],
            [
              687935.9205419323,
              6370913.903926402
            ],
            [
              687936.4917080635,
              6370913.784701683
            ],
            [
              687937.0461005941,
              6370913.619397663
            ],
            [
              687937.5783804208,
              6370913.409606323
            ],
            [
              687938.083421398,
              6370913.157348059
            ],
            [
              687938.5563597055,
              6370912.865052268
            ],
            [
              687938.9926406872,
              6370912.535533905
            ],
            [
              687939.3880627202,
              6370912.171966419
            ],
            [
              687939.7388176741,
              6370911.777851164
            ],
            [
              687940.041527586,
              6370911.356983684
            ],
            [
              687940.2932771947,
              6370910.913417164
            ],
            [
              687940.4916420141,
              6370910.451423388
            ],
            [
              687940.6347116819,
              6370909.975451611
            ],
            [
              687940.7211083602,
              6370909.490085702
            ],
            [
              687940.75,
              6370909.0
            ],
            [
              687940.7211083602,
              6370908.509914298
            ]
          ],
          [
            [
              687931.9216195792,
              6370904.590393677
            ],
            [
              687931.5,
              6370904.800984556
            ],
            [
              687931.5,
              6370904.5
            ],
            [
              687932.1509652277,
              6370904.5
            ],
            [
              687931.9216195792,
              6370904.590393677
            ]
          ],
          [
            [
              687930.1119372798,
              6370905.828033581
            ],
            [
              687929.7611823259,
              6370906.222148836
            ],
            [
              687929.5,
              6370906.585279156
            ],
            [
              687929.5,
              6370905.5
            ],
            [
              687930.4687120479,
              6370905.5
            ],
            [
              687930.1119372798,
              6370905.828033581
            ]
          ]
        ]
      },
      "properties": {
        "id": "tree-visby-000259",
        "action": "resize-crown",
        "scene": "gap-074",
        "reason": "Southwestern lip adjoins tree-visby-000259 beside the bunker. Retain the base and neighbouring small tree; enlarge only this crown estimate.",
        "radiusBeforeMetres": 5.473,
        "radiusAfterMetres": 6.107,
        "sourceDates": {
          "rgbi": "2026-04-10",
          "lidar": [
            "2024-02-03",
            "2024-04-28"
          ],
          "seasonal": "2022; exact date unknown"
        },
        "sourcePositionUnchanged": true,
        "uncertaintyKind": "Interpreted crown extent; equivalent circular rendering radius, not measured stem accuracy.",
        "priorIssueIds": [
          "r1-ref-hold16b-009",
          "r5-canopy-cell-687900-6370900"
        ]
      }
    },
    {
      "type": "Feature",
      "geometry": {
        "type": "Polygon",
        "coordinates": [
          [
            [
              688122.5,
              6371367.5
            ],
            [
              688121.5,
              6371367.5
            ],
            [
              688121.5,
              6371368.5
            ],
            [
              688119.5,
              6371368.5
            ],
            [
              688119.5,
              6371370.5
            ],
            [
              688118.5,
              6371370.5
            ],
            [
              688118.5,
              6371375.5
            ],
            [
              688120.5,
              6371375.5
            ],
            [
              688120.5,
              6371376.5
            ],
            [
              688121.5,
              6371376.5
            ],
            [
              688121.5,
              6371375.5
            ],
            [
              688122.5,
              6371375.5
            ],
            [
              688122.5,
              6371375.297400421
            ],
            [
              688122.6270194097,
              6371375.509319504
            ],
            [
              688123.0144867152,
              6371376.031758687
            ],
            [
              688123.4512962543,
              6371376.513703745
            ],
            [
              688123.9332413126,
              6371376.950513285
            ],
            [
              688124.4556804956,
              6371377.33798059
            ],
            [
              688125.0135824283,
              6371377.67237414
            ],
            [
              688125.6015742103,
              6371377.950473541
            ],
            [
              688126.2139931592,
              6371378.1696005445
            ],
            [
              688126.8449413457,
              6371378.327644838
            ],
            [
              688127.4883423939,
              6371378.423084368
            ],
            [
              688128.138,
              6371378.454999999
            ],
            [
              688128.7876576062,
              6371378.423084368
            ],
            [
              688129.4310586543,
              6371378.327644838
            ],
            [
              688130.0620068408,
              6371378.1696005445
            ],
            [
              688130.6744257897,
              6371377.950473541
            ],
            [
              688131.2624175717,
              6371377.67237414
            ],
            [
              688131.8203195045,
              6371377.33798059
            ],
            [
              688132.3427586874,
              6371376.950513285
            ],
            [
              688132.8247037458,
              6371376.513703745
            ],
            [
              688133.2615132849,
              6371376.031758687
            ],
            [
              688133.6489805904,
              6371375.509319504
            ],
            [
              688133.9833741401,
              6371374.951417571
            ],
            [
              688134.2614735415,
              6371374.363425789
            ],
            [
              688134.4806005453,
              6371373.751006841
            ],
            [
              688134.6386448386,
              6371373.120058654
            ],
            [
              688134.7340843685,
              6371372.476657606
            ],
            [
              688134.7660000001,
              6371371.827
            ],
            [
              688134.7340843685,
              6371371.177342393
            ],
            [
              688134.6386448386,
              6371370.533941345
            ],
            [
              688134.4806005453,
              6371369.902993158
            ],
            [
              688134.2614735415,
              6371369.29057421
            ],
            [
              688133.9833741401,
              6371368.702582428
            ],
            [
              688133.6489805904,
              6371368.144680495
            ],
            [
              688133.2615132849,
              6371367.622241312
            ],
            [
              688132.8247037458,
              6371367.140296254
            ],
            [
              688132.3427586874,
              6371366.7034867145
            ],
            [
              688131.8203195045,
              6371366.316019409
            ],
            [
              688131.2624175717,
              6371365.98162586
            ],
            [
              688130.6744257897,
              6371365.703526458
            ],
            [
              688130.0620068408,
              6371365.484399455
            ],
            [
              688129.4310586543,
              6371365.326355161
            ],
            [
              688128.7876576062,
              6371365.230915631
            ],
            [
              688128.138,
              6371365.199
            ],
            [
              688127.4883423939,
              6371365.230915631
            ],
            [
              688126.8449413457,
              6371365.326355161
            ],
            [
              688126.2139931592,
              6371365.484399455
            ],
            [
              688125.6015742103,
              6371365.703526458
            ],
            [
              688125.0135824283,
              6371365.98162586
            ],
            [
              688124.5,
              6371366.289455321
            ],
            [
              688124.5,
              6371365.5
            ],
            [
              688123.5,
              6371365.5
            ],
            [
              688123.5,
              6371366.5
            ],
            [
              688122.5,
              6371366.5
            ],
            [
              688122.5,
              6371367.5
            ]
          ],
          [
            [
              688122.5,
              6371367.5
            ],
            [
              688123.1252797822,
              6371367.5
            ],
            [
              688123.0144867152,
              6371367.622241312
            ],
            [
              688122.6270194097,
              6371368.144680495
            ],
            [
              688122.5,
              6371368.356599578
            ],
            [
              688122.5,
              6371367.5
            ]
          ],
          [
            [
              688123.5,
              6371366.5
            ],
            [
              688124.2076113858,
              6371366.5
            ],
            [
              688123.9332413126,
              6371366.7034867145
            ],
            [
              688123.5,
              6371367.096153752
            ],
            [
              688123.5,
              6371366.5
            ]
          ],
          [
            [
              688121.7953994548,
              6371369.902993158
            ],
            [
              688121.6373551615,
              6371370.533941345
            ],
            [
              688121.5419156316,
              6371371.177342393
            ],
            [
              688121.51,
              6371371.827
            ],
            [
              688121.5419156316,
              6371372.476657606
            ],
            [
              688121.6373551615,
              6371373.120058654
            ],
            [
              688121.7953994548,
              6371373.751006841
            ],
            [
              688122.0145264586,
              6371374.363425789
            ],
            [
              688122.0791212495,
              6371374.5
            ],
            [
              688121.5,
              6371374.5
            ],
            [
              688121.5,
              6371369.5
            ],
            [
              688121.9395927126,
              6371369.5
            ],
            [
              688121.7953994548,
              6371369.902993158
            ]
          ]
        ]
      },
      "properties": {
        "id": "tree-visby-000357",
        "action": "resize-crown",
        "scene": "gap-078",
        "reason": "Western lip continues tree-visby-000357, with consistent LiDAR and seasonal crown context. Enlarge its crown estimate, keeping its original position.",
        "radiusBeforeMetres": 6.628,
        "radiusAfterMetres": 7.184,
        "sourceDates": {
          "rgbi": "2026-04-10",
          "lidar": [
            "2024-02-03",
            "2024-04-28"
          ],
          "seasonal": "2022; exact date unknown"
        },
        "sourcePositionUnchanged": true,
        "uncertaintyKind": "Interpreted crown extent; equivalent circular rendering radius, not measured stem accuracy.",
        "priorIssueIds": [
          "r5-canopy-cell-688100-6371300"
        ]
      }
    }
  ]
}
