{
  "type": "FeatureCollection",
  "crs": {
    "type": "name",
    "properties": {
      "name": "EPSG:3006"
    }
  },
  "features": [
    {
      "type": "Feature",
      "geometry": {
        "type": "Polygon",
        "coordinates": [
          [
            [
              687562.2648884293,
              6370641.398884294
            ],
            [
              687560.0785900474,
              6370641.699085985
            ],
            [
              687540.0785900474,
              6370645.199085985
            ],
            [
              687539.921905582,
              6370645.230404057
            ],
            [
              687448.6116676517,
              6370595.224970236
            ],
            [
              687315.0316966563,
              6370609.754053399
            ],
            [
              687210.7378723581,
              6370678.321900585
            ],
            [
              687087.8695829065,
              6370732.527164243
            ],
            [
              687076.1035647502,
              6370893.645074209
            ],
            [
              687107.4886064448,
              6370999.98520421
            ],
            [
              687215.8646438781,
              6371012.85568779
            ],
            [
              687238.7943775941,
              6371015.023978935
            ],
            [
              687262.6747169376,
              6371010.502166188
            ],
            [
              687263.7267108145,
              6371032.48031992
            ],
            [
              687268.2043563972,
              6371055.128735064
            ],
            [
              687268.0770394352,
              6371135.472765234
            ],
            [
              687259.6555186163,
              6371321.483711008
            ],
            [
              687230.0532235648,
              6371471.636595459
            ],
            [
              687254.9820295323,
              6371661.744404726
            ],
            [
              687269.4696338641,
              6371781.469155434
            ],
            [
              687280.227807799,
              6371933.922977983
            ],
            [
              687367.8111455229,
              6371989.725481339
            ],
            [
              687463.9694084456,
              6371956.6886105295
            ],
            [
              687509.7657479361,
              6371926.386185199
            ],
            [
              687687.6380775785,
              6371844.470645735
            ],
            [
              687794.5692294776,
              6371704.204906439
            ],
            [
              687854.1343380632,
              6371782.897627424
            ],
            [
              687932.8110040042,
              6371847.354847343
            ],
            [
              688004.4663478523,
              6371741.946688726
            ],
            [
              688087.8772926407,
              6371524.655465976
            ],
            [
              688146.3406987793,
              6371403.778692614
            ],
            [
              688238.5877526352,
              6371280.337841271
            ],
            [
              688243.7126061032,
              6371225.219581112
            ],
            [
              688245.975148437,
              6371206.560258517
            ],
            [
              688250.115748062,
              6371172.490523593
            ],
            [
              688254.124611053,
              6371139.451566255
            ],
            [
              688432.1488042905,
              6370912.980106366
            ],
            [
              688163.5722235737,
              6370781.867894713
            ],
            [
              688150.4708467029,
              6370587.069579383
            ],
            [
              687956.6771365581,
              6370545.228023099
            ],
            [
              687802.5466282764,
              6370516.74000113
            ],
            [
              687701.0567225219,
              6370588.658394501
            ],
            [
              687634.5409779358,
              6370616.712521875
            ],
            [
              687572.7031623367,
              6370640.355056902
            ],
            [
              687562.2648884293,
              6370641.398884294
            ]
          ]
        ]
      },
      "properties": {
        "id": "visby-full-facility-review",
        "role": "review-scope-not-legal-property-boundary",
        "areaMetres2": 1237266.2303725102,
        "source": "geo_data/course-v2/visby/reference/osm-golf-epsg3006.geojson",
        "sourceSha256": "1c4e80f4aaea71035d97feeb3cefe01d0fbc8845291a605911c316c14d6875fe",
        "osmProperties": {
          "osmType": "way",
          "osmId": "199830330",
          "osmVersion": "6",
          "osmTimestamp": "2024-08-27T15:29:47Z",
          "sourceId": "visby-osm-2026-09-07",
          "reviewStatus": "unreviewed-supplementary",
          "tags": {
            "description": "18 hole Par 72 & 9 hole Par 36",
            "golf:course": "27_hole",
            "golf:par": "72 + 36",
            "leisure": "golf_course",
            "name": "Visby Golfklubb",
            "phone": "+46 498 200930",
            "website": "https://www.visbygk.com/"
          }
        },
        "review": "Agent inspected retained 2022 whole-facility image and checked all 13 inventoried club facilities plus retained playing/practice corridor.",
        "adjustment": "Union with earlier corridor preserves a small shoreline margin; no previous coverage is discarded.",
        "includes": "Main 18 holes, supplementary golf land/short-course areas, clubhouse, driving range, practice areas, service buildings, woodland and connecting land.",
        "limitation": "Cartographic review extent, not a cadastral or surveyed boundary."
      }
    }
  ]
}
