{
  "type": "FeatureCollection",
  "name": "Lidingo ground clipped water break geometry",
  "crs": {
    "type": "name",
    "properties": {
      "name": "EPSG:3006"
    }
  },
  "coordinateOrder": [
    "easting",
    "northing",
    "heightRH2000"
  ],
  "verticalCrs": "EPSG:5613",
  "licence": "CC-BY-4.0",
  "attribution": "Markhojdmodell Nedladdning, © Lantmateriet, processed data, CC BY 4.0.",
  "features": [
    {
      "type": "Feature",
      "id": "lm-658-67-water-14",
      "properties": {
        "sourceId": "water-breaks-lm-1m",
        "sourceItemId": "658_67",
        "sourceFid": 14,
        "sourceClassification": 1,
        "heightRH2000": 0.1,
        "kind": "flattened-water-surface",
        "geometryUse": "source-derived-candidate",
        "reviewStatus": "source-topology-checked-not-field-reviewed",
        "clipBoundaryIsShore": false,
        "bathymetry": null
      },
      "geometry": {
        "type": "MultiPolygon",
        "coordinates": [
          [
            [
              [
                678723.5,
                6587299.05,
                0.1
              ],
              [
                678720.47,
                6587292.55,
                0.1
              ],
              [
                678719.18,
                6587291.87,
                0.1
              ],
              [
                678715.68,
                6587291.08,
                0.1
              ],
              [
                678712.52,
                6587292.59,
                0.1
              ],
              [
                678708.38,
                6587298.1,
                0.1
              ],
              [
                678705.44,
                6587299.41,
                0.1
              ],
              [
                678704.93,
                6587299.87,
                0.1
              ],
              [
                678698.44,
                6587303.76,
                0.1
              ],
              [
                678686.15,
                6587309.69,
                0.1
              ],
              [
                678675.8,
                6587315.22,
                0.1
              ],
              [
                678672.12,
                6587319.9,
                0.1
              ],
              [
                678670.74,
                6587321.96,
                0.1
              ],
              [
                678668.92,
                6587328.65,
                0.1
              ],
              [
                678664.4,
                6587333.1,
                0.1
              ],
              [
                678660.66,
                6587332.49,
                0.1
              ],
              [
                678659.0,
                6587333.25,
                0.1
              ],
              [
                678654.03,
                6587333.95,
                0.1
              ],
              [
                678651.05,
                6587333.47,
                0.1
              ],
              [
                678649.5,
                6587334.21,
                0.1
              ],
              [
                678647.16,
                6587338.79,
                0.1
              ],
              [
                678648.6,
                6587342.42,
                0.1
              ],
              [
                678648.2,
                6587347.41,
                0.1
              ],
              [
                678648.03,
                6587351.42,
                0.1
              ],
              [
                678646.3,
                6587356.31,
                0.1
              ],
              [
                678645.15,
                6587360.63,
                0.1
              ],
              [
                678644.96,
                6587364.66,
                0.1
              ],
              [
                678643.36,
                6587368.08,
                0.1
              ],
              [
                678633.36,
                6587376.01,
                0.1
              ],
              [
                678631.32,
                6587381.23,
                0.1
              ],
              [
                678629.54,
                6587387.7,
                0.1
              ],
              [
                678627.45,
                6587396.37,
                0.1
              ],
              [
                678628.21,
                6587404.08,
                0.1
              ],
              [
                678623.92,
                6587418.65,
                0.1
              ],
              [
                678619.6080809599,
                6587423.5,
                0.1
              ],
              [
                678724.5,
                6587423.5,
                0.09999999999999672
              ],
              [
                678724.5,
                6587301.649277979,
                0.1
              ],
              [
                678723.5,
                6587299.05,
                0.1
              ]
            ]
          ],
          [
            [
              [
                676676.63,
                6585917.06,
                0.1
              ],
              [
                676698.03,
                6585908.1,
                0.1
              ],
              [
                676706.03,
                6585901.51,
                0.1
              ],
              [
                676713.03,
                6585898.1,
                0.1
              ],
              [
                676726.03,
                6585886.51,
                0.1
              ],
              [
                676735.54,
                6585880.97,
                0.1
              ],
              [
                676735.79,
                6585880.7,
                0.1
              ],
              [
                676736.61,
                6585878.75,
                0.1
              ],
              [
                676737.34,
                6585870.74,
                0.1
              ],
              [
                676737.99,
                6585863.62,
                0.1
              ],
              [
                676738.04,
                6585862.0,
                0.1
              ],
              [
                676733.12,
                6585852.25,
                0.1
              ],
              [
                676731.96,
                6585850.9,
                0.1
              ],
              [
                676716.48,
                6585834.02,
                0.1
              ],
              [
                676715.71,
                6585830.07,
                0.1
              ],
              [
                676719.51,
                6585814.83,
                0.1
              ],
              [
                676719.51,
                6585795.33,
                0.1
              ],
              [
                676716.81,
                6585781.07,
                0.1
              ],
              [
                676726.09,
                6585741.51,
                0.1
              ],
              [
                676729.52,
                6585734.85,
                0.1
              ],
              [
                676731.63,
                6585732.06,
                0.1
              ],
              [
                676743.03,
                6585728.05,
                0.1
              ],
              [
                676763.5,
                6585713.67,
                0.1
              ],
              [
                676765.92,
                6585710.74,
                0.1
              ],
              [
                676765.14,
                6585708.53,
                0.1
              ],
              [
                676767.5,
                6585705.84,
                0.1
              ],
              [
                676767.43,
                6585701.67,
                0.1
              ],
              [
                676777.45,
                6585697.52,
                0.1
              ],
              [
                676781.64,
                6585687.06,
                0.1
              ],
              [
                676789.63,
                6585682.5,
                0.1
              ],
              [
                676793.24,
                6585679.91,
                0.1
              ],
              [
                676790.52,
                6585673.29,
                0.1
              ],
              [
                676792.49,
                6585672.73,
                0.1
              ],
              [
                676792.43,
                6585671.64,
                0.1
              ],
              [
                676801.66,
                6585662.09,
                0.1
              ],
              [
                676805.03,
                6585660.8,
                0.1
              ],
              [
                676808.54,
                6585661.25,
                0.1
              ],
              [
                676814.61,
                6585666.19,
                0.1
              ],
              [
                676823.1,
                6585667.76,
                0.1
              ],
              [
                676825.89,
                6585667.03,
                0.1
              ],
              [
                676843.73,
                6585660.07,
                0.1
              ],
              [
                676848.55,
                6585670.41,
                0.1
              ],
              [
                676854.45,
                6585668.15,
                0.1
              ],
              [
                676856.82,
                6585672.2,
                0.1
              ],
              [
                676860.05,
                6585670.3,
                0.1
              ],
              [
                676860.85,
                6585671.43,
                0.1
              ],
              [
                676890.51,
                6585655.23,
                0.1
              ],
              [
                676897.41,
                6585656.32,
                0.1
              ],
              [
                676897.86,
                6585663.2,
                0.1
              ],
              [
                676903.08,
                6585663.11,
                0.1
              ],
              [
                676907.28,
                6585660.99,
                0.1
              ],
              [
                676910.03,
                6585658.03,
                0.1
              ],
              [
                676916.92,
                6585651.14,
                0.1
              ],
              [
                676921.27,
                6585646.03,
                0.1
              ],
              [
                676924.49,
                6585639.64,
                0.1
              ],
              [
                676922.98,
                6585622.05,
                0.1
              ],
              [
                676908.51,
                6585597.86,
                0.1
              ],
              [
                676904.59,
                6585594.39,
                0.1
              ],
              [
                676896.97,
                6585588.47,
                0.1
              ],
              [
                676895.37,
                6585585.6,
                0.1
              ],
              [
                676893.68,
                6585584.05,
                0.1
              ],
              [
                676893.37,
                6585582.04,
                0.1
              ],
              [
                676891.93,
                6585579.47,
                0.1
              ],
              [
                676891.53,
                6585570.0,
                0.1
              ],
              [
                676891.44,
                6585569.36,
                0.1
              ],
              [
                676891.49,
                6585568.98,
                0.1
              ],
              [
                676891.18,
                6585561.54,
                0.1
              ],
              [
                676893.15,
                6585557.64,
                0.1
              ],
              [
                676893.59,
                6585554.61,
                0.1
              ],
              [
                676896.26,
                6585549.17,
                0.1
              ],
              [
                676898.39,
                6585543.82,
                0.1
              ],
              [
                676899.17,
                6585540.24,
                0.1
              ],
              [
                676897.98,
                6585537.45,
                0.1
              ],
              [
                676897.46,
                6585535.78,
                0.1
              ],
              [
                676898.06,
                6585533.31,
                0.1
              ],
              [
                676899.6,
                6585532.1,
                0.1
              ],
              [
                676902.66,
                6585531.33,
                0.1
              ],
              [
                676904.42,
                6585529.9,
                0.1
              ],
              [
                676917.93,
                6585503.15,
                0.1
              ],
              [
                676921.08,
                6585491.51,
                0.1
              ],
              [
                676926.08,
                6585481.5,
                0.1
              ],
              [
                676932.94,
                6585473.16,
                0.1
              ],
              [
                676941.08,
                6585456.5,
                0.1
              ],
              [
                676947.92,
                6585448.15,
                0.1
              ],
              [
                676951.09,
                6585436.51,
                0.1
              ],
              [
                676953.53,
                6585433.7,
                0.1
              ],
              [
                676955.61,
                6585432.05,
                0.1
              ],
              [
                676963.61,
                6585432.65,
                0.1
              ],
              [
                676973.03,
                6585428.1,
                0.1
              ],
              [
                676977.56,
                6585423.77,
                0.1
              ],
              [
                676977.48,
                6585416.69,
                0.1
              ],
              [
                676988.08,
                6585417.14,
                0.1
              ],
              [
                676991.68,
                6585407.11,
                0.1
              ],
              [
                676995.03,
                6585405.8,
                0.1
              ],
              [
                677003.61,
                6585407.65,
                0.1
              ],
              [
                677016.05,
                6585401.48,
                0.1
              ],
              [
                677029.12,
                6585399.06,
                0.1
              ],
              [
                677032.44,
                6585397.51,
                0.1
              ],
              [
                677036.22,
                6585387.63,
                0.1
              ],
              [
                677048.08,
                6585388.1,
                0.1
              ],
              [
                677057.91,
                6585378.13,
                0.1
              ],
              [
                677058.4091696322,
                6585375.5,
                0.1
              ],
              [
                676676.5,
                6585375.5,
                0.10000000000000081
              ],
              [
                676676.5,
                6585917.2328125,
                0.1
              ],
              [
                676676.63,
                6585917.06,
                0.1
              ]
            ]
          ],
          [
            [
              [
                677126.93,
                6585378.01,
                0.1
              ],
              [
                677130.73,
                6585379.06,
                0.1
              ],
              [
                677139.27,
                6585379.09,
                0.1
              ],
              [
                677151.8269506722,
                6585375.5,
                0.1
              ],
              [
                677124.430224033,
                6585375.5,
                0.1
              ],
              [
                677126.93,
                6585378.01,
                0.1
              ]
            ]
          ]
        ]
      }
    },
    {
      "type": "Feature",
      "id": "lm-658-67-water-44",
      "properties": {
        "sourceId": "water-breaks-lm-1m",
        "sourceItemId": "658_67",
        "sourceFid": 44,
        "sourceClassification": 1,
        "heightRH2000": 4.72,
        "kind": "flattened-water-surface",
        "geometryUse": "source-derived-candidate",
        "reviewStatus": "source-topology-checked-not-field-reviewed",
        "clipBoundaryIsShore": false,
        "bathymetry": null
      },
      "geometry": {
        "type": "Polygon",
        "coordinates": [
          [
            [
              678032.49,
              6585881.9,
              4.72
            ],
            [
              678027.89,
              6585884.31,
              4.72
            ],
            [
              678023.1,
              6585888.02,
              4.72
            ],
            [
              678019.37,
              6585889.06,
              4.72
            ],
            [
              678018.62,
              6585888.94,
              4.72
            ],
            [
              678018.07,
              6585889.1,
              4.72
            ],
            [
              678016.27,
              6585888.68,
              4.72
            ],
            [
              678014.21,
              6585888.38,
              4.72
            ],
            [
              678014.0,
              6585888.2,
              4.72
            ],
            [
              678002.62,
              6585886.39,
              4.72
            ],
            [
              678001.86,
              6585889.09,
              4.72
            ],
            [
              678007.94,
              6585897.0,
              4.72
            ],
            [
              678013.99,
              6585910.71,
              4.72
            ],
            [
              678013.23,
              6585916.47,
              4.72
            ],
            [
              678013.39,
              6585917.84,
              4.72
            ],
            [
              678011.72,
              6585923.2,
              4.72
            ],
            [
              678009.33,
              6585926.3,
              4.72
            ],
            [
              678005.16,
              6585935.58,
              4.72
            ],
            [
              678006.12,
              6585943.62,
              4.72
            ],
            [
              678011.07,
              6585948.61,
              4.72
            ],
            [
              678017.47,
              6585949.65,
              4.72
            ],
            [
              678021.35,
              6585948.67,
              4.72
            ],
            [
              678024.27,
              6585946.27,
              4.72
            ],
            [
              678028.24,
              6585939.59,
              4.72
            ],
            [
              678028.35,
              6585939.39,
              4.72
            ],
            [
              678028.9,
              6585933.73,
              4.72
            ],
            [
              678026.03,
              6585924.36,
              4.72
            ],
            [
              678026.03,
              6585923.47,
              4.72
            ],
            [
              678025.45,
              6585922.27,
              4.72
            ],
            [
              678026.02,
              6585919.92,
              4.72
            ],
            [
              678026.01,
              6585915.84,
              4.72
            ],
            [
              678027.53,
              6585912.61,
              4.72
            ],
            [
              678033.03,
              6585908.45,
              4.72
            ],
            [
              678041.97,
              6585887.05,
              4.72
            ],
            [
              678042.06,
              6585886.67,
              4.72
            ],
            [
              678041.39,
              6585884.52,
              4.72
            ],
            [
              678037.93,
              6585881.95,
              4.72
            ],
            [
              678032.49,
              6585881.9,
              4.72
            ]
          ]
        ]
      }
    },
    {
      "type": "Feature",
      "id": "lm-658-67-water-45",
      "properties": {
        "sourceId": "water-breaks-lm-1m",
        "sourceItemId": "658_67",
        "sourceFid": 45,
        "sourceClassification": 1,
        "heightRH2000": 14.05,
        "kind": "flattened-water-surface",
        "geometryUse": "source-derived-candidate",
        "reviewStatus": "source-topology-checked-not-field-reviewed",
        "clipBoundaryIsShore": false,
        "bathymetry": null
      },
      "geometry": {
        "type": "Polygon",
        "coordinates": [
          [
            [
              677524.62,
              6586125.05,
              14.05
            ],
            [
              677526.94,
              6586122.16,
              14.05
            ],
            [
              677538.58,
              6586119.0,
              14.05
            ],
            [
              677543.62,
              6586114.95,
              14.05
            ],
            [
              677545.03,
              6586111.28,
              14.05
            ],
            [
              677545.96,
              6586105.19,
              14.05
            ],
            [
              677544.84,
              6586099.36,
              14.05
            ],
            [
              677541.65,
              6586095.25,
              14.05
            ],
            [
              677536.66,
              6586093.82,
              14.05
            ],
            [
              677531.32,
              6586095.06,
              14.05
            ],
            [
              677526.45,
              6586095.21,
              14.05
            ],
            [
              677522.19,
              6586093.17,
              14.05
            ],
            [
              677518.17,
              6586092.47,
              14.05
            ],
            [
              677511.13,
              6586093.97,
              14.05
            ],
            [
              677506.04,
              6586096.67,
              14.05
            ],
            [
              677500.0,
              6586100.34,
              14.05
            ],
            [
              677498.77,
              6586101.09,
              14.05
            ],
            [
              677493.82,
              6586106.22,
              14.05
            ],
            [
              677493.8,
              6586106.26,
              14.05
            ],
            [
              677491.43,
              6586111.27,
              14.05
            ],
            [
              677491.18,
              6586118.61,
              14.05
            ],
            [
              677500.0,
              6586127.6,
              14.05
            ],
            [
              677501.03,
              6586128.65,
              14.05
            ],
            [
              677515.0,
              6586134.36,
              14.05
            ],
            [
              677517.98,
              6586133.34,
              14.05
            ],
            [
              677521.8,
              6586128.58,
              14.05
            ],
            [
              677522.15,
              6586127.82,
              14.05
            ],
            [
              677524.32,
              6586125.13,
              14.05
            ],
            [
              677524.62,
              6586125.05,
              14.05
            ]
          ]
        ]
      }
    },
    {
      "type": "Feature",
      "id": "lm-658-67-water-46",
      "properties": {
        "sourceId": "water-breaks-lm-1m",
        "sourceItemId": "658_67",
        "sourceFid": 46,
        "sourceClassification": 1,
        "heightRH2000": 22.35,
        "kind": "flattened-water-surface",
        "geometryUse": "source-derived-candidate",
        "reviewStatus": "source-topology-checked-not-field-reviewed",
        "clipBoundaryIsShore": false,
        "bathymetry": null
      },
      "geometry": {
        "type": "Polygon",
        "coordinates": [
          [
            [
              677730.33,
              6586744.85,
              22.35
            ],
            [
              677726.91,
              6586748.37,
              22.35
            ],
            [
              677724.0,
              6586752.37,
              22.35
            ],
            [
              677721.33,
              6586756.62,
              22.35
            ],
            [
              677719.93,
              6586762.09,
              22.35
            ],
            [
              677719.59,
              6586763.9,
              22.35
            ],
            [
              677719.51,
              6586765.08,
              22.35
            ],
            [
              677723.52,
              6586780.05,
              22.35
            ],
            [
              677719.81,
              6586794.13,
              22.35
            ],
            [
              677719.62,
              6586795.32,
              22.35
            ],
            [
              677721.67,
              6586803.06,
              22.35
            ],
            [
              677727.12,
              6586806.92,
              22.35
            ],
            [
              677727.48,
              6586813.46,
              22.35
            ],
            [
              677730.63,
              6586814.87,
              22.35
            ],
            [
              677738.55,
              6586813.97,
              22.35
            ],
            [
              677743.56,
              6586809.04,
              22.35
            ],
            [
              677747.04,
              6586797.06,
              22.35
            ],
            [
              677758.5,
              6586784.11,
              22.35
            ],
            [
              677758.55,
              6586784.02,
              22.35
            ],
            [
              677758.75,
              6586783.5,
              22.35
            ],
            [
              677763.91,
              6586768.63,
              22.35
            ],
            [
              677764.98,
              6586760.56,
              22.35
            ],
            [
              677763.9,
              6586756.54,
              22.35
            ],
            [
              677758.97,
              6586751.52,
              22.35
            ],
            [
              677746.98,
              6586748.05,
              22.35
            ],
            [
              677735.98,
              6586742.78,
              22.35
            ],
            [
              677733.51,
              6586742.58,
              22.35
            ],
            [
              677730.33,
              6586744.85,
              22.35
            ]
          ]
        ]
      }
    },
    {
      "type": "Feature",
      "id": "lm-658-67-water-47",
      "properties": {
        "sourceId": "water-breaks-lm-1m",
        "sourceItemId": "658_67",
        "sourceFid": 47,
        "sourceClassification": 1,
        "heightRH2000": 26.02,
        "kind": "flattened-water-surface",
        "geometryUse": "source-derived-candidate",
        "reviewStatus": "source-topology-checked-not-field-reviewed",
        "clipBoundaryIsShore": false,
        "bathymetry": null
      },
      "geometry": {
        "type": "Polygon",
        "coordinates": [
          [
            [
              677787.04,
              6587058.23,
              26.02
            ],
            [
              677792.67,
              6587055.2,
              26.02
            ],
            [
              677801.5,
              6587047.12,
              26.02
            ],
            [
              677802.45,
              6587045.76,
              26.02
            ],
            [
              677808.34,
              6587039.23,
              26.02
            ],
            [
              677811.44,
              6587034.41,
              26.02
            ],
            [
              677814.77,
              6587030.71,
              26.02
            ],
            [
              677819.05,
              6587029.54,
              26.02
            ],
            [
              677829.38,
              6587026.74,
              26.02
            ],
            [
              677835.19,
              6587030.59,
              26.02
            ],
            [
              677848.39,
              6587029.0,
              26.02
            ],
            [
              677848.79,
              6587028.81,
              26.02
            ],
            [
              677849.98,
              6587027.95,
              26.02
            ],
            [
              677860.93,
              6587014.3,
              26.02
            ],
            [
              677868.35,
              6587006.72,
              26.02
            ],
            [
              677871.56,
              6586990.86,
              26.02
            ],
            [
              677873.55,
              6586985.26,
              26.02
            ],
            [
              677875.55,
              6586972.77,
              26.02
            ],
            [
              677875.49,
              6586962.87,
              26.02
            ],
            [
              677873.15,
              6586954.55,
              26.02
            ],
            [
              677866.62,
              6586942.64,
              26.02
            ],
            [
              677859.24,
              6586935.23,
              26.02
            ],
            [
              677858.01,
              6586934.79,
              26.02
            ],
            [
              677850.41,
              6586932.05,
              26.02
            ],
            [
              677836.39,
              6586931.4,
              26.02
            ],
            [
              677830.13,
              6586931.4,
              26.02
            ],
            [
              677826.15,
              6586929.82,
              26.02
            ],
            [
              677822.04,
              6586928.49,
              26.02
            ],
            [
              677814.76,
              6586928.85,
              26.02
            ],
            [
              677813.37,
              6586929.11,
              26.02
            ],
            [
              677806.02,
              6586943.86,
              26.02
            ],
            [
              677806.08,
              6586949.73,
              26.02
            ],
            [
              677806.08,
              6586950.07,
              26.02
            ],
            [
              677809.02,
              6586964.42,
              26.02
            ],
            [
              677805.15,
              6586975.45,
              26.02
            ],
            [
              677802.98,
              6586988.1,
              26.02
            ],
            [
              677802.53,
              6586988.84,
              26.02
            ],
            [
              677800.7,
              6586994.48,
              26.02
            ],
            [
              677794.42,
              6587002.21,
              26.02
            ],
            [
              677793.6,
              6587003.57,
              26.02
            ],
            [
              677791.71,
              6587004.85,
              26.02
            ],
            [
              677778.38,
              6587017.03,
              26.02
            ],
            [
              677771.05,
              6587023.71,
              26.02
            ],
            [
              677767.2,
              6587028.78,
              26.02
            ],
            [
              677768.64,
              6587031.94,
              26.02
            ],
            [
              677773.5,
              6587046.06,
              26.02
            ],
            [
              677779.65,
              6587058.21,
              26.02
            ],
            [
              677782.64,
              6587059.15,
              26.02
            ],
            [
              677787.04,
              6587058.23,
              26.02
            ]
          ]
        ]
      }
    }
  ]
}
