{
  "type": "FeatureCollection",
  "name": "Lidingö GK supplementary OSM evidence, 2026-09-07",
  "licence": "ODbL-1.0",
  "attribution": "© OpenStreetMap contributors",
  "features": [
    {
      "type": "Feature",
      "id": "way/4874892",
      "properties": {
        "osmType": "way",
        "osmId": "4874892",
        "osmVersion": "15",
        "osmTimestamp": "2018-09-07T21:41:21Z",
        "sourceId": "lidingo-osm-2026-09-07",
        "reviewStatus": "unreviewed-supplementary",
        "tags": {
          "note": "golf_course outer"
        },
        "boundaryRelation": "3942404"
      },
      "geometry": {
        "type": "Polygon",
        "coordinates": [
          [
            [
              18.1268052,
              59.3786915
            ],
            [
              18.1269423,
              59.378474
            ],
            [
              18.1270877,
              59.3776997
            ],
            [
              18.1271306,
              59.3773412
            ],
            [
              18.1273972,
              59.3764629
            ],
            [
              18.1279124,
              59.3764749
            ],
            [
              18.1279897,
              59.376453
            ],
            [
              18.1279566,
              59.3762661
            ],
            [
              18.1279124,
              59.3760158
            ],
            [
              18.1279983,
              59.3757447
            ],
            [
              18.1279123,
              59.3757283
            ],
            [
              18.1276292,
              59.3757609
            ],
            [
              18.1272721,
              59.3756834
            ],
            [
              18.1275509,
              59.37538
            ],
            [
              18.1271821,
              59.3752994
            ],
            [
              18.1243754,
              59.3755398
            ],
            [
              18.1236209,
              59.3756267
            ],
            [
              18.1229525,
              59.3767467
            ],
            [
              18.1218573,
              59.3771761
            ],
            [
              18.1214032,
              59.3771113
            ],
            [
              18.1210604,
              59.3769388
            ],
            [
              18.1204566,
              59.3767815
            ],
            [
              18.1202434,
              59.3768366
            ],
            [
              18.1202549,
              59.3769339
            ],
            [
              18.1208278,
              59.3772354
            ],
            [
              18.1215671,
              59.3775037
            ],
            [
              18.122125,
              59.3776584
            ],
            [
              18.1219788,
              59.377688
            ],
            [
              18.1216017,
              59.3775809
            ],
            [
              18.1213887,
              59.3777415
            ],
            [
              18.1222553,
              59.3791621
            ],
            [
              18.1221365,
              59.3793222
            ],
            [
              18.1214733,
              59.3799563
            ],
            [
              18.1201493,
              59.3813205
            ],
            [
              18.1201145,
              59.3815869
            ],
            [
              18.1205825,
              59.3816468
            ],
            [
              18.1212949,
              59.3814282
            ],
            [
              18.1218871,
              59.3808861
            ],
            [
              18.1219555,
              59.3805723
            ],
            [
              18.1221961,
              59.3802741
            ],
            [
              18.1228567,
              59.3800368
            ],
            [
              18.1234897,
              59.3796761
            ],
            [
              18.1237961,
              59.3791823
            ],
            [
              18.1241023,
              59.379118
            ],
            [
              18.1248105,
              59.3791343
            ],
            [
              18.1249382,
              59.3790434
            ],
            [
              18.1252944,
              59.3790606
            ],
            [
              18.1254207,
              59.378961
            ],
            [
              18.1259469,
              59.3788708
            ],
            [
              18.1263417,
              59.379015
            ],
            [
              18.1266078,
              59.3788882
            ],
            [
              18.1268052,
              59.3786915
            ]
          ]
        ]
      }
    },
    {
      "type": "Feature",
      "id": "way/4874914",
      "properties": {
        "osmType": "way",
        "osmId": "4874914",
        "osmVersion": "28",
        "osmTimestamp": "2026-04-07T14:17:12Z",
        "sourceId": "lidingo-osm-2026-09-07",
        "reviewStatus": "unreviewed-supplementary",
        "tags": {
          "note": "golf_course outer",
          "sport": "golf"
        },
        "boundaryRelation": "3942404"
      },
      "geometry": {
        "type": "Polygon",
        "coordinates": [
          [
            [
              18.1189002,
              59.3841559
            ],
            [
              18.1191193,
              59.3842017
            ],
            [
              18.119398,
              59.3844925
            ],
            [
              18.12003,
              59.3840949
            ],
            [
              18.1202349,
              59.3838904
            ],
            [
              18.1207112,
              59.3836664
            ],
            [
              18.1222991,
              59.3833473
            ],
            [
              18.1230115,
              59.3831505
            ],
            [
              18.1234146,
              59.3829001
            ],
            [
              18.1239189,
              59.3827362
            ],
            [
              18.1240905,
              59.3829711
            ],
            [
              18.1248737,
              59.382911
            ],
            [
              18.1266333,
              59.3824466
            ],
            [
              18.1270624,
              59.3822553
            ],
            [
              18.1281348,
              59.382672
            ],
            [
              18.1296159,
              59.3833536
            ],
            [
              18.1300772,
              59.3834247
            ],
            [
              18.1302489,
              59.3834137
            ],
            [
              18.1303776,
              59.3833318
            ],
            [
              18.130458,
              59.3828298
            ],
            [
              18.1304542,
              59.3825382
            ],
            [
              18.1304788,
              59.3822981
            ],
            [
              18.130581,
              59.3820294
            ],
            [
              18.130294,
              59.3813603
            ],
            [
              18.1302956,
              59.3809857
            ],
            [
              18.1305388,
              59.3807331
            ],
            [
              18.1323585,
              59.3803615
            ],
            [
              18.1335634,
              59.3804861
            ],
            [
              18.1339133,
              59.3806502
            ],
            [
              18.1341109,
              59.3806644
            ],
            [
              18.1342615,
              59.3805778
            ],
            [
              18.1344692,
              59.3806509
            ],
            [
              18.1347329,
              59.3806335
            ],
            [
              18.1349489,
              59.3806212
            ],
            [
              18.1351511,
              59.3805776
            ],
            [
              18.1353187,
              59.3803891
            ],
            [
              18.1352726,
              59.3802533
            ],
            [
              18.1351049,
              59.3801642
            ],
            [
              18.1345751,
              59.3801587
            ],
            [
              18.1342345,
              59.3800344
            ],
            [
              18.1340108,
              59.3799278
            ],
            [
              18.1339067,
              59.3798306
            ],
            [
              18.1339976,
              59.3797238
            ],
            [
              18.1340883,
              59.3796393
            ],
            [
              18.134035,
              59.3795231
            ],
            [
              18.1338494,
              59.3794831
            ],
            [
              18.1336761,
              59.3795007
            ],
            [
              18.1334534,
              59.3795997
            ],
            [
              18.1331879,
              59.3796192
            ],
            [
              18.1328615,
              59.379519
            ],
            [
              18.1326584,
              59.3793967
            ],
            [
              18.1324735,
              59.3789682
            ],
            [
              18.1325466,
              59.3786538
            ],
            [
              18.1321186,
              59.3781785
            ],
            [
              18.1321364,
              59.3780267
            ],
            [
              18.1320343,
              59.3779256
            ],
            [
              18.131924,
              59.3778578
            ],
            [
              18.1317999,
              59.3777806
            ],
            [
              18.1316164,
              59.3777774
            ],
            [
              18.1315313,
              59.3779179
            ],
            [
              18.1316408,
              59.378253
            ],
            [
              18.1310043,
              59.3787825
            ],
            [
              18.1307963,
              59.3787921
            ],
            [
              18.1308393,
              59.3776073
            ],
            [
              18.1310591,
              59.3771434
            ],
            [
              18.1311997,
              59.3768465
            ],
            [
              18.1315451,
              59.3764041
            ],
            [
              18.1327553,
              59.3755778
            ],
            [
              18.1330238,
              59.3753945
            ],
            [
              18.1339098,
              59.3748772
            ],
            [
              18.1340706,
              59.3747697
            ],
            [
              18.134613,
              59.37448
            ],
            [
              18.134694,
              59.3743083
            ],
            [
              18.1345169,
              59.3739141
            ],
            [
              18.1342297,
              59.373873
            ],
            [
              18.134142,
              59.3737534
            ],
            [
              18.1343048,
              59.3734997
            ],
            [
              18.1340408,
              59.3733135
            ],
            [
              18.1338134,
              59.3732601
            ],
            [
              18.1329666,
              59.3733525
            ],
            [
              18.1328939,
              59.3734181
            ],
            [
              18.1327266,
              59.373555
            ],
            [
              18.1325756,
              59.3736819
            ],
            [
              18.1322594,
              59.3738296
            ],
            [
              18.1325213,
              59.3738752
            ],
            [
              18.1315797,
              59.375192
            ],
            [
              18.1304197,
              59.3757189
            ],
            [
              18.1304242,
              59.3758831
            ],
            [
              18.130603,
              59.376028
            ],
            [
              18.1295321,
              59.376932
            ],
            [
              18.129484,
              59.377
            ],
            [
              18.1284379,
              59.3768828
            ],
            [
              18.1277478,
              59.3774211
            ],
            [
              18.1277589,
              59.3775092
            ],
            [
              18.1276068,
              59.3777931
            ],
            [
              18.127471,
              59.3779344
            ],
            [
              18.1273374,
              59.3785822
            ],
            [
              18.1269952,
              59.3789211
            ],
            [
              18.1268509,
              59.3789738
            ],
            [
              18.127399,
              59.3789343
            ],
            [
              18.1274661,
              59.3790643
            ],
            [
              18.1276366,
              59.3793946
            ],
            [
              18.1277563,
              59.379489
            ],
            [
              18.1277501,
              59.3797047
            ],
            [
              18.1276884,
              59.3797091
            ],
            [
              18.1274503,
              59.3800167
            ],
            [
              18.1268854,
              59.3800555
            ],
            [
              18.1268752,
              59.3807517
            ],
            [
              18.1267405,
              59.3807745
            ],
            [
              18.1249311,
              59.3812084
            ],
            [
              18.1239052,
              59.3814566
            ],
            [
              18.1223745,
              59.3816323
            ],
            [
              18.1214283,
              59.3819264
            ],
            [
              18.1205149,
              59.3821662
            ],
            [
              18.1195081,
              59.3833411
            ],
            [
              18.1189165,
              59.3841362
            ],
            [
              18.1189002,
              59.3841559
            ]
          ]
        ]
      }
    }
  ]
}
