{
  "type": "FeatureCollection",
  "name": "Lidingö GK supplementary OSM evidence, 2026-09-07",
  "licence": "ODbL-1.0",
  "attribution": "© OpenStreetMap contributors",
  "features": [
    {
      "type": "Feature",
      "id": "way/1530686612",
      "properties": {
        "osmType": "way",
        "osmId": "1530686612",
        "osmVersion": "1",
        "osmTimestamp": "2026-06-18T19:39:02Z",
        "sourceId": "lidingo-osm-2026-09-07",
        "reviewStatus": "unreviewed-supplementary",
        "tags": {
          "golf": "hole",
          "par": "3",
          "ref": "1"
        }
      },
      "geometry": {
        "type": "LineString",
        "coordinates": [
          [
            18.1276597,
            59.378843
          ],
          [
            18.1284281,
            59.3773996
          ]
        ]
      }
    },
    {
      "type": "Feature",
      "id": "way/1530686613",
      "properties": {
        "osmType": "way",
        "osmId": "1530686613",
        "osmVersion": "1",
        "osmTimestamp": "2026-06-18T19:39:02Z",
        "sourceId": "lidingo-osm-2026-09-07",
        "reviewStatus": "unreviewed-supplementary",
        "tags": {
          "golf": "hole",
          "par": "5",
          "ref": "2"
        }
      },
      "geometry": {
        "type": "LineString",
        "coordinates": [
          [
            18.1296912,
            59.3775739
          ],
          [
            18.1317474,
            59.3753532
          ],
          [
            18.1328696,
            59.3743272
          ],
          [
            18.1337485,
            59.3736186
          ]
        ]
      }
    },
    {
      "type": "Feature",
      "id": "way/1530686614",
      "properties": {
        "osmType": "way",
        "osmId": "1530686614",
        "osmVersion": "1",
        "osmTimestamp": "2026-06-18T19:39:02Z",
        "sourceId": "lidingo-osm-2026-09-07",
        "reviewStatus": "unreviewed-supplementary",
        "tags": {
          "golf": "hole",
          "par": "3",
          "ref": "3"
        }
      },
      "geometry": {
        "type": "LineString",
        "coordinates": [
          [
            18.1344022,
            59.3740041
          ],
          [
            18.1324501,
            59.3754417
          ]
        ]
      }
    },
    {
      "type": "Feature",
      "id": "way/1530686615",
      "properties": {
        "osmType": "way",
        "osmId": "1530686615",
        "osmVersion": "1",
        "osmTimestamp": "2026-06-18T19:39:02Z",
        "sourceId": "lidingo-osm-2026-09-07",
        "reviewStatus": "unreviewed-supplementary",
        "tags": {
          "golf": "hole",
          "par": "4",
          "ref": "4"
        }
      },
      "geometry": {
        "type": "LineString",
        "coordinates": [
          [
            18.132199,
            59.3764481
          ],
          [
            18.1292574,
            59.378499
          ],
          [
            18.1282191,
            59.3793159
          ]
        ]
      }
    },
    {
      "type": "Feature",
      "id": "way/1530686616",
      "properties": {
        "osmType": "way",
        "osmId": "1530686616",
        "osmVersion": "1",
        "osmTimestamp": "2026-06-18T19:39:02Z",
        "sourceId": "lidingo-osm-2026-09-07",
        "reviewStatus": "unreviewed-supplementary",
        "tags": {
          "golf": "hole",
          "par": "4",
          "ref": "5"
        }
      },
      "geometry": {
        "type": "LineString",
        "coordinates": [
          [
            18.1262701,
            59.378863
          ],
          [
            18.1244181,
            59.3772526
          ],
          [
            18.1234147,
            59.3773176
          ]
        ]
      }
    },
    {
      "type": "Feature",
      "id": "way/1530686617",
      "properties": {
        "osmType": "way",
        "osmId": "1530686617",
        "osmVersion": "1",
        "osmTimestamp": "2026-06-18T19:39:02Z",
        "sourceId": "lidingo-osm-2026-09-07",
        "reviewStatus": "unreviewed-supplementary",
        "tags": {
          "golf": "hole",
          "par": "3",
          "ref": "6"
        }
      },
      "geometry": {
        "type": "LineString",
        "coordinates": [
          [
            18.123858,
            59.377047
          ],
          [
            18.1263815,
            59.3760532
          ]
        ]
      }
    },
    {
      "type": "Feature",
      "id": "way/1530686618",
      "properties": {
        "osmType": "way",
        "osmId": "1530686618",
        "osmVersion": "1",
        "osmTimestamp": "2026-06-18T19:39:02Z",
        "sourceId": "lidingo-osm-2026-09-07",
        "reviewStatus": "unreviewed-supplementary",
        "tags": {
          "golf": "hole",
          "par": "4",
          "ref": "7"
        }
      },
      "geometry": {
        "type": "LineString",
        "coordinates": [
          [
            18.1269781,
            59.3753933
          ],
          [
            18.1233761,
            59.3766233
          ],
          [
            18.1223728,
            59.377227
          ]
        ]
      }
    },
    {
      "type": "Feature",
      "id": "way/1530686619",
      "properties": {
        "osmType": "way",
        "osmId": "1530686619",
        "osmVersion": "1",
        "osmTimestamp": "2026-06-18T19:39:02Z",
        "sourceId": "lidingo-osm-2026-09-07",
        "reviewStatus": "unreviewed-supplementary",
        "tags": {
          "golf": "hole",
          "par": "4",
          "ref": "8"
        }
      },
      "geometry": {
        "type": "LineString",
        "coordinates": [
          [
            18.1202901,
            59.376872
          ],
          [
            18.1240963,
            59.3782283
          ],
          [
            18.1252941,
            59.3787676
          ]
        ]
      }
    },
    {
      "type": "Feature",
      "id": "way/1530686620",
      "properties": {
        "osmType": "way",
        "osmId": "1530686620",
        "osmVersion": "1",
        "osmTimestamp": "2026-06-18T19:39:02Z",
        "sourceId": "lidingo-osm-2026-09-07",
        "reviewStatus": "unreviewed-supplementary",
        "tags": {
          "golf": "hole",
          "par": "3",
          "ref": "9"
        }
      },
      "geometry": {
        "type": "LineString",
        "coordinates": [
          [
            18.1259876,
            59.3790035
          ],
          [
            18.1234011,
            59.3785667
          ]
        ]
      }
    },
    {
      "type": "Feature",
      "id": "way/1530686623",
      "properties": {
        "osmType": "way",
        "osmId": "1530686623",
        "osmVersion": "1",
        "osmTimestamp": "2026-06-18T19:39:02Z",
        "sourceId": "lidingo-osm-2026-09-07",
        "reviewStatus": "unreviewed-supplementary",
        "tags": {
          "golf": "hole",
          "par": "5",
          "ref": "10"
        }
      },
      "geometry": {
        "type": "LineString",
        "coordinates": [
          [
            18.1210613,
            59.3774163
          ],
          [
            18.1225223,
            59.3795937
          ],
          [
            18.1210234,
            59.3810466
          ],
          [
            18.1207682,
            59.3814056
          ]
        ]
      }
    },
    {
      "type": "Feature",
      "id": "way/1530686624",
      "properties": {
        "osmType": "way",
        "osmId": "1530686624",
        "osmVersion": "1",
        "osmTimestamp": "2026-06-18T19:39:02Z",
        "sourceId": "lidingo-osm-2026-09-07",
        "reviewStatus": "unreviewed-supplementary",
        "tags": {
          "golf": "hole",
          "par": "3",
          "ref": "11"
        }
      },
      "geometry": {
        "type": "LineString",
        "coordinates": [
          [
            18.119997,
            59.3827488
          ],
          [
            18.1196021,
            59.3839021
          ]
        ]
      }
    },
    {
      "type": "Feature",
      "id": "way/1530686625",
      "properties": {
        "osmType": "way",
        "osmId": "1530686625",
        "osmVersion": "1",
        "osmTimestamp": "2026-06-18T19:39:02Z",
        "sourceId": "lidingo-osm-2026-09-07",
        "reviewStatus": "unreviewed-supplementary",
        "tags": {
          "golf": "hole",
          "par": "5",
          "ref": "12"
        }
      },
      "geometry": {
        "type": "LineString",
        "coordinates": [
          [
            18.1193479,
            59.3842406
          ],
          [
            18.1227261,
            59.382763
          ],
          [
            18.125531,
            59.3823134
          ],
          [
            18.1264127,
            59.3823114
          ]
        ]
      }
    },
    {
      "type": "Feature",
      "id": "way/1530686626",
      "properties": {
        "osmType": "way",
        "osmId": "1530686626",
        "osmVersion": "1",
        "osmTimestamp": "2026-06-18T19:39:02Z",
        "sourceId": "lidingo-osm-2026-09-07",
        "reviewStatus": "unreviewed-supplementary",
        "tags": {
          "golf": "hole",
          "par": "4",
          "ref": "13"
        }
      },
      "geometry": {
        "type": "LineString",
        "coordinates": [
          [
            18.1265412,
            59.3816014
          ],
          [
            18.1227167,
            59.3821916
          ],
          [
            18.1208328,
            59.3825193
          ]
        ]
      }
    },
    {
      "type": "Feature",
      "id": "way/1530686627",
      "properties": {
        "osmType": "way",
        "osmId": "1530686627",
        "osmVersion": "1",
        "osmTimestamp": "2026-06-18T19:39:02Z",
        "sourceId": "lidingo-osm-2026-09-07",
        "reviewStatus": "unreviewed-supplementary",
        "tags": {
          "golf": "hole",
          "par": "4",
          "ref": "14"
        }
      },
      "geometry": {
        "type": "LineString",
        "coordinates": [
          [
            18.1206687,
            59.3821577
          ],
          [
            18.1246482,
            59.3814663
          ],
          [
            18.1260229,
            59.381321
          ]
        ]
      }
    },
    {
      "type": "Feature",
      "id": "way/1530686628",
      "properties": {
        "osmType": "way",
        "osmId": "1530686628",
        "osmVersion": "1",
        "osmTimestamp": "2026-06-18T19:39:02Z",
        "sourceId": "lidingo-osm-2026-09-07",
        "reviewStatus": "unreviewed-supplementary",
        "tags": {
          "golf": "hole",
          "par": "4",
          "ref": "15"
        }
      },
      "geometry": {
        "type": "LineString",
        "coordinates": [
          [
            18.1270233,
            59.380213
          ],
          [
            18.1286663,
            59.3823774
          ],
          [
            18.1299688,
            59.3831627
          ]
        ]
      }
    },
    {
      "type": "Feature",
      "id": "way/1530686629",
      "properties": {
        "osmType": "way",
        "osmId": "1530686629",
        "osmVersion": "1",
        "osmTimestamp": "2026-06-18T19:39:02Z",
        "sourceId": "lidingo-osm-2026-09-07",
        "reviewStatus": "unreviewed-supplementary",
        "tags": {
          "golf": "hole",
          "par": "3",
          "ref": "16"
        }
      },
      "geometry": {
        "type": "LineString",
        "coordinates": [
          [
            18.1303217,
            59.382806
          ],
          [
            18.1298035,
            59.381141
          ]
        ]
      }
    },
    {
      "type": "Feature",
      "id": "way/1530686630",
      "properties": {
        "osmType": "way",
        "osmId": "1530686630",
        "osmVersion": "1",
        "osmTimestamp": "2026-06-18T19:39:02Z",
        "sourceId": "lidingo-osm-2026-09-07",
        "reviewStatus": "unreviewed-supplementary",
        "tags": {
          "golf": "hole",
          "par": "5",
          "ref": "17"
        }
      },
      "geometry": {
        "type": "LineString",
        "coordinates": [
          [
            18.127616,
            59.3804497
          ],
          [
            18.1306279,
            59.380326
          ],
          [
            18.1336798,
            59.3802626
          ],
          [
            18.1348958,
            59.3803796
          ]
        ]
      }
    },
    {
      "type": "Feature",
      "id": "way/1530686631",
      "properties": {
        "osmType": "way",
        "osmId": "1530686631",
        "osmVersion": "1",
        "osmTimestamp": "2026-06-18T19:39:02Z",
        "sourceId": "lidingo-osm-2026-09-07",
        "reviewStatus": "unreviewed-supplementary",
        "tags": {
          "golf": "hole",
          "par": "4",
          "ref": "18"
        }
      },
      "geometry": {
        "type": "LineString",
        "coordinates": [
          [
            18.1360679,
            59.3800784
          ],
          [
            18.1317728,
            59.3793878
          ],
          [
            18.1287972,
            59.3796725
          ]
        ]
      }
    }
  ]
}
