{
 "type": "FeatureCollection",
 "name": "tortuna-canopy-changes-2026",
 "crs": {
  "type": "name",
  "properties": {
   "name": "EPSG:3006"
  }
 },
 "axisOrder": [
  "easting",
  "northing"
 ],
 "source": {
  "windows": {
   "south": {
    "file": "orthophoto/south.png",
    "boundsEpsg3006": [
     596880,
     6613600,
     598160,
     6614880
    ],
    "metres": 0.32,
    "sha256": "e012c2ab66dcfe6b1d2eb4e56bc969101b15260ecca05edc307ea5b23fc1476b"
   },
   "north": {
    "file": "orthophoto/north.png",
    "boundsEpsg3006": [
     596880,
     6614880,
     598160,
     6616160
    ],
    "metres": 0.32,
    "sha256": "ffcc3df434318fd3ce289b195ad7baf1d8052135e34086aca9aaf0a3f31dfc26"
   }
  },
  "canopy": "tortunabuild/cache/expanded-canopy/chm.f32 (2021-04-05)"
 },
 "rule": {
  "brightMin": 88,
  "darkMax": 0.1,
  "canopyMinMetres": 3,
  "minAreaSquareMetres": 600,
  "cellMetres": 4,
  "openingMetres": 8
 },
 "generatedOn": "2026-09-10",
 "script": "tortunabuild/trace-canopy-changes.mjs",
 "totalAreaSquareMetres": 52864,
 "features": [
  {
   "type": "Feature",
   "id": "tortuna-felled-2026-1",
   "properties": {
    "kind": "override",
    "reason": "clear-fell-or-cleared-after-2021-laser",
    "sourceId": "imagery-lm-ortho",
    "sourceCollection": "orto-n2-2026",
    "captureDate": "2026-05-02",
    "observedYear": 2026,
    "method": "2021 canopy cells (CHM >= 3 m over a 4 m cell) whose 2026 image is open: median brightness >= 88 and under 10% of 0.32 m samples darker than 70; 8 m opening; components >= 600 m²",
    "reviewStatus": "agent-rule-based-review; human-review-pending",
    "areaSquareMetres": 31936,
    "centreLocal": [
     370,
     977
    ],
    "canopyExclusion": true,
    "notSurveyed": true
   },
   "geometry": {
    "type": "Polygon",
    "coordinates": [
     [
      [
       597812.5,
       6614111.5
      ],
      [
       597824.5,
       6614111.5
      ],
      [
       597824.5,
       6614099.5
      ],
      [
       597828.5,
       6614099.5
      ],
      [
       597828.5,
       6614087.5
      ],
      [
       597832.5,
       6614087.5
      ],
      [
       597832.5,
       6614083.5
      ],
      [
       597836.5,
       6614083.5
      ],
      [
       597836.5,
       6614055.5
      ],
      [
       597844.5,
       6614055.5
      ],
      [
       597844.5,
       6614043.5
      ],
      [
       597840.5,
       6614043.5
      ],
      [
       597840.5,
       6614027.5
      ],
      [
       597848.5,
       6614027.5
      ],
      [
       597848.5,
       6614011.5
      ],
      [
       597856.5,
       6614011.5
      ],
      [
       597856.5,
       6613999.5
      ],
      [
       597840.5,
       6613999.5
      ],
      [
       597840.5,
       6613987.5
      ],
      [
       597836.5,
       6613987.5
      ],
      [
       597836.5,
       6613983.5
      ],
      [
       597832.5,
       6613983.5
      ],
      [
       597832.5,
       6613963.5
      ],
      [
       597820.5,
       6613963.5
      ],
      [
       597820.5,
       6613951.5
      ],
      [
       597812.5,
       6613951.5
      ],
      [
       597812.5,
       6613899.5
      ],
      [
       597808.5,
       6613899.5
      ],
      [
       597808.5,
       6613891.5
      ],
      [
       597804.5,
       6613891.5
      ],
      [
       597804.5,
       6613879.5
      ],
      [
       597800.5,
       6613879.5
      ],
      [
       597800.5,
       6613871.5
      ],
      [
       597796.5,
       6613871.5
      ],
      [
       597796.5,
       6613863.5
      ],
      [
       597772.5,
       6613863.5
      ],
      [
       597772.5,
       6613859.5
      ],
      [
       597768.5,
       6613859.5
      ],
      [
       597768.5,
       6613855.5
      ],
      [
       597760.5,
       6613855.5
      ],
      [
       597760.5,
       6613843.5
      ],
      [
       597764.5,
       6613843.5
      ],
      [
       597764.5,
       6613835.5
      ],
      [
       597768.5,
       6613835.5
      ],
      [
       597768.5,
       6613831.5
      ],
      [
       597772.5,
       6613831.5
      ],
      [
       597772.5,
       6613827.5
      ],
      [
       597776.5,
       6613827.5
      ],
      [
       597776.5,
       6613819.5
      ],
      [
       597792.5,
       6613819.5
      ],
      [
       597792.5,
       6613799.5
      ],
      [
       597800.5,
       6613799.5
      ],
      [
       597800.5,
       6613791.5
      ],
      [
       597804.5,
       6613791.5
      ],
      [
       597804.5,
       6613787.5
      ],
      [
       597808.5,
       6613787.5
      ],
      [
       597808.5,
       6613775.5
      ],
      [
       597816.5,
       6613775.5
      ],
      [
       597816.5,
       6613759.5
      ],
      [
       597812.5,
       6613759.5
      ],
      [
       597812.5,
       6613739.5
      ],
      [
       597796.5,
       6613739.5
      ],
      [
       597796.5,
       6613747.5
      ],
      [
       597792.5,
       6613747.5
      ],
      [
       597792.5,
       6613751.5
      ],
      [
       597792.5,
       6613755.5
      ],
      [
       597784.5,
       6613755.5
      ],
      [
       597784.5,
       6613767.5
      ],
      [
       597780.5,
       6613767.5
      ],
      [
       597780.5,
       6613775.5
      ],
      [
       597764.5,
       6613775.5
      ],
      [
       597764.5,
       6613791.5
      ],
      [
       597756.5,
       6613791.5
      ],
      [
       597756.5,
       6613795.5
      ],
      [
       597752.5,
       6613795.5
      ],
      [
       597752.5,
       6613799.5
      ],
      [
       597744.5,
       6613799.5
      ],
      [
       597744.5,
       6613803.5
      ],
      [
       597740.5,
       6613803.5
      ],
      [
       597740.5,
       6613807.5
      ],
      [
       597736.5,
       6613807.5
      ],
      [
       597736.5,
       6613819.5
      ],
      [
       597732.5,
       6613819.5
      ],
      [
       597732.5,
       6613827.5
      ],
      [
       597728.5,
       6613827.5
      ],
      [
       597728.5,
       6613859.5
      ],
      [
       597720.5,
       6613859.5
      ],
      [
       597720.5,
       6613867.5
      ],
      [
       597712.5,
       6613867.5
      ],
      [
       597712.5,
       6613871.5
      ],
      [
       597708.5,
       6613871.5
      ],
      [
       597708.5,
       6613875.5
      ],
      [
       597704.5,
       6613875.5
      ],
      [
       597704.5,
       6613879.5
      ],
      [
       597700.5,
       6613879.5
      ],
      [
       597700.5,
       6613883.5
      ],
      [
       597680.5,
       6613883.5
      ],
      [
       597680.5,
       6613903.5
      ],
      [
       597676.5,
       6613903.5
      ],
      [
       597676.5,
       6613923.5
      ],
      [
       597680.5,
       6613923.5
      ],
      [
       597680.5,
       6613927.5
      ],
      [
       597688.5,
       6613927.5
      ],
      [
       597688.5,
       6613955.5
      ],
      [
       597696.5,
       6613955.5
      ],
      [
       597696.5,
       6613963.5
      ],
      [
       597700.5,
       6613963.5
      ],
      [
       597700.5,
       6613999.5
      ],
      [
       597704.5,
       6613999.5
      ],
      [
       597704.5,
       6614003.5
      ],
      [
       597712.5,
       6614003.5
      ],
      [
       597712.5,
       6614011.5
      ],
      [
       597716.5,
       6614011.5
      ],
      [
       597716.5,
       6614039.5
      ],
      [
       597736.5,
       6614039.5
      ],
      [
       597736.5,
       6614047.5
      ],
      [
       597744.5,
       6614047.5
      ],
      [
       597744.5,
       6614059.5
      ],
      [
       597748.5,
       6614059.5
      ],
      [
       597748.5,
       6614063.5
      ],
      [
       597752.5,
       6614063.5
      ],
      [
       597752.5,
       6614067.5
      ],
      [
       597756.5,
       6614067.5
      ],
      [
       597756.5,
       6614071.5
      ],
      [
       597760.5,
       6614071.5
      ],
      [
       597760.5,
       6614075.5
      ],
      [
       597764.5,
       6614075.5
      ],
      [
       597764.5,
       6614079.5
      ],
      [
       597768.5,
       6614079.5
      ],
      [
       597768.5,
       6614083.5
      ],
      [
       597784.5,
       6614083.5
      ],
      [
       597784.5,
       6614091.5
      ],
      [
       597792.5,
       6614091.5
      ],
      [
       597792.5,
       6614099.5
      ],
      [
       597796.5,
       6614099.5
      ],
      [
       597796.5,
       6614107.5
      ],
      [
       597812.5,
       6614107.5
      ],
      [
       597812.5,
       6614111.5
      ]
     ]
    ]
   }
  },
  {
   "type": "Feature",
   "id": "tortuna-felled-2026-2",
   "properties": {
    "kind": "override",
    "reason": "clear-fell-or-cleared-after-2021-laser",
    "sourceId": "imagery-lm-ortho",
    "sourceCollection": "orto-n2-2026",
    "captureDate": "2026-05-02",
    "observedYear": 2026,
    "method": "2021 canopy cells (CHM >= 3 m over a 4 m cell) whose 2026 image is open: median brightness >= 88 and under 10% of 0.32 m samples darker than 70; 8 m opening; components >= 600 m²",
    "reviewStatus": "agent-rule-based-review; human-review-pending",
    "areaSquareMetres": 10720,
    "centreLocal": [
     281,
     1237
    ],
    "canopyExclusion": true,
    "notSurveyed": true
   },
   "geometry": {
    "type": "Polygon",
    "coordinates": [
     [
      [
       597752.5,
       6613707.5
      ],
      [
       597772.5,
       6613707.5
      ],
      [
       597772.5,
       6613687.5
      ],
      [
       597768.5,
       6613687.5
      ],
      [
       597768.5,
       6613675.5
      ],
      [
       597764.5,
       6613675.5
      ],
      [
       597764.5,
       6613663.5
      ],
      [
       597744.5,
       6613663.5
      ],
      [
       597744.5,
       6613659.5
      ],
      [
       597720.5,
       6613659.5
      ],
      [
       597720.5,
       6613655.5
      ],
      [
       597716.5,
       6613655.5
      ],
      [
       597716.5,
       6613647.5
      ],
      [
       597708.5,
       6613647.5
      ],
      [
       597708.5,
       6613639.5
      ],
      [
       597704.5,
       6613639.5
      ],
      [
       597704.5,
       6613619.5
      ],
      [
       597708.5,
       6613619.5
      ],
      [
       597708.5,
       6613615.5
      ],
      [
       597712.5,
       6613615.5
      ],
      [
       597712.5,
       6613607.5
      ],
      [
       597716.5,
       6613607.5
      ],
      [
       597716.5,
       6613599.5
      ],
      [
       597592.5,
       6613599.5
      ],
      [
       597592.5,
       6613611.5
      ],
      [
       597600.5,
       6613611.5
      ],
      [
       597600.5,
       6613615.5
      ],
      [
       597604.5,
       6613615.5
      ],
      [
       597604.5,
       6613619.5
      ],
      [
       597604.5,
       6613631.5
      ],
      [
       597596.5,
       6613631.5
      ],
      [
       597596.5,
       6613655.5
      ],
      [
       597608.5,
       6613655.5
      ],
      [
       597608.5,
       6613647.5
      ],
      [
       597632.5,
       6613647.5
      ],
      [
       597632.5,
       6613663.5
      ],
      [
       597624.5,
       6613663.5
      ],
      [
       597624.5,
       6613667.5
      ],
      [
       597612.5,
       6613667.5
      ],
      [
       597612.5,
       6613671.5
      ],
      [
       597608.5,
       6613671.5
      ],
      [
       597608.5,
       6613683.5
      ],
      [
       597612.5,
       6613683.5
      ],
      [
       597612.5,
       6613687.5
      ],
      [
       597636.5,
       6613687.5
      ],
      [
       597636.5,
       6613691.5
      ],
      [
       597644.5,
       6613691.5
      ],
      [
       597644.5,
       6613695.5
      ],
      [
       597656.5,
       6613695.5
      ],
      [
       597656.5,
       6613691.5
      ],
      [
       597676.5,
       6613691.5
      ],
      [
       597676.5,
       6613687.5
      ],
      [
       597680.5,
       6613687.5
      ],
      [
       597680.5,
       6613683.5
      ],
      [
       597692.5,
       6613683.5
      ],
      [
       597692.5,
       6613675.5
      ],
      [
       597696.5,
       6613675.5
      ],
      [
       597696.5,
       6613671.5
      ],
      [
       597716.5,
       6613671.5
      ],
      [
       597716.5,
       6613675.5
      ],
      [
       597724.5,
       6613675.5
      ],
      [
       597724.5,
       6613679.5
      ],
      [
       597728.5,
       6613679.5
      ],
      [
       597728.5,
       6613683.5
      ],
      [
       597736.5,
       6613683.5
      ],
      [
       597736.5,
       6613691.5
      ],
      [
       597744.5,
       6613691.5
      ],
      [
       597744.5,
       6613699.5
      ],
      [
       597752.5,
       6613699.5
      ],
      [
       597752.5,
       6613707.5
      ]
     ]
    ]
   }
  },
  {
   "type": "Feature",
   "id": "tortuna-felled-2026-3",
   "properties": {
    "kind": "override",
    "reason": "clear-fell-or-cleared-after-2021-laser",
    "sourceId": "imagery-lm-ortho",
    "sourceCollection": "orto-n2-2026",
    "captureDate": "2026-05-02",
    "observedYear": 2026,
    "method": "2021 canopy cells (CHM >= 3 m over a 4 m cell) whose 2026 image is open: median brightness >= 88 and under 10% of 0.32 m samples darker than 70; 8 m opening; components >= 600 m²",
    "reviewStatus": "agent-rule-based-review; human-review-pending",
    "areaSquareMetres": 3824,
    "centreLocal": [
     -109,
     454
    ],
    "canopyExclusion": true,
    "notSurveyed": true
   },
   "geometry": {
    "type": "Polygon",
    "coordinates": [
     [
      [
       597288.5,
       6614491.5
      ],
      [
       597312.5,
       6614491.5
      ],
      [
       597312.5,
       6614479.5
      ],
      [
       597316.5,
       6614479.5
      ],
      [
       597316.5,
       6614463.5
      ],
      [
       597320.5,
       6614463.5
      ],
      [
       597320.5,
       6614443.5
      ],
      [
       597328.5,
       6614443.5
      ],
      [
       597328.5,
       6614427.5
      ],
      [
       597324.5,
       6614427.5
      ],
      [
       597324.5,
       6614419.5
      ],
      [
       597300.5,
       6614419.5
      ],
      [
       597300.5,
       6614415.5
      ],
      [
       597292.5,
       6614415.5
      ],
      [
       597292.5,
       6614411.5
      ],
      [
       597288.5,
       6614411.5
      ],
      [
       597272.5,
       6614411.5
      ],
      [
       597272.5,
       6614407.5
      ],
      [
       597252.5,
       6614407.5
      ],
      [
       597252.5,
       6614419.5
      ],
      [
       597256.5,
       6614419.5
      ],
      [
       597256.5,
       6614423.5
      ],
      [
       597268.5,
       6614423.5
      ],
      [
       597268.5,
       6614459.5
      ],
      [
       597276.5,
       6614459.5
      ],
      [
       597276.5,
       6614475.5
      ],
      [
       597280.5,
       6614475.5
      ],
      [
       597280.5,
       6614479.5
      ],
      [
       597284.5,
       6614479.5
      ],
      [
       597284.5,
       6614483.5
      ],
      [
       597288.5,
       6614483.5
      ],
      [
       597288.5,
       6614491.5
      ]
     ]
    ]
   }
  },
  {
   "type": "Feature",
   "id": "tortuna-felled-2026-4",
   "properties": {
    "kind": "override",
    "reason": "clear-fell-or-cleared-after-2021-laser",
    "sourceId": "imagery-lm-ortho",
    "sourceCollection": "orto-n2-2026",
    "captureDate": "2026-05-02",
    "observedYear": 2026,
    "method": "2021 canopy cells (CHM >= 3 m over a 4 m cell) whose 2026 image is open: median brightness >= 88 and under 10% of 0.32 m samples darker than 70; 8 m opening; components >= 600 m²",
    "reviewStatus": "agent-rule-based-review; human-review-pending",
    "areaSquareMetres": 2944,
    "centreLocal": [
     65,
     -993
    ],
    "canopyExclusion": true,
    "notSurveyed": true
   },
   "geometry": {
    "type": "Polygon",
    "coordinates": [
     [
      [
       597428.5,
       6615919.5
      ],
      [
       597452.5,
       6615919.5
      ],
      [
       597452.5,
       6615915.5
      ],
      [
       597456.5,
       6615915.5
      ],
      [
       597456.5,
       6615911.5
      ],
      [
       597460.5,
       6615911.5
      ],
      [
       597460.5,
       6615907.5
      ],
      [
       597472.5,
       6615907.5
      ],
      [
       597472.5,
       6615911.5
      ],
      [
       597500.5,
       6615911.5
      ],
      [
       597500.5,
       6615903.5
      ],
      [
       597504.5,
       6615903.5
      ],
      [
       597504.5,
       6615891.5
      ],
      [
       597508.5,
       6615891.5
      ],
      [
       597508.5,
       6615875.5
      ],
      [
       597496.5,
       6615875.5
      ],
      [
       597496.5,
       6615871.5
      ],
      [
       597496.5,
       6615863.5
      ],
      [
       597484.5,
       6615863.5
      ],
      [
       597484.5,
       6615867.5
      ],
      [
       597476.5,
       6615867.5
      ],
      [
       597476.5,
       6615871.5
      ],
      [
       597468.5,
       6615871.5
      ],
      [
       597468.5,
       6615875.5
      ],
      [
       597460.5,
       6615875.5
      ],
      [
       597460.5,
       6615883.5
      ],
      [
       597448.5,
       6615883.5
      ],
      [
       597448.5,
       6615887.5
      ],
      [
       597436.5,
       6615887.5
      ],
      [
       597436.5,
       6615891.5
      ],
      [
       597424.5,
       6615891.5
      ],
      [
       597424.5,
       6615895.5
      ],
      [
       597420.5,
       6615895.5
      ],
      [
       597420.5,
       6615911.5
      ],
      [
       597428.5,
       6615911.5
      ],
      [
       597428.5,
       6615919.5
      ]
     ]
    ]
   }
  },
  {
   "type": "Feature",
   "id": "tortuna-felled-2026-5",
   "properties": {
    "kind": "override",
    "reason": "clear-fell-or-cleared-after-2021-laser",
    "sourceId": "imagery-lm-ortho",
    "sourceCollection": "orto-n2-2026",
    "captureDate": "2026-05-02",
    "observedYear": 2026,
    "method": "2021 canopy cells (CHM >= 3 m over a 4 m cell) whose 2026 image is open: median brightness >= 88 and under 10% of 0.32 m samples darker than 70; 8 m opening; components >= 600 m²",
    "reviewStatus": "agent-rule-based-review; human-review-pending",
    "areaSquareMetres": 2608,
    "centreLocal": [
     -407,
     994
    ],
    "canopyExclusion": true,
    "notSurveyed": true
   },
   "geometry": {
    "type": "Polygon",
    "coordinates": [
     [
      [
       596964.5,
       6613939.5
      ],
      [
       596976.5,
       6613939.5
      ],
      [
       596976.5,
       6613935.5
      ],
      [
       596980.5,
       6613935.5
      ],
      [
       596980.5,
       6613931.5
      ],
      [
       596992.5,
       6613931.5
      ],
      [
       596992.5,
       6613919.5
      ],
      [
       597000.5,
       6613919.5
      ],
      [
       597000.5,
       6613911.5
      ],
      [
       597008.5,
       6613911.5
      ],
      [
       597008.5,
       6613907.5
      ],
      [
       597020.5,
       6613907.5
      ],
      [
       597020.5,
       6613911.5
      ],
      [
       597032.5,
       6613911.5
      ],
      [
       597032.5,
       6613883.5
      ],
      [
       597040.5,
       6613883.5
      ],
      [
       597040.5,
       6613867.5
      ],
      [
       597032.5,
       6613867.5
      ],
      [
       597020.5,
       6613867.5
      ],
      [
       597020.5,
       6613871.5
      ],
      [
       597016.5,
       6613871.5
      ],
      [
       597016.5,
       6613887.5
      ],
      [
       597004.5,
       6613887.5
      ],
      [
       597004.5,
       6613883.5
      ],
      [
       596992.5,
       6613883.5
      ],
      [
       596992.5,
       6613887.5
      ],
      [
       596988.5,
       6613887.5
      ],
      [
       596988.5,
       6613891.5
      ],
      [
       596980.5,
       6613891.5
      ],
      [
       596980.5,
       6613899.5
      ],
      [
       596972.5,
       6613899.5
      ],
      [
       596972.5,
       6613907.5
      ],
      [
       596968.5,
       6613907.5
      ],
      [
       596968.5,
       6613911.5
      ],
      [
       596964.5,
       6613911.5
      ],
      [
       596964.5,
       6613919.5
      ],
      [
       596960.5,
       6613919.5
      ],
      [
       596960.5,
       6613923.5
      ],
      [
       596956.5,
       6613923.5
      ],
      [
       596956.5,
       6613935.5
      ],
      [
       596964.5,
       6613935.5
      ],
      [
       596964.5,
       6613939.5
      ]
     ]
    ]
   }
  },
  {
   "type": "Feature",
   "id": "tortuna-felled-2026-6",
   "properties": {
    "kind": "override",
    "reason": "clear-fell-or-cleared-after-2021-laser",
    "sourceId": "imagery-lm-ortho",
    "sourceCollection": "orto-n2-2026",
    "captureDate": "2026-05-02",
    "observedYear": 2026,
    "method": "2021 canopy cells (CHM >= 3 m over a 4 m cell) whose 2026 image is open: median brightness >= 88 and under 10% of 0.32 m samples darker than 70; 8 m opening; components >= 600 m²",
    "reviewStatus": "agent-rule-based-review; human-review-pending",
    "areaSquareMetres": 832,
    "centreLocal": [
     204,
     -62
    ],
    "canopyExclusion": true,
    "notSurveyed": true
   },
   "geometry": {
    "type": "Polygon",
    "coordinates": [
     [
      [
       597592.5,
       6614991.5
      ],
      [
       597612.5,
       6614991.5
      ],
      [
       597612.5,
       6614955.5
      ],
      [
       597608.5,
       6614955.5
      ],
      [
       597608.5,
       6614951.5
      ],
      [
       597604.5,
       6614951.5
      ],
      [
       597604.5,
       6614947.5
      ],
      [
       597592.5,
       6614947.5
      ],
      [
       597592.5,
       6614991.5
      ]
     ]
    ]
   }
  }
 ]
}
