{
  "type": "FeatureCollection",
  "name": "Visby facility reference footprints",
  "crs": {
    "type": "name",
    "properties": {
      "name": "EPSG:3006"
    }
  },
  "features": [
    {
      "type": "Feature",
      "id": "way/530655627",
      "properties": {
        "label": "Range / practice building (role provisional)",
        "scope": "club-facilities",
        "annotation": "01"
      },
      "geometry": {
        "type": "Polygon",
        "coordinates": [
          [
            [
              687416.2660587521,
              6370874.120861677
            ],
            [
              687425.296685043,
              6370867.556938005
            ],
            [
              687419.6810412955,
              6370859.862388355
            ],
            [
              687410.6509207909,
              6370866.415199203
            ],
            [
              687416.2660587521,
              6370874.120861677
            ]
          ]
        ]
      }
    },
    {
      "type": "Feature",
      "id": "way/530655628",
      "properties": {
        "label": "Large northeast service building (role provisional)",
        "scope": "club-facilities",
        "annotation": "02"
      },
      "geometry": {
        "type": "Polygon",
        "coordinates": [
          [
            [
              688001.4617190172,
              6371020.411836665
            ],
            [
              687993.4036971235,
              6371016.951852925
            ],
            [
              687998.788716293,
              6371004.4681091625
            ],
            [
              687987.7716589653,
              6370999.73444381
            ],
            [
              687983.9552462476,
              6371008.577939739
            ],
            [
              687988.0934502938,
              6371010.351977605
            ],
            [
              687986.1012814536,
              6371014.964959325
            ],
            [
              687968.228493791,
              6371056.428699116
            ],
            [
              687978.4554526876,
              6371060.824854286
            ],
            [
              687976.2883628618,
              6371065.842283307
            ],
            [
              687980.9981095125,
              6371067.865660088
            ],
            [
              688001.4617190172,
              6371020.411836665
            ]
          ]
        ]
      }
    },
    {
      "type": "Feature",
      "id": "way/530655629",
      "properties": {
        "label": "Detached building beside parking (role unverified)",
        "scope": "club-facilities",
        "annotation": "03"
      },
      "geometry": {
        "type": "Polygon",
        "coordinates": [
          [
            [
              687308.0603862191,
              6370777.67004301
            ],
            [
              687312.8237321365,
              6370777.755166743
            ],
            [
              687312.9883441251,
              6370768.810192073
            ],
            [
              687308.2249877738,
              6370768.725068342
            ],
            [
              687308.0603862191,
              6370777.67004301
            ]
          ]
        ]
      }
    },
    {
      "type": "Feature",
      "id": "way/530655630",
      "properties": {
        "label": "East clubhouse ancillary building (role unverified)",
        "scope": "club-facilities",
        "annotation": "04"
      },
      "geometry": {
        "type": "Polygon",
        "coordinates": [
          [
            [
              687266.7591776553,
              6370745.112828314
            ],
            [
              687281.3136601633,
              6370741.0544576915
            ],
            [
              687278.0707376322,
              6370729.4667184455
            ],
            [
              687263.5167303337,
              6370733.513975936
            ],
            [
              687266.7591776553,
              6370745.112828314
            ]
          ]
        ]
      }
    },
    {
      "type": "Feature",
      "id": "way/530655631",
      "properties": {
        "label": "Clubhouse and restaurant",
        "scope": "club-facilities",
        "annotation": "05"
      },
      "geometry": {
        "type": "Polygon",
        "coordinates": [
          [
            [
              687221.0594223095,
              6370760.528207877
            ],
            [
              687221.3810307324,
              6370764.389334311
            ],
            [
              687234.9100541084,
              6370763.28274262
            ],
            [
              687234.0530630421,
              6370752.886090016
            ],
            [
              687230.6311652546,
              6370753.174850064
            ],
            [
              687230.4063884683,
              6370750.477651212
            ],
            [
              687238.0655228999,
              6370750.472734022
            ],
            [
              687236.2339367584,
              6370738.782637767
            ],
            [
              687240.7614756355,
              6370738.243655042
            ],
            [
              687240.9481169708,
              6370729.60071934
            ],
            [
              687236.1270157476,
              6370729.724858045
            ],
            [
              687235.7621313697,
              6370726.151612152
            ],
            [
              687224.9509910524,
              6370726.45770061
            ],
            [
              687225.0094340863,
              6370735.524400359
            ],
            [
              687216.9810867193,
              6370736.761055564
            ],
            [
              687218.7496496226,
              6370749.0391336335
            ],
            [
              687212.1778531652,
              6370749.584580679
            ],
            [
              687213.130197332,
              6370761.178531671
            ],
            [
              687221.0594223095,
              6370760.528207877
            ]
          ]
        ]
      }
    },
    {
      "type": "Feature",
      "id": "way/530655632",
      "properties": {
        "label": "Red former lighthouse keeper dwelling (identity inferred)",
        "scope": "club-facilities",
        "annotation": "06"
      },
      "geometry": {
        "type": "Polygon",
        "coordinates": [
          [
            [
              687149.5464786625,
              6370749.618082912
            ],
            [
              687163.409573469,
              6370751.971584019
            ],
            [
              687164.8019792166,
              6370743.774234187
            ],
            [
              687150.9448556871,
              6370741.421004328
            ],
            [
              687149.5464786625,
              6370749.618082912
            ]
          ]
        ]
      }
    },
    {
      "type": "Feature",
      "id": "way/530655633",
      "properties": {
        "label": "White Fyrhuset accommodation (identity inferred)",
        "scope": "club-facilities",
        "annotation": "07"
      },
      "geometry": {
        "type": "Polygon",
        "coordinates": [
          [
            [
              687143.2153579305,
              6370758.146109251
            ],
            [
              687144.4998442426,
              6370750.858004529
            ],
            [
              687134.0039952556,
              6370748.358150552
            ],
            [
              687131.9898194312,
              6370755.43437365
            ],
            [
              687143.2153579305,
              6370758.146109251
            ]
          ]
        ]
      }
    },
    {
      "type": "Feature",
      "id": "way/549809883",
      "properties": {
        "label": "Surrounding building way/549809883",
        "scope": "surrounding-context",
        "annotation": "08"
      },
      "geometry": {
        "type": "Polygon",
        "coordinates": [
          [
            [
              688697.2075725672,
              6371109.471595182
            ],
            [
              688691.2951033146,
              6371086.431338527
            ],
            [
              688684.5178995816,
              6371088.16899191
            ],
            [
              688690.4364012734,
              6371111.209515845
            ],
            [
              688697.2075725672,
              6371109.471595182
            ]
          ]
        ]
      }
    },
    {
      "type": "Feature",
      "id": "way/597491147",
      "properties": {
        "label": "Surrounding building way/597491147",
        "scope": "surrounding-context",
        "annotation": "09"
      },
      "geometry": {
        "type": "Polygon",
        "coordinates": [
          [
            [
              688461.129758274,
              6371644.6518517975
            ],
            [
              688469.1871985497,
              6371636.395145568
            ],
            [
              688445.9776939859,
              6371613.837363789
            ],
            [
              688437.9202641847,
              6371622.0941156745
            ],
            [
              688461.129758274,
              6371644.6518517975
            ]
          ]
        ]
      }
    },
    {
      "type": "Feature",
      "id": "way/597491148",
      "properties": {
        "label": "Surrounding building way/597491148",
        "scope": "surrounding-context",
        "annotation": "10"
      },
      "geometry": {
        "type": "Polygon",
        "coordinates": [
          [
            [
              688485.7822302338,
              6371629.124286867
            ],
            [
              688482.768425465,
              6371625.539802383
            ],
            [
              688487.9771334343,
              6371621.176175332
            ],
            [
              688483.3169330583,
              6371615.631333062
            ],
            [
              688468.1672544767,
              6371628.298324298
            ],
            [
              688475.8407493603,
              6371637.438751604
            ],
            [
              688485.7822302338,
              6371629.124286867
            ]
          ]
        ]
      }
    },
    {
      "type": "Feature",
      "id": "way/597491149",
      "properties": {
        "label": "Surrounding building way/597491149",
        "scope": "surrounding-context",
        "annotation": "11"
      },
      "geometry": {
        "type": "Polygon",
        "coordinates": [
          [
            [
              688524.6638694314,
              6371603.2956279125
            ],
            [
              688518.3330947934,
              6371596.703478529
            ],
            [
              688506.1011454067,
              6371608.401574375
            ],
            [
              688512.4259205069,
              6371614.993427315
            ],
            [
              688524.6638694314,
              6371603.2956279125
            ]
          ]
        ]
      }
    },
    {
      "type": "Feature",
      "id": "way/597491150",
      "properties": {
        "label": "Surrounding building way/597491150",
        "scope": "surrounding-context",
        "annotation": "12"
      },
      "geometry": {
        "type": "Polygon",
        "coordinates": [
          [
            [
              688529.9584011396,
              6371592.012428862
            ],
            [
              688522.1762245143,
              6371583.792245442
            ],
            [
              688517.5122085512,
              6371588.203333005
            ],
            [
              688525.2948993348,
              6371596.4123822525
            ],
            [
              688529.9584011396,
              6371592.012428862
            ]
          ]
        ]
      }
    },
    {
      "type": "Feature",
      "id": "way/1309534308",
      "properties": {
        "label": "Surrounding building way/1309534308",
        "scope": "surrounding-context",
        "annotation": "13"
      },
      "geometry": {
        "type": "Polygon",
        "coordinates": [
          [
            [
              688731.2711952,
              6371095.908459632
            ],
            [
              688741.718326114,
              6371094.496935597
            ],
            [
              688740.277294128,
              6371083.816228834
            ],
            [
              688729.8306523293,
              6371085.216631786
            ],
            [
              688731.2711952,
              6371095.908459632
            ]
          ]
        ]
      }
    },
    {
      "type": "Feature",
      "id": "way/1309534309",
      "properties": {
        "label": "Surrounding building way/1309534309",
        "scope": "surrounding-context",
        "annotation": "14"
      },
      "geometry": {
        "type": "Polygon",
        "coordinates": [
          [
            [
              688716.3921366801,
              6371080.346498415
            ],
            [
              688724.0101322668,
              6371079.405972376
            ],
            [
              688721.2884353332,
              6371057.305015015
            ],
            [
              688713.6649166924,
              6371058.234143847
            ],
            [
              688716.3921366801,
              6371080.346498415
            ]
          ]
        ]
      }
    },
    {
      "type": "Feature",
      "id": "way/1309534310",
      "properties": {
        "label": "Surrounding building way/1309534310",
        "scope": "surrounding-context",
        "annotation": "15"
      },
      "geometry": {
        "type": "Polygon",
        "coordinates": [
          [
            [
              688751.7825833167,
              6371046.319411966
            ],
            [
              688752.0270178902,
              6371037.277641714
            ],
            [
              688735.4377723909,
              6371036.832671517
            ],
            [
              688735.1993732407,
              6371045.874719875
            ],
            [
              688751.7825833167,
              6371046.319411966
            ]
          ]
        ]
      }
    },
    {
      "type": "Feature",
      "id": "way/1309542500",
      "properties": {
        "label": "Surrounding building way/1309542500",
        "scope": "surrounding-context",
        "annotation": "16"
      },
      "geometry": {
        "type": "Polygon",
        "coordinates": [
          [
            [
              688657.7435361288,
              6370514.0884566195
            ],
            [
              688659.1751479568,
              6370511.735362462
            ],
            [
              688652.8235016863,
              6370507.895977041
            ],
            [
              688651.39137766,
              6370510.2601986425
            ],
            [
              688657.7435361288,
              6370514.0884566195
            ]
          ]
        ]
      }
    },
    {
      "type": "Feature",
      "id": "way/1309542501",
      "properties": {
        "label": "Surrounding building way/1309542501",
        "scope": "surrounding-context",
        "annotation": "17"
      },
      "geometry": {
        "type": "Polygon",
        "coordinates": [
          [
            [
              688649.5770195832,
              6370509.451536118
            ],
            [
              688651.3103468891,
              6370506.554948397
            ],
            [
              688645.0325592392,
              6370502.808187178
            ],
            [
              688643.299750131,
              6370505.693652235
            ],
            [
              688649.5770195832,
              6370509.451536118
            ]
          ]
        ]
      }
    },
    {
      "type": "Feature",
      "id": "way/1309542502",
      "properties": {
        "label": "Surrounding building way/1309542502",
        "scope": "surrounding-context",
        "annotation": "18"
      },
      "geometry": {
        "type": "Polygon",
        "coordinates": [
          [
            [
              688641.2316883877,
              6370505.040488753
            ],
            [
              688643.1122660688,
              6370501.950028767
            ],
            [
              688633.3039818123,
              6370496.021912513
            ],
            [
              688631.429409055,
              6370499.112654552
            ],
            [
              688641.2316883877,
              6370505.040488753
            ]
          ]
        ]
      }
    },
    {
      "type": "Feature",
      "id": "way/1309542503",
      "properties": {
        "label": "Surrounding building way/1309542503",
        "scope": "surrounding-context",
        "annotation": "19"
      },
      "geometry": {
        "type": "Polygon",
        "coordinates": [
          [
            [
              688610.614335619,
              6370485.350301277
            ],
            [
              688613.2947463566,
              6370481.605594521
            ],
            [
              688606.8919643603,
              6370477.050378741
            ],
            [
              688604.217556712,
              6370480.795367234
            ],
            [
              688610.614335619,
              6370485.350301277
            ]
          ]
        ]
      }
    },
    {
      "type": "Feature",
      "id": "way/1309542504",
      "properties": {
        "label": "Surrounding building way/1309542504",
        "scope": "surrounding-context",
        "annotation": "20"
      },
      "geometry": {
        "type": "Polygon",
        "coordinates": [
          [
            [
              688602.912991294,
              6370479.363667845
            ],
            [
              688605.5997712141,
              6370474.961454834
            ],
            [
              688600.7403126498,
              6370472.005084531
            ],
            [
              688598.0475370929,
              6370476.407023089
            ],
            [
              688602.912991294,
              6370479.363667845
            ]
          ]
        ]
      }
    },
    {
      "type": "Feature",
      "id": "way/1309542505",
      "properties": {
        "label": "Föreningen Träibatn",
        "scope": "surrounding-context",
        "annotation": "21"
      },
      "geometry": {
        "type": "Polygon",
        "coordinates": [
          [
            [
              688663.9519428143,
              6370466.724561723
            ],
            [
              688665.8092250398,
              6370458.292614114
            ],
            [
              688651.9350627699,
              6370455.253424145
            ],
            [
              688650.077808837,
              6370463.685377541
            ],
            [
              688663.9519428143,
              6370466.724561723
            ]
          ]
        ]
      }
    },
    {
      "type": "Feature",
      "id": "way/1309542506",
      "properties": {
        "label": "Surrounding building way/1309542506",
        "scope": "surrounding-context",
        "annotation": "22"
      },
      "geometry": {
        "type": "Polygon",
        "coordinates": [
          [
            [
              688740.6336817705,
              6370346.218288786
            ],
            [
              688741.8985176706,
              6370340.457017567
            ],
            [
              688731.5599884352,
              6370338.18333789
            ],
            [
              688730.2891672578,
              6370343.944334266
            ],
            [
              688740.6336817705,
              6370346.218288786
            ]
          ]
        ]
      }
    },
    {
      "type": "Feature",
      "id": "way/1309542507",
      "properties": {
        "label": "Surrounding building way/1309542507",
        "scope": "surrounding-context",
        "annotation": "23"
      },
      "geometry": {
        "type": "Polygon",
        "coordinates": [
          [
            [
              688766.3478846465,
              6370306.647809005
            ],
            [
              688768.4117149368,
              6370297.266633363
            ],
            [
              688760.1325146441,
              6370295.445021235
            ],
            [
              688758.0621882438,
              6370304.8370481515
            ],
            [
              688766.3478846465,
              6370306.647809005
            ]
          ]
        ]
      }
    },
    {
      "type": "Feature",
      "id": "way/1309542508",
      "properties": {
        "label": "Surrounding building way/1309542508",
        "scope": "surrounding-context",
        "annotation": "24"
      },
      "geometry": {
        "type": "Polygon",
        "coordinates": [
          [
            [
              688750.3767192916,
              6370376.025020618
            ],
            [
              688753.4889305792,
              6370361.920565275
            ],
            [
              688746.4954832314,
              6370360.381490811
            ],
            [
              688743.3892954325,
              6370374.486228837
            ],
            [
              688750.3767192916,
              6370376.025020618
            ]
          ]
        ]
      }
    },
    {
      "type": "Feature",
      "id": "way/1309542509",
      "properties": {
        "label": "Surrounding building way/1309542509",
        "scope": "surrounding-context",
        "annotation": "25"
      },
      "geometry": {
        "type": "Polygon",
        "coordinates": [
          [
            [
              688726.1850335217,
              6370399.733984255
            ],
            [
              688728.3171663831,
              6370390.043782816
            ],
            [
              688722.9602642463,
              6370388.870392936
            ],
            [
              688720.8286590057,
              6370398.549471678
            ],
            [
              688726.1850335217,
              6370399.733984255
            ]
          ]
        ]
      }
    },
    {
      "type": "Feature",
      "id": "way/1309542518",
      "properties": {
        "label": "Surrounding building way/1309542518",
        "scope": "surrounding-context",
        "annotation": "26"
      },
      "geometry": {
        "type": "Polygon",
        "coordinates": [
          [
            [
              688730.2821457501,
              6370280.461001758
            ],
            [
              688732.4556495447,
              6370270.527435366
            ],
            [
              688727.2290383517,
              6370269.393529789
            ],
            [
              688725.0560621748,
              6370279.315973473
            ],
            [
              688730.2821457501,
              6370280.461001758
            ]
          ]
        ]
      }
    },
    {
      "type": "Feature",
      "id": "way/1309542519",
      "properties": {
        "label": "Surrounding building way/1309542519",
        "scope": "surrounding-context",
        "annotation": "27"
      },
      "geometry": {
        "type": "Polygon",
        "coordinates": [
          [
            [
              688781.8617924144,
              6370281.689825985
            ],
            [
              688784.1219627039,
              6370272.0947658615
            ],
            [
              688774.4033125549,
              6370269.805098435
            ],
            [
              688772.1426495317,
              6370279.411288775
            ],
            [
              688781.8617924144,
              6370281.689825985
            ]
          ]
        ]
      }
    },
    {
      "type": "Feature",
      "id": "way/1309542528",
      "properties": {
        "label": "Surrounding building way/1309542528",
        "scope": "surrounding-context",
        "annotation": "28"
      },
      "geometry": {
        "type": "Polygon",
        "coordinates": [
          [
            [
              688758.8019039523,
              6370237.051266311
            ],
            [
              688763.8694235785,
              6370223.572509705
            ],
            [
              688758.1481015205,
              6370221.434539116
            ],
            [
              688753.075114605,
              6370234.9018994365
            ],
            [
              688758.8019039523,
              6370237.051266311
            ]
          ]
        ]
      }
    },
    {
      "type": "Feature",
      "id": "way/1309542529",
      "properties": {
        "label": "Surrounding building way/1309542529",
        "scope": "surrounding-context",
        "annotation": "29"
      },
      "geometry": {
        "type": "Polygon",
        "coordinates": [
          [
            [
              688778.5596250545,
              6370189.010420549
            ],
            [
              688783.9765261865,
              6370174.611335793
            ],
            [
              688776.8662788954,
              6370171.951910187
            ],
            [
              688771.4559159809,
              6370186.3401565235
            ],
            [
              688778.5596250545,
              6370189.010420549
            ]
          ]
        ]
      }
    },
    {
      "type": "Feature",
      "id": "way/1309945201",
      "properties": {
        "label": "Surrounding building way/1309945201",
        "scope": "surrounding-context",
        "annotation": "30"
      },
      "geometry": {
        "type": "Polygon",
        "coordinates": [
          [
            [
              688697.3845528323,
              6370666.380562863
            ],
            [
              688697.2248090671,
              6370663.987258265
            ],
            [
              688694.872756077,
              6370664.14594817
            ],
            [
              688695.0325011939,
              6370666.539252651
            ],
            [
              688697.3845528323,
              6370666.380562863
            ]
          ]
        ]
      }
    },
    {
      "type": "Feature",
      "id": "way/1309945202",
      "properties": {
        "label": "Surrounding building way/1309945202",
        "scope": "surrounding-context",
        "annotation": "31"
      },
      "geometry": {
        "type": "Polygon",
        "coordinates": [
          [
            [
              688729.1453472597,
              6370668.2189905625
            ],
            [
              688729.2323722463,
              6370660.496684136
            ],
            [
              688713.4351926264,
              6370660.311560547
            ],
            [
              688713.3481974807,
              6370668.033866748
            ],
            [
              688729.1453472597,
              6370668.2189905625
            ]
          ]
        ]
      }
    },
    {
      "type": "Feature",
      "id": "way/1309945203",
      "properties": {
        "label": "Surrounding building way/1309945203",
        "scope": "surrounding-context",
        "annotation": "32"
      },
      "geometry": {
        "type": "Polygon",
        "coordinates": [
          [
            [
              688656.877698227,
              6370603.330364294
            ],
            [
              688657.5309536168,
              6370594.931880647
            ],
            [
              688652.7142016508,
              6370594.564003691
            ],
            [
              688652.0614711281,
              6370602.9513626555
            ],
            [
              688656.877698227,
              6370603.330364294
            ]
          ]
        ]
      }
    },
    {
      "type": "Feature",
      "id": "range-east-shelter-2026",
      "properties": {
        "label": "Eastern covered range shelter",
        "scope": "club-facilities",
        "annotation": "33"
      },
      "geometry": {
        "type": "Polygon",
        "coordinates": [
          [
            [
              687484.8,
              6370841.76
            ],
            [
              687499.68,
              6370840.16
            ],
            [
              687498.56,
              6370830.72
            ],
            [
              687483.36,
              6370832.32
            ],
            [
              687484.8,
              6370841.76
            ]
          ]
        ]
      }
    },
    {
      "type": "Feature",
      "id": "range-parking-building-2026",
      "properties": {
        "label": "Long building at rear of range parking",
        "scope": "club-facilities",
        "annotation": "34"
      },
      "geometry": {
        "type": "Polygon",
        "coordinates": [
          [
            [
              687392.16,
              6370826.4
            ],
            [
              687404.9600000001,
              6370833.28
            ],
            [
              687408.9600000001,
              6370826.56
            ],
            [
              687395.52,
              6370819.36
            ],
            [
              687392.16,
              6370826.4
            ]
          ]
        ]
      }
    },
    {
      "type": "Feature",
      "id": "service-west-north-2026",
      "properties": {
        "label": "Western service-yard shed, northern roof",
        "scope": "club-facilities",
        "annotation": "35"
      },
      "geometry": {
        "type": "Polygon",
        "coordinates": [
          [
            [
              687941.92,
              6371048.32
            ],
            [
              687953.28,
              6371052.0
            ],
            [
              687965.28,
              6371021.76
            ],
            [
              687954.24,
              6371017.12
            ],
            [
              687941.92,
              6371048.32
            ]
          ]
        ]
      }
    },
    {
      "type": "Feature",
      "id": "service-west-south-2026",
      "properties": {
        "label": "Western service-yard shed, southern roof",
        "scope": "club-facilities",
        "annotation": "36"
      },
      "geometry": {
        "type": "Polygon",
        "coordinates": [
          [
            [
              687955.04,
              6371017.44
            ],
            [
              687967.04,
              6371020.8
            ],
            [
              687977.92,
              6370992.16
            ],
            [
              687965.4400000001,
              6370987.36
            ],
            [
              687955.04,
              6371017.44
            ]
          ]
        ]
      }
    },
    {
      "type": "Feature",
      "id": "service-north-small-2026",
      "properties": {
        "label": "Small shed at north of service yard",
        "scope": "club-facilities",
        "annotation": "37"
      },
      "geometry": {
        "type": "Polygon",
        "coordinates": [
          [
            [
              687971.2,
              6371090.5600000005
            ],
            [
              687976.64,
              6371092.64
            ],
            [
              687978.72,
              6371087.68
            ],
            [
              687973.28,
              6371085.6
            ],
            [
              687971.2,
              6371090.5600000005
            ]
          ]
        ]
      }
    }
  ]
}
